{
"type": "FeatureCollection",
"name": "Asclepias_purpurascens",
"crs": { "type": "name", "properties": { "name": "urn:ogc:def:crs:OGC:1.3:CRS84" } },
"features": [
{ "type": "Feature", "properties": { "ID": 1 }, "geometry": { "type": "MultiPolygon", "coordinates": [ [ [ [ -106.0416667, 68.5416667 ], [ -106.0416667, 68.5 ], [ -106.0, 68.5416667 ], [ -106.0416667, 68.5416667 ] ] ], [ [ [ -133.9583333, 56.375 ], [ -134.2083333, 56.2916667 ], [ -134.2083333, 56.25 ], [ -134.1666667, 56.0416667 ], [ -133.875, 56.25 ], [ -133.875, 56.2916667 ], [ -133.9583333, 56.375 ] ] ], [ [ [ -79.2916667, 55.6666667 ], [ -79.25, 55.75 ], [ -79.1666667, 55.9166667 ], [ -79.2916667, 55.9166667 ], [ -79.2916667, 55.7083333 ], [ -79.2916667, 55.6666667 ] ] ], [ [ [ -89.375, 48.3333333 ], [ -89.375, 48.2916667 ], [ -89.3333333, 48.3333333 ], [ -89.375, 48.3333333 ] ] ], [ [ [ -77.2083333, 48.375 ], [ -77.2916667, 48.3333333 ], [ -77.375, 48.25 ], [ -77.375, 48.0833333 ], [ -77.2083333, 48.25 ], [ -77.2083333, 48.375 ] ] ], [ [ [ -80.25, 48.0833333 ], [ -80.2916667, 48.0416667 ], [ -80.25, 48.0416667 ], [ -80.25, 48.0833333 ] ] ], [ [ [ -89.5416667, 48.4166667 ], [ -89.8333333, 48.375 ], [ -89.9166667, 48.2916667 ], [ -89.75, 48.0 ], [ -89.7083333, 48.0 ], [ -89.375, 48.125 ], [ -89.4166667, 48.25 ], [ -89.375, 48.2916667 ], [ -89.4166667, 48.2916667 ], [ -89.375, 48.3333333 ], [ -89.5416667, 48.25 ], [ -89.5416667, 48.4166667 ] ] ], [ [ [ -57.6666667, 47.6666667 ], [ -57.625, 47.625 ], [ -57.625, 47.6666667 ], [ -57.6666667, 47.6666667 ] ] ], [ [ [ -57.9166667, 47.7916667 ], [ -58.625, 47.8333333 ], [ -58.75, 47.7083333 ], [ -59.0, 47.7083333 ], [ -59.125, 47.5833333 ], [ -58.5833333, 47.5833333 ], [ -58.3333333, 47.6666667 ], [ -57.9583333, 47.6666667 ], [ -57.9166667, 47.7916667 ] ] ], [ [ [ -76.8333333, 47.5833333 ], [ -76.9166667, 47.5 ], [ -76.875, 47.5 ], [ -76.8333333, 47.5833333 ] ] ], [ [ [ -77.25, 47.4166667 ], [ -77.25, 47.375 ], [ -77.1666667, 47.375 ], [ -77.25, 47.4166667 ] ] ], [ [ [ -65.7083333, 47.375 ], [ -65.7083333, 47.2916667 ], [ -65.6666667, 47.2916667 ], [ -65.6666667, 47.375 ], [ -65.7083333, 47.375 ] ] ], [ [ [ -75.0416667, 47.2916667 ], [ -75.125, 47.375 ], [ -75.1666667, 47.3333333 ], [ -75.125, 47.3333333 ], [ -75.125, 47.2916667 ], [ -75.0416667, 47.2916667 ] ] ], [ [ [ -76.0, 47.2916667 ], [ -76.0416667, 47.25 ], [ -76.0, 47.25 ], [ -76.0, 47.2916667 ] ] ], [ [ [ -65.5416667, 47.2916667 ], [ -65.5416667, 47.25 ], [ -65.5, 47.2916667 ], [ -65.5416667, 47.2916667 ] ] ], [ [ [ -75.1666667, 47.3333333 ], [ -75.2083333, 47.25 ], [ -75.0416667, 47.25 ], [ -75.125, 47.2916667 ], [ -75.1666667, 47.3333333 ] ] ], [ [ [ -65.6666667, 47.2916667 ], [ -65.6666667, 47.1666667 ], [ -65.625, 47.2916667 ], [ -65.6666667, 47.2916667 ] ] ], [ [ [ -65.7916667, 47.2083333 ], [ -65.8333333, 47.0 ], [ -65.6666667, 47.1666667 ], [ -65.7916667, 47.2083333 ] ] ], [ [ [ -55.2083333, 47.0 ], [ -55.5416667, 47.0416667 ], [ -55.625, 46.9166667 ], [ -55.25, 46.875 ], [ -55.2083333, 46.9583333 ], [ -55.2083333, 47.0 ] ] ], [ [ [ -73.9583333, 46.75 ], [ -73.9583333, 46.7083333 ], [ -73.9166667, 46.75 ], [ -73.9583333, 46.75 ] ] ], [ [ [ -66.0, 46.7083333 ], [ -66.0, 46.9166667 ], [ -66.1666667, 46.9166667 ], [ -66.1666667, 46.7083333 ], [ -66.0, 46.7083333 ] ] ], [ [ [ -66.375, 46.5416667 ], [ -66.4166667, 46.4583333 ], [ -66.375, 46.4583333 ], [ -66.375, 46.5416667 ] ] ], [ [ [ -63.375, 46.4583333 ], [ -63.4166667, 46.5416667 ], [ -63.7916667, 46.5 ], [ -63.375, 46.4583333 ] ] ], [ [ [ -90.625, 46.5833333 ], [ -90.7916667, 46.625 ], [ -90.9166667, 46.5 ], [ -90.9166667, 46.4583333 ], [ -90.8333333, 46.4583333 ], [ -90.625, 46.4166667 ], [ -90.7083333, 46.4583333 ], [ -90.5416667, 46.5 ], [ -90.625, 46.5833333 ] ] ], [ [ [ -63.9583333, 46.4583333 ], [ -64.0416667, 46.75 ], [ -64.25, 46.875 ], [ -64.4166667, 46.6666667 ], [ -64.125, 46.5833333 ], [ -64.0416667, 46.4166667 ], [ -63.9583333, 46.4166667 ], [ -63.9583333, 46.4583333 ] ] ], [ [ [ -87.5, 46.625 ], [ -87.625, 46.7916667 ], [ -87.875, 46.9166667 ], [ -88.1666667, 46.9166667 ], [ -88.5, 46.75 ], [ -88.4583333, 47.0 ], [ -88.5833333, 47.125 ], [ -88.7916667, 47.1666667 ], [ -89.3333333, 46.8333333 ], [ -89.75, 46.8333333 ], [ -89.9166667, 46.7083333 ], [ -90.5416667, 46.5 ], [ -90.625, 46.4166667 ], [ -90.4166667, 46.4166667 ], [ -90.375, 46.4166667 ], [ -89.5833333, 46.4166667 ], [ -89.5, 46.5 ], [ -89.5, 46.625 ], [ -89.1666667, 46.5833333 ], [ -89.0833333, 46.6666667 ], [ -88.75, 46.75 ], [ -88.5833333, 46.6666667 ], [ -88.3333333, 46.6666667 ], [ -88.2083333, 46.75 ], [ -87.6666667, 46.7083333 ], [ -87.5, 46.625 ] ] ], [ [ [ -83.625, 46.5833333 ], [ -84.0833333, 46.5833333 ], [ -84.0416667, 46.3333333 ], [ -83.5833333, 46.3333333 ], [ -83.625, 46.5833333 ] ] ], [ [ [ -62.5416667, 46.3333333 ], [ -62.5, 46.2916667 ], [ -62.5, 46.3333333 ], [ -62.5416667, 46.3333333 ] ] ], [ [ [ -87.5, 46.625 ], [ -87.5416667, 46.5 ], [ -87.5, 46.4583333 ], [ -87.4583333, 46.4166667 ], [ -87.5, 46.625 ] ] ], [ [ [ -65.2916667, 46.4583333 ], [ -65.3333333, 46.2916667 ], [ -65.125, 46.25 ], [ -65.2916667, 46.4583333 ] ] ], [ [ [ -66.125, 46.2083333 ], [ -66.2083333, 46.1666667 ], [ -66.1666667, 46.1666667 ], [ -66.125, 46.2083333 ] ] ], [ [ [ -62.3333333, 46.3333333 ], [ -62.125, 46.3333333 ], [ -61.9583333, 46.5 ], [ -62.4583333, 46.5 ], [ -62.4166667, 46.4166667 ], [ -62.5, 46.375 ], [ -62.5, 46.3333333 ], [ -62.3333333, 46.3333333 ] ] ], [ [ [ -85.375, 46.3333333 ], [ -85.5833333, 46.125 ], [ -85.3333333, 46.125 ], [ -85.375, 46.3333333 ] ] ], [ [ [ -66.1666667, 46.1666667 ], [ -66.1666667, 46.125 ], [ -66.125, 46.1666667 ], [ -66.1666667, 46.1666667 ] ] ], [ [ [ -62.7083333, 46.125 ], [ -62.8333333, 46.25 ], [ -62.875, 46.25 ], [ -63.0, 46.2083333 ], [ -62.7083333, 46.0833333 ], [ -62.7083333, 46.125 ] ] ], [ [ [ -64.2083333, 46.2083333 ], [ -64.5, 46.25 ], [ -64.7083333, 46.7083333 ], [ -64.9166667, 46.6666667 ], [ -65.1666667, 46.4166667 ], [ -64.8333333, 46.2916667 ], [ -64.8333333, 46.2083333 ], [ -64.9166667, 46.0 ], [ -64.7083333, 46.0 ], [ -64.5, 46.125 ], [ -64.4583333, 46.125 ], [ -64.25, 46.1666667 ], [ -64.2083333, 46.2083333 ] ] ], [ [ [ -65.4166667, 46.25 ], [ -65.5, 45.9583333 ], [ -65.2916667, 45.9583333 ], [ -65.1666667, 46.1666667 ], [ -65.4166667, 46.25 ] ] ], [ [ [ -85.125, 46.5416667 ], [ -85.25, 46.5416667 ], [ -85.2916667, 46.5 ], [ -85.25, 46.5 ], [ -85.125, 46.4166667 ], [ -85.25, 46.0833333 ], [ -84.9583333, 46.0416667 ], [ -84.7083333, 46.0833333 ], [ -84.2916667, 46.0 ], [ -83.9583333, 46.0 ], [ -84.125, 46.1666667 ], [ -84.2916667, 46.1666667 ], [ -84.25, 46.375 ], [ -84.3333333, 46.5 ], [ -84.625, 46.4583333 ], [ -85.0416667, 46.4583333 ], [ -85.125, 46.5416667 ] ] ], [ [ [ -94.7083333, 45.9166667 ], [ -94.75, 45.8333333 ], [ -94.6666667, 45.8333333 ], [ -94.7083333, 45.9166667 ] ] ], [ [ [ -66.9583333, 45.875 ], [ -66.9583333, 45.8333333 ], [ -66.9166667, 45.875 ], [ -66.9583333, 45.875 ] ] ], [ [ [ -94.6666667, 45.8333333 ], [ -94.6666667, 45.7916667 ], [ -94.625, 45.7916667 ], [ -94.6666667, 45.8333333 ] ] ], [ [ [ -95.0416667, 45.9583333 ], [ -95.0833333, 45.875 ], [ -95.0, 45.75 ], [ -94.8333333, 45.75 ], [ -94.7916667, 45.8333333 ], [ -94.875, 45.8333333 ], [ -94.875, 45.9583333 ], [ -95.0416667, 45.9583333 ] ] ], [ [ [ -61.4166667, 45.7916667 ], [ -61.375, 45.75 ], [ -61.375, 45.7916667 ], [ -61.4166667, 45.7916667 ] ] ], [ [ [ -61.375, 45.7916667 ], [ -61.0833333, 45.7083333 ], [ -61.125, 45.9166667 ], [ -61.125, 45.875 ], [ -61.375, 45.7916667 ] ] ], [ [ [ -82.4166667, 45.9583333 ], [ -82.4583333, 45.7083333 ], [ -81.875, 45.6666667 ], [ -81.9166667, 45.9583333 ], [ -82.25, 45.9166667 ], [ -82.4166667, 45.9583333 ] ] ], [ [ [ -66.2083333, 46.1666667 ], [ -66.375, 46.125 ], [ -66.4166667, 46.0416667 ], [ -66.7916667, 46.0833333 ], [ -66.9583333, 46.0 ], [ -66.875, 45.9166667 ], [ -66.75, 45.6666667 ], [ -66.5833333, 45.6666667 ], [ -66.5, 45.75 ], [ -66.0833333, 45.75 ], [ -66.0833333, 45.875 ], [ -66.25, 46.0416667 ], [ -66.2083333, 46.125 ], [ -66.2083333, 46.1666667 ] ] ], [ [ [ -68.2083333, 45.5833333 ], [ -68.2083333, 45.5416667 ], [ -68.1666667, 45.5416667 ], [ -68.2083333, 45.5833333 ] ] ], [ [ [ -61.25, 45.3333333 ], [ -61.4166667, 45.25 ], [ -61.375, 45.1666667 ], [ -61.2916667, 45.2083333 ], [ -61.25, 45.3333333 ] ] ], [ [ [ -61.4166667, 45.6666667 ], [ -61.5833333, 45.4583333 ], [ -61.625, 45.375 ], [ -61.625, 45.25 ], [ -61.5416667, 45.125 ], [ -61.375, 45.1666667 ], [ -61.5, 45.2916667 ], [ -61.4166667, 45.375 ], [ -61.4166667, 45.6666667 ] ] ], [ [ [ -71.0416667, 44.5 ], [ -71.1666667, 44.375 ], [ -71.0833333, 44.375 ], [ -71.0833333, 44.4166667 ], [ -71.0, 44.4583333 ], [ -71.0416667, 44.5 ] ] ], [ [ [ -70.7916667, 44.3333333 ], [ -70.7916667, 44.2916667 ], [ -70.75, 44.3333333 ], [ -70.7916667, 44.3333333 ] ] ], [ [ [ -95.1666667, 44.2083333 ], [ -95.1666667, 44.1666667 ], [ -95.0833333, 44.1666667 ], [ -95.1666667, 44.2083333 ] ] ], [ [ [ -71.3333333, 44.0416667 ], [ -71.25, 43.9166667 ], [ -71.25, 43.9583333 ], [ -71.1666667, 44.0416667 ], [ -71.2916667, 44.0 ], [ -71.3333333, 44.0416667 ] ] ], [ [ [ -79.75, 39.375 ], [ -79.7916667, 39.25 ], [ -79.7083333, 39.375 ], [ -79.75, 39.375 ] ] ], [ [ [ -84.7916667, 38.625 ], [ -84.8333333, 38.5833333 ], [ -84.7916667, 38.5833333 ], [ -84.7916667, 38.625 ] ] ], [ [ [ -78.125, 38.875 ], [ -78.3333333, 38.7916667 ], [ -78.2916667, 38.5416667 ], [ -78.2916667, 38.7083333 ], [ -78.125, 38.875 ] ] ], [ [ [ -84.8333333, 38.5416667 ], [ -84.7916667, 38.5 ], [ -84.7916667, 38.5416667 ], [ -84.8333333, 38.5416667 ] ] ], [ [ [ -78.4583333, 38.4583333 ], [ -78.4583333, 38.4166667 ], [ -78.375, 38.4166667 ], [ -78.4583333, 38.4583333 ] ] ], [ [ [ -84.7916667, 38.5 ], [ -84.6666667, 38.2916667 ], [ -84.5, 38.3333333 ], [ -84.5416667, 38.8333333 ], [ -84.625, 38.9166667 ], [ -84.7083333, 38.75 ], [ -84.6666667, 38.4583333 ], [ -84.5833333, 38.4166667 ], [ -84.7916667, 38.5 ] ] ], [ [ [ -78.5833333, 38.375 ], [ -78.6666667, 38.2916667 ], [ -78.5416667, 38.2916667 ], [ -78.5, 38.375 ], [ -78.5833333, 38.375 ] ] ], [ [ [ -78.7916667, 38.25 ], [ -78.7083333, 38.0833333 ], [ -78.7083333, 38.2083333 ], [ -78.625, 38.2083333 ], [ -78.6666667, 38.2916667 ], [ -78.75, 38.25 ], [ -78.7916667, 38.25 ] ] ], [ [ [ -77.2083333, 38.125 ], [ -77.125, 38.0833333 ], [ -77.125, 38.125 ], [ -77.2083333, 38.125 ] ] ], [ [ [ -81.3333333, 37.9583333 ], [ -81.3333333, 38.0 ], [ -81.4583333, 37.9583333 ], [ -81.5, 37.875 ], [ -81.2916667, 37.8333333 ], [ -81.3333333, 37.9583333 ] ] ], [ [ [ -81.25, 37.7916667 ], [ -81.25, 37.75 ], [ -81.2083333, 37.75 ], [ -81.25, 37.7916667 ] ] ], [ [ [ -81.5, 37.875 ], [ -81.6666667, 37.8333333 ], [ -81.5, 37.7083333 ], [ -81.4166667, 37.7916667 ], [ -81.5, 37.875 ] ] ], [ [ [ -84.5416667, 37.75 ], [ -84.4166667, 38.0416667 ], [ -84.5416667, 38.125 ], [ -84.75, 38.0833333 ], [ -84.7916667, 37.8333333 ], [ -84.75, 37.625 ], [ -84.5416667, 37.75 ] ] ], [ [ [ -75.5, 35.375 ], [ -75.7083333, 35.2083333 ], [ -75.5, 35.2083333 ], [ -75.5, 35.375 ] ] ], [ [ [ -84.25, 33.9583333 ], [ -84.4166667, 33.9166667 ], [ -84.375, 33.625 ], [ -84.125, 33.875 ], [ -84.25, 33.9583333 ] ] ], [ [ [ -89.2083333, 36.375 ], [ -89.2916667, 36.625 ], [ -89.4166667, 36.7083333 ], [ -89.75, 36.7083333 ], [ -89.9583333, 36.4583333 ], [ -89.9583333, 36.2916667 ], [ -90.0833333, 36.125 ], [ -90.5833333, 36.0833333 ], [ -90.7916667, 35.875 ], [ -90.7916667, 35.7083333 ], [ -91.0, 35.5416667 ], [ -91.0416667, 35.3333333 ], [ -91.125, 35.0833333 ], [ -91.25, 34.9166667 ], [ -91.7916667, 34.625 ], [ -91.7916667, 34.3333333 ], [ -91.5416667, 34.2083333 ], [ -91.375, 33.9583333 ], [ -91.1666667, 33.9166667 ], [ -91.125, 33.625 ], [ -90.9583333, 33.75 ], [ -90.7083333, 33.6666667 ], [ -90.7083333, 33.5416667 ], [ -90.5833333, 33.4166667 ], [ -90.4166667, 33.4166667 ], [ -90.375, 33.625 ], [ -90.5, 33.6666667 ], [ -90.5416667, 33.9583333 ], [ -90.5, 34.4583333 ], [ -90.5, 34.5 ], [ -90.125, 34.7083333 ], [ -90.0, 34.7083333 ], [ -89.7083333, 35.0416667 ], [ -89.4583333, 35.4583333 ], [ -89.25, 35.4583333 ], [ -89.125, 35.7083333 ], [ -89.125, 36.0416667 ], [ -89.2083333, 36.375 ] ], [ [ -90.9166667, 34.5833333 ], [ -90.9166667, 34.4166667 ], [ -90.7916667, 34.2916667 ], [ -90.9583333, 34.2083333 ], [ -91.0, 34.5416667 ], [ -90.9166667, 34.5833333 ] ], [ [ -90.9583333, 33.75 ], [ -91.0, 33.9166667 ], [ -90.7916667, 33.9583333 ], [ -90.7916667, 33.7916667 ], [ -90.9583333, 33.75 ] ] ], [ [ [ -91.125, 33.2916667 ], [ -91.125, 33.2083333 ], [ -91.0833333, 33.125 ], [ -91.0416667, 33.125 ], [ -91.0416667, 33.2916667 ], [ -91.125, 33.2916667 ] ] ], [ [ [ -69.1666667, 49.4583333 ], [ -69.3333333, 49.375 ], [ -69.375, 49.0833333 ], [ -69.875, 49.0833333 ], [ -70.0833333, 48.9166667 ], [ -69.9583333, 48.8333333 ], [ -70.0, 48.625 ], [ -70.0833333, 48.5833333 ], [ -70.375, 48.4583333 ], [ -70.4583333, 48.5416667 ], [ -70.8333333, 48.5833333 ], [ -71.0, 48.7083333 ], [ -71.4583333, 48.6666667 ], [ -71.5, 48.6666667 ], [ -71.5416667, 48.6666667 ], [ -71.625, 48.625 ], [ -71.7916667, 48.4583333 ], [ -72.125, 48.5 ], [ -72.1666667, 48.5 ], [ -72.4166667, 48.7083333 ], [ -72.4583333, 48.7916667 ], [ -72.4583333, 48.75 ], [ -72.5, 48.75 ], [ -72.5416667, 48.6666667 ], [ -72.3333333, 48.5 ], [ -72.3333333, 48.2916667 ], [ -72.5, 48.2916667 ], [ -72.5416667, 48.125 ], [ -72.5833333, 48.125 ], [ -72.625, 48.125 ], [ -72.7083333, 48.0416667 ], [ -73.125, 47.875 ], [ -73.2916667, 47.6666667 ], [ -73.4166667, 47.5 ], [ -73.5, 47.4166667 ], [ -73.5, 47.375 ], [ -73.5416667, 47.3333333 ], [ -73.5833333, 47.2083333 ], [ -73.5416667, 47.0 ], [ -73.7083333, 47.0 ], [ -73.7083333, 47.125 ], [ -73.75, 47.125 ], [ -73.75, 47.0 ], [ -73.7916667, 47.0 ], [ -73.6666667, 46.875 ], [ -73.875, 46.8333333 ], [ -73.9166667, 46.8333333 ], [ -73.9166667, 46.75 ], [ -73.875, 46.6666667 ], [ -74.0, 46.5833333 ], [ -74.5833333, 46.5833333 ], [ -74.5833333, 46.5 ], [ -74.9166667, 46.4166667 ], [ -74.9166667, 46.6666667 ], [ -75.0833333, 46.7916667 ], [ -75.0416667, 46.8333333 ], [ -75.0833333, 46.8333333 ], [ -75.0416667, 46.875 ], [ -75.2916667, 46.7083333 ], [ -75.2916667, 46.9583333 ], [ -75.0416667, 46.9583333 ], [ -75.5, 47.2916667 ], [ -75.5833333, 47.3333333 ], [ -75.6666667, 47.375 ], [ -75.7083333, 47.3333333 ], [ -75.75, 47.2916667 ], [ -75.8333333, 47.25 ], [ -75.8333333, 47.2083333 ], [ -76.0, 47.1666667 ], [ -76.0416667, 47.1666667 ], [ -76.0416667, 47.25 ], [ -76.0833333, 47.25 ], [ -76.0833333, 47.3333333 ], [ -76.125, 47.25 ], [ -76.1666667, 47.25 ], [ -76.2916667, 47.1666667 ], [ -76.5416667, 47.0833333 ], [ -76.5833333, 47.0833333 ], [ -76.625, 47.0833333 ], [ -76.6666667, 47.1666667 ], [ -76.8333333, 47.25 ], [ -76.875, 47.375 ], [ -76.9583333, 47.3333333 ], [ -76.9583333, 47.4583333 ], [ -77.0, 47.3333333 ], [ -77.1666667, 47.375 ], [ -77.25, 47.3333333 ], [ -77.375, 47.3333333 ], [ -77.5416667, 47.4583333 ], [ -77.75, 47.375 ], [ -78.3333333, 47.375 ], [ -78.3333333, 47.3333333 ], [ -78.375, 47.3333333 ], [ -78.375, 47.375 ], [ -78.5833333, 47.5416667 ], [ -78.5833333, 47.75 ], [ -78.9166667, 47.7083333 ], [ -79.0, 47.75 ], [ -79.375, 47.6666667 ], [ -79.5416667, 47.7083333 ], [ -79.5416667, 47.9583333 ], [ -79.7083333, 48.1666667 ], [ -80.0416667, 48.1666667 ], [ -80.2083333, 48.0416667 ], [ -80.2083333, 47.9583333 ], [ -80.2083333, 47.9166667 ], [ -80.25, 47.9583333 ], [ -80.3333333, 47.9583333 ], [ -80.3333333, 47.9166667 ], [ -80.3333333, 47.875 ], [ -80.5, 47.75 ], [ -80.5, 47.625 ], [ -80.4583333, 47.375 ], [ -80.4583333, 47.3333333 ], [ -80.375, 47.25 ], [ -80.2916667, 47.2083333 ], [ -80.5416667, 47.0 ], [ -80.625, 46.9583333 ], [ -80.7083333, 46.8333333 ], [ -80.8333333, 46.7916667 ], [ -80.75, 46.8333333 ], [ -80.9166667, 46.9166667 ], [ -80.9166667, 46.7083333 ], [ -81.125, 46.625 ], [ -81.4166667, 46.6666667 ], [ -81.5, 46.5 ], [ -81.5833333, 46.5416667 ], [ -81.8333333, 46.5833333 ], [ -82.2083333, 46.75 ], [ -82.25, 46.5833333 ], [ -82.625, 46.625 ], [ -82.5, 46.4583333 ], [ -82.2083333, 46.4166667 ], [ -82.1666667, 46.4166667 ], [ -82.0416667, 46.4166667 ], [ -82.1666667, 46.2916667 ], [ -82.375, 46.4166667 ], [ -82.7916667, 46.3333333 ], [ -82.625, 46.2083333 ], [ -82.2916667, 46.2083333 ], [ -82.0416667, 46.125 ], [ -81.5833333, 46.1666667 ], [ -81.4583333, 46.0 ], [ -81.125, 45.9583333 ], [ -80.7083333, 45.9583333 ], [ -80.7083333, 45.875 ], [ -80.0833333, 45.875 ], [ -79.75, 45.5833333 ], [ -79.4166667, 45.375 ], [ -78.7916667, 45.375 ], [ -78.4166667, 45.125 ], [ -78.5, 44.875 ], [ -78.5, 44.7916667 ], [ -78.5833333, 44.7083333 ], [ -78.6666667, 44.75 ], [ -78.75, 44.875 ], [ -78.8333333, 44.8333333 ], [ -79.125, 44.8333333 ], [ -79.2916667, 44.9166667 ], [ -79.5416667, 44.75 ], [ -79.7083333, 44.6666667 ], [ -79.875, 44.7083333 ], [ -79.9166667, 44.5833333 ], [ -80.0416667, 44.4583333 ], [ -80.2916667, 44.4583333 ], [ -80.4583333, 44.3333333 ], [ -80.7916667, 44.4166667 ], [ -80.8333333, 44.4166667 ], [ -80.8333333, 44.5833333 ], [ -81.2083333, 44.6666667 ], [ -81.4166667, 44.375 ], [ -81.2916667, 44.2083333 ], [ -81.3333333, 44.1666667 ], [ -81.5, 44.0833333 ], [ -81.7083333, 44.0 ], [ -81.7083333, 43.5833333 ], [ -81.6666667, 43.4166667 ], [ -81.875, 43.2083333 ], [ -82.0, 43.2083333 ], [ -82.1666667, 43.0416667 ], [ -82.4583333, 43.0 ], [ -82.5416667, 43.1666667 ], [ -82.5416667, 43.4166667 ], [ -82.625, 43.5416667 ], [ -82.625, 43.75 ], [ -82.875, 44.0416667 ], [ -83.3333333, 43.9166667 ], [ -83.4583333, 43.6666667 ], [ -83.625, 43.5833333 ], [ -83.9583333, 43.6666667 ], [ -83.9583333, 43.9166667 ], [ -83.8333333, 44.0416667 ], [ -83.5833333, 44.125 ], [ -83.5833333, 44.25 ], [ -83.3333333, 44.375 ], [ -83.3333333, 44.875 ], [ -83.4583333, 44.9166667 ], [ -83.4166667, 45.1666667 ], [ -83.4583333, 45.3333333 ], [ -83.625, 45.3333333 ], [ -83.9583333, 45.5 ], [ -84.1666667, 45.5 ], [ -84.2916667, 45.6666667 ], [ -84.625, 45.75 ], [ -84.9166667, 45.75 ], [ -85.0833333, 45.5833333 ], [ -85.0416667, 45.4583333 ], [ -85.375, 45.25 ], [ -85.2916667, 45.0416667 ], [ -85.3333333, 45.0 ], [ -85.5, 44.75 ], [ -85.7916667, 44.9166667 ], [ -86.0416667, 44.9166667 ], [ -86.0833333, 44.7083333 ], [ -86.2083333, 44.6666667 ], [ -86.25, 44.3333333 ], [ -86.375, 44.2083333 ], [ -86.4166667, 43.75 ], [ -86.5, 43.625 ], [ -86.375, 43.375 ], [ -86.25, 43.2916667 ], [ -86.2083333, 43.0416667 ], [ -86.2083333, 42.5833333 ], [ -86.3333333, 42.25 ], [ -86.5416667, 41.9583333 ], [ -86.8333333, 41.7083333 ], [ -87.0833333, 41.625 ], [ -87.4583333, 41.625 ], [ -87.625, 41.7916667 ], [ -87.7083333, 42.0416667 ], [ -87.8333333, 42.1666667 ], [ -87.8333333, 42.7083333 ], [ -87.9166667, 43.0 ], [ -87.9166667, 43.375 ], [ -87.7083333, 43.7083333 ], [ -87.7083333, 44.0833333 ], [ -87.5416667, 44.1666667 ], [ -87.5416667, 44.4583333 ], [ -87.375, 44.7916667 ], [ -87.625, 44.8333333 ], [ -87.875, 44.5416667 ], [ -88.0416667, 44.6666667 ], [ -87.875, 44.9583333 ], [ -87.6666667, 45.0 ], [ -87.625, 45.2083333 ], [ -87.3333333, 45.4583333 ], [ -87.2083333, 45.7083333 ], [ -86.9583333, 45.75 ], [ -86.7916667, 45.875 ], [ -86.3333333, 45.875 ], [ -86.25, 46.0 ], [ -85.7916667, 46.0 ], [ -85.625, 46.1666667 ], [ -86.0833333, 46.4166667 ], [ -86.2083333, 46.4583333 ], [ -86.25, 46.4583333 ], [ -86.2916667, 46.375 ], [ -86.375, 46.375 ], [ -86.5833333, 46.4583333 ], [ -86.75, 46.375 ], [ -86.9583333, 46.125 ], [ -87.125, 46.1666667 ], [ -87.2916667, 46.0416667 ], [ -87.5416667, 45.75 ], [ -87.5416667, 45.7916667 ], [ -87.5833333, 45.75 ], [ -87.75, 45.75 ], [ -87.7083333, 45.7083333 ], [ -87.7083333, 45.5416667 ], [ -87.7916667, 45.3333333 ], [ -87.9166667, 45.25 ], [ -87.9583333, 45.0416667 ], [ -88.0833333, 44.9166667 ], [ -88.5, 44.6666667 ], [ -88.9166667, 44.5833333 ], [ -89.0833333, 44.7083333 ], [ -89.2916667, 44.7083333 ], [ -89.3333333, 44.8333333 ], [ -89.4583333, 44.9166667 ], [ -89.4583333, 45.0 ], [ -89.875, 45.0416667 ], [ -89.9166667, 44.9166667 ], [ -90.0, 44.8333333 ], [ -89.8333333, 44.5416667 ], [ -89.7916667, 44.3333333 ], [ -89.5, 44.4166667 ], [ -89.5, 44.1666667 ], [ -89.375, 44.0416667 ], [ -89.375, 43.5416667 ], [ -89.5416667, 43.5416667 ], [ -89.6666667, 43.375 ], [ -89.7083333, 43.25 ], [ -89.9583333, 43.1666667 ], [ -90.5, 43.1666667 ], [ -90.5416667, 43.25 ], [ -90.5416667, 43.75 ], [ -90.5416667, 43.7916667 ], [ -90.5, 43.9166667 ], [ -90.8333333, 43.9166667 ], [ -90.7916667, 44.0416667 ], [ -91.2916667, 44.125 ], [ -91.5, 44.2083333 ], [ -91.5, 44.4583333 ], [ -91.6666667, 44.4583333 ], [ -91.75, 44.625 ], [ -92.0416667, 44.7083333 ], [ -92.0416667, 44.7916667 ], [ -92.0416667, 44.8333333 ], [ -92.2916667, 44.875 ], [ -92.5833333, 45.0833333 ], [ -92.5833333, 45.2083333 ], [ -92.7916667, 45.4166667 ], [ -93.2083333, 45.4166667 ], [ -93.4166667, 45.25 ], [ -93.875, 45.25 ], [ -93.875, 45.3333333 ], [ -94.25, 45.3333333 ], [ -94.2083333, 45.4583333 ], [ -94.3333333, 45.625 ], [ -94.4583333, 45.6666667 ], [ -94.5416667, 45.7083333 ], [ -94.5416667, 45.5833333 ], [ -94.625, 45.5 ], [ -94.8333333, 45.5 ], [ -94.8333333, 45.4583333 ], [ -94.7916667, 45.4166667 ], [ -94.75, 45.4166667 ], [ -94.7083333, 45.4166667 ], [ -94.75, 45.375 ], [ -94.7916667, 45.375 ], [ -94.9583333, 45.375 ], [ -95.125, 45.5 ], [ -95.2083333, 45.2083333 ], [ -95.2083333, 45.0833333 ], [ -95.4583333, 45.0416667 ], [ -95.4583333, 45.0 ], [ -95.5416667, 44.9583333 ], [ -95.625, 44.875 ], [ -95.5833333, 44.6666667 ], [ -95.6666667, 44.5416667 ], [ -95.75, 44.4583333 ], [ -95.7083333, 44.3333333 ], [ -95.625, 44.375 ], [ -95.5833333, 44.375 ], [ -95.4166667, 44.2916667 ], [ -95.4166667, 44.375 ], [ -95.25, 44.375 ], [ -95.2083333, 44.2916667 ], [ -94.9166667, 44.25 ], [ -95.0833333, 44.1666667 ], [ -95.125, 44.125 ], [ -95.25, 43.9166667 ], [ -95.25, 43.8333333 ], [ -95.2083333, 43.8333333 ], [ -95.2083333, 43.7916667 ], [ -95.125, 43.7083333 ], [ -95.25, 43.6666667 ], [ -95.2083333, 43.5833333 ], [ -95.2916667, 43.5833333 ], [ -95.2916667, 43.5 ], [ -95.3333333, 43.375 ], [ -95.25, 43.3333333 ], [ -94.9583333, 43.1666667 ], [ -95.0833333, 43.0833333 ], [ -94.7916667, 43.0 ], [ -94.5416667, 43.0833333 ], [ -94.5, 42.8333333 ], [ -94.2916667, 42.7083333 ], [ -94.1666667, 42.75 ], [ -93.75, 42.75 ], [ -93.6666667, 42.5416667 ], [ -93.4583333, 42.5416667 ], [ -93.4583333, 42.25 ], [ -93.375, 42.0416667 ], [ -93.5, 42.0 ], [ -93.4166667, 41.7916667 ], [ -93.7916667, 41.7916667 ], [ -93.7083333, 41.4583333 ], [ -93.5, 41.125 ], [ -93.3333333, 41.125 ], [ -93.125, 41.0 ], [ -93.0416667, 40.7083333 ], [ -93.0833333, 40.625 ], [ -93.0833333, 40.1666667 ], [ -93.0416667, 39.9166667 ], [ -93.0416667, 39.8333333 ], [ -93.0833333, 39.5 ], [ -92.875, 39.5 ], [ -92.7083333, 39.625 ], [ -92.6666667, 39.4166667 ], [ -92.8333333, 39.125 ], [ -92.5, 39.1666667 ], [ -92.2916667, 39.0 ], [ -92.125, 39.0833333 ], [ -92.125, 39.4583333 ], [ -92.0416667, 39.5416667 ], [ -91.75, 39.4583333 ], [ -91.4583333, 39.5416667 ], [ -90.625, 39.5416667 ], [ -90.6666667, 39.8333333 ], [ -90.3333333, 39.9166667 ], [ -90.25, 39.75 ], [ -90.25, 39.7083333 ], [ -90.3333333, 39.0833333 ], [ -90.5833333, 39.0416667 ], [ -90.5416667, 38.9166667 ], [ -90.5, 38.625 ], [ -90.2083333, 38.5416667 ], [ -90.2083333, 38.3333333 ], [ -89.9166667, 38.375 ], [ -89.6666667, 38.0416667 ], [ -89.5, 37.75 ], [ -89.4166667, 37.3333333 ], [ -89.375, 36.9166667 ], [ -89.125, 36.9583333 ], [ -88.875, 37.1666667 ], [ -89.1666667, 37.25 ], [ -89.0, 37.4583333 ], [ -88.6666667, 37.4583333 ], [ -88.4166667, 37.5833333 ], [ -88.75, 37.6666667 ], [ -88.75, 37.7083333 ], [ -88.9166667, 37.8333333 ], [ -88.875, 38.1666667 ], [ -88.75, 38.2916667 ], [ -88.75, 38.5416667 ], [ -88.6666667, 38.7916667 ], [ -88.4583333, 38.7916667 ], [ -88.2916667, 38.2916667 ], [ -88.1666667, 38.0833333 ], [ -88.125, 37.9166667 ], [ -88.0416667, 37.7083333 ], [ -87.7916667, 37.5416667 ], [ -87.5833333, 37.5833333 ], [ -87.5833333, 37.625 ], [ -87.4583333, 37.6666667 ], [ -87.25, 37.875 ], [ -87.1666667, 38.0416667 ], [ -87.0, 38.1666667 ], [ -87.0, 38.5833333 ], [ -87.125, 38.7916667 ], [ -87.125, 38.9583333 ], [ -86.9166667, 39.2083333 ], [ -86.75, 39.0 ], [ -86.375, 39.0 ], [ -86.1666667, 38.9166667 ], [ -86.0416667, 39.0416667 ], [ -85.875, 39.0416667 ], [ -85.7083333, 38.9166667 ], [ -85.6666667, 38.625 ], [ -86.0, 38.625 ], [ -86.0, 38.125 ], [ -85.5416667, 38.125 ], [ -85.5, 38.2916667 ], [ -85.2916667, 38.4583333 ], [ -85.2083333, 38.7083333 ], [ -85.0, 39.125 ], [ -85.0, 39.2916667 ], [ -85.1666667, 39.375 ], [ -85.1666667, 39.7083333 ], [ -85.0416667, 39.7083333 ], [ -84.6666667, 39.6666667 ], [ -84.625, 39.5416667 ], [ -84.375, 39.5416667 ], [ -84.25, 39.4166667 ], [ -84.25, 39.0 ], [ -84.2083333, 38.8333333 ], [ -84.0416667, 38.875 ], [ -83.625, 38.875 ], [ -83.5833333, 38.9583333 ], [ -83.1666667, 38.9583333 ], [ -83.0416667, 39.2083333 ], [ -83.0833333, 39.5416667 ], [ -82.6666667, 39.5416667 ], [ -82.2916667, 39.9166667 ], [ -82.0416667, 39.9166667 ], [ -82.0833333, 39.75 ], [ -81.5, 39.7083333 ], [ -81.4583333, 39.625 ], [ -81.0833333, 39.7916667 ], [ -81.0416667, 39.9166667 ], [ -80.7916667, 39.9166667 ], [ -80.6666667, 40.0416667 ], [ -80.375, 40.0416667 ], [ -80.2083333, 40.125 ], [ -80.125, 40.2916667 ], [ -80.0833333, 40.2916667 ], [ -80.0416667, 40.4583333 ], [ -80.0, 40.625 ], [ -80.1666667, 40.7916667 ], [ -80.4583333, 40.9583333 ], [ -80.4166667, 41.125 ], [ -80.0, 41.125 ], [ -79.9583333, 41.0416667 ], [ -79.625, 40.9583333 ], [ -79.5, 40.9166667 ], [ -79.2916667, 41.1666667 ], [ -79.2083333, 41.0833333 ], [ -79.125, 40.875 ], [ -79.2083333, 40.625 ], [ -79.1666667, 40.4583333 ], [ -79.5, 40.0416667 ], [ -79.8333333, 39.7083333 ], [ -79.9166667, 39.5416667 ], [ -79.75, 39.375 ], [ -79.7083333, 39.4166667 ], [ -79.7083333, 39.375 ], [ -79.5416667, 39.25 ], [ -79.4583333, 39.25 ], [ -79.3333333, 39.3333333 ], [ -79.2916667, 39.3333333 ], [ -79.25, 39.3333333 ], [ -79.125, 39.4166667 ], [ -78.9166667, 39.5 ], [ -78.7916667, 39.7083333 ], [ -78.1666667, 39.6666667 ], [ -78.2083333, 39.4583333 ], [ -78.0833333, 39.4166667 ], [ -77.9166667, 39.4583333 ], [ -77.7916667, 39.3333333 ], [ -77.8333333, 39.1666667 ], [ -78.125, 38.875 ], [ -77.9583333, 38.9166667 ], [ -77.8333333, 39.0833333 ], [ -77.625, 39.0416667 ], [ -77.5, 39.25 ], [ -77.4583333, 39.125 ], [ -77.4583333, 38.6666667 ], [ -77.5, 38.5 ], [ -77.125, 38.2083333 ], [ -77.125, 38.125 ], [ -77.0416667, 38.0833333 ], [ -76.9166667, 37.9166667 ], [ -76.9583333, 37.4166667 ], [ -77.0833333, 37.3333333 ], [ -77.0833333, 36.9166667 ], [ -77.0, 36.7083333 ], [ -76.875, 36.2083333 ], [ -76.8333333, 35.8333333 ], [ -77.0833333, 35.5833333 ], [ -77.125, 35.2916667 ], [ -77.4583333, 34.9166667 ], [ -77.6666667, 34.7916667 ], [ -77.6666667, 34.6666667 ], [ -78.0416667, 34.1666667 ], [ -78.0, 33.9583333 ], [ -78.3333333, 34.0416667 ], [ -78.5, 33.9166667 ], [ -78.5833333, 33.9583333 ], [ -78.7083333, 33.9583333 ], [ -79.0, 33.875 ], [ -79.1666667, 33.7083333 ], [ -79.2916667, 33.4583333 ], [ -79.2916667, 33.4166667 ], [ -79.3333333, 33.375 ], [ -79.2916667, 33.2083333 ], [ -79.5416667, 33.125 ], [ -79.5833333, 33.0 ], [ -79.3333333, 33.0 ], [ -79.0416667, 33.4166667 ], [ -78.9583333, 33.6666667 ], [ -78.4583333, 33.875 ], [ -78.0416667, 33.875 ], [ -77.875, 33.9583333 ], [ -77.875, 34.0833333 ], [ -77.625, 34.375 ], [ -77.4166667, 34.5 ], [ -77.0, 34.6666667 ], [ -76.5833333, 34.6666667 ], [ -76.375, 34.7916667 ], [ -76.125, 35.0 ], [ -75.8333333, 35.1666667 ], [ -76.1666667, 35.0416667 ], [ -76.5416667, 35.0833333 ], [ -76.4583333, 35.3333333 ], [ -76.0833333, 35.3333333 ], [ -75.9166667, 35.5416667 ], [ -75.7083333, 35.5833333 ], [ -75.7083333, 35.875 ], [ -75.5, 35.6666667 ], [ -75.5, 35.375 ], [ -75.4583333, 35.75 ], [ -75.6666667, 36.125 ], [ -75.75, 36.1666667 ], [ -75.8333333, 36.5833333 ], [ -75.9583333, 36.7916667 ], [ -75.9583333, 36.9583333 ], [ -76.25, 36.9583333 ], [ -76.3333333, 37.2916667 ], [ -76.25, 37.2916667 ], [ -76.25, 37.6666667 ], [ -76.2083333, 37.9166667 ], [ -76.4583333, 38.0 ], [ -76.5, 38.0833333 ], [ -76.375, 38.2083333 ], [ -76.375, 38.4166667 ], [ -76.5, 38.5 ], [ -76.5, 38.8333333 ], [ -76.375, 39.0 ], [ -76.3333333, 38.8333333 ], [ -76.3333333, 38.5416667 ], [ -76.3333333, 38.5 ], [ -76.2916667, 38.2916667 ], [ -76.125, 38.2083333 ], [ -76.0833333, 37.9166667 ], [ -75.7916667, 37.9166667 ], [ -75.9583333, 37.625 ], [ -76.0416667, 37.375 ], [ -76.0416667, 37.1666667 ], [ -75.875, 37.0833333 ], [ -75.7916667, 37.2916667 ], [ -75.625, 37.4166667 ], [ -75.5416667, 37.75 ], [ -75.3333333, 37.8333333 ], [ -75.0416667, 38.3333333 ], [ -75.0416667, 38.75 ], [ -75.1666667, 38.7916667 ], [ -75.375, 39.0416667 ], [ -75.4166667, 39.3333333 ], [ -75.1666667, 39.1666667 ], [ -74.9166667, 39.1666667 ], [ -75.0, 38.9166667 ], [ -74.8333333, 38.9166667 ], [ -74.5416667, 39.2916667 ], [ -74.375, 39.3333333 ], [ -74.125, 39.625 ], [ -74.0416667, 39.875 ], [ -74.0416667, 40.0833333 ], [ -73.9583333, 40.2083333 ], [ -74.0416667, 40.4583333 ], [ -73.8333333, 40.5833333 ], [ -73.25, 40.5833333 ], [ -72.25, 40.9166667 ], [ -71.9166667, 41.0416667 ], [ -72.2083333, 41.1666667 ], [ -72.375, 41.1666667 ], [ -72.5833333, 41.0 ], [ -73.1666667, 41.0 ], [ -73.6666667, 40.9166667 ], [ -73.5833333, 41.0 ], [ -73.0833333, 41.125 ], [ -72.8333333, 41.25 ], [ -72.1666667, 41.25 ], [ -71.7083333, 41.3333333 ], [ -71.7916667, 41.5 ], [ -71.7916667, 41.5416667 ], [ -71.5416667, 41.5416667 ], [ -71.4583333, 41.4583333 ], [ -71.4166667, 41.4583333 ], [ -71.0, 41.4583333 ], [ -70.75, 41.4166667 ], [ -70.4583333, 41.5833333 ], [ -70.25, 41.5833333 ], [ -70.2083333, 41.75 ], [ -70.5, 41.7916667 ], [ -70.5, 41.9583333 ], [ -70.7083333, 42.25 ], [ -70.9583333, 42.4166667 ], [ -70.6666667, 42.5416667 ], [ -70.7916667, 42.6666667 ], [ -70.7916667, 42.8333333 ], [ -70.6666667, 43.3333333 ], [ -70.6666667, 43.5 ], [ -70.9583333, 43.5416667 ], [ -71.4166667, 43.125 ], [ -71.375, 42.9166667 ], [ -71.5, 42.875 ], [ -71.625, 43.2083333 ], [ -71.7916667, 43.25 ], [ -72.125, 43.625 ], [ -72.3333333, 43.5833333 ], [ -72.3333333, 43.375 ], [ -72.4166667, 43.25 ], [ -72.3333333, 43.0416667 ], [ -72.0416667, 42.7916667 ], [ -72.125, 42.375 ], [ -72.375, 42.4166667 ], [ -72.2916667, 42.2083333 ], [ -72.4583333, 42.0833333 ], [ -72.625, 42.0833333 ], [ -72.75, 42.2083333 ], [ -72.75, 42.7083333 ], [ -72.6666667, 42.75 ], [ -72.625, 43.375 ], [ -72.4583333, 43.5 ], [ -72.5, 43.7083333 ], [ -72.7083333, 43.7916667 ], [ -72.625, 44.0416667 ], [ -72.1666667, 44.0833333 ], [ -72.0833333, 44.2083333 ], [ -72.125, 44.5 ], [ -71.4583333, 44.6666667 ], [ -71.4583333, 44.4166667 ], [ -71.6666667, 44.25 ], [ -71.875, 44.2083333 ], [ -72.0833333, 43.9166667 ], [ -72.125, 43.75 ], [ -71.8333333, 43.7083333 ], [ -71.7083333, 43.8333333 ], [ -71.6666667, 44.0833333 ], [ -71.625, 44.0 ], [ -71.5, 44.125 ], [ -71.25, 44.375 ], [ -71.2083333, 44.5 ], [ -71.375, 44.625 ], [ -71.1666667, 44.7083333 ], [ -71.125, 44.7083333 ], [ -71.0416667, 44.5 ], [ -71.0, 44.5 ], [ -71.0, 44.4583333 ], [ -70.8333333, 44.5 ], [ -70.7083333, 44.6666667 ], [ -70.7083333, 44.7083333 ], [ -70.5, 44.8333333 ], [ -70.5416667, 44.9583333 ], [ -70.2083333, 45.3333333 ], [ -70.0833333, 45.2916667 ], [ -69.6666667, 45.4166667 ], [ -69.6666667, 45.5833333 ], [ -69.7083333, 45.5833333 ], [ -69.75, 45.6666667 ], [ -69.9583333, 45.7083333 ], [ -69.7083333, 45.7916667 ], [ -69.5833333, 45.5833333 ], [ -69.2916667, 45.5416667 ], [ -69.1666667, 45.3333333 ], [ -69.125, 45.2916667 ], [ -69.1666667, 45.2916667 ], [ -69.25, 45.0416667 ], [ -69.4583333, 45.0 ], [ -69.7916667, 44.9166667 ], [ -69.8333333, 45.0 ], [ -69.9166667, 45.0833333 ], [ -69.875, 45.0 ], [ -70.0, 44.8333333 ], [ -70.0416667, 44.875 ], [ -70.1666667, 44.7916667 ], [ -70.25, 44.875 ], [ -70.2083333, 44.9166667 ], [ -70.2916667, 44.9166667 ], [ -70.2916667, 44.7916667 ], [ -70.3333333, 44.7916667 ], [ -70.7083333, 44.5 ], [ -70.7916667, 44.4583333 ], [ -70.7916667, 44.4166667 ], [ -70.75, 44.3333333 ], [ -70.7083333, 44.25 ], [ -70.6666667, 44.25 ], [ -70.75, 44.2083333 ], [ -70.75, 44.125 ], [ -70.6666667, 44.125 ], [ -70.6666667, 44.0 ], [ -70.4166667, 43.9583333 ], [ -70.375, 43.9583333 ], [ -70.2916667, 43.9166667 ], [ -70.25, 43.9166667 ], [ -70.1666667, 44.0416667 ], [ -69.9166667, 44.0833333 ], [ -69.8333333, 43.9166667 ], [ -69.7916667, 43.9166667 ], [ -69.4166667, 43.875 ], [ -69.2083333, 44.0833333 ], [ -69.0416667, 44.1666667 ], [ -69.2083333, 44.3333333 ], [ -69.2916667, 44.5416667 ], [ -69.125, 44.5833333 ], [ -68.7083333, 44.5416667 ], [ -68.4583333, 44.6666667 ], [ -68.4583333, 45.0416667 ], [ -68.4583333, 45.2083333 ], [ -68.4166667, 45.2083333 ], [ -68.375, 45.2083333 ], [ -68.3333333, 45.3333333 ], [ -68.2083333, 45.5833333 ], [ -68.2083333, 46.0 ], [ -67.8333333, 46.0 ], [ -67.7083333, 46.0416667 ], [ -67.7083333, 46.0 ], [ -67.75, 45.9166667 ], [ -67.3333333, 45.9166667 ], [ -67.2916667, 45.9166667 ], [ -67.2083333, 46.0833333 ], [ -67.4166667, 46.0 ], [ -67.5416667, 46.4583333 ], [ -67.375, 46.625 ], [ -67.375, 46.875 ], [ -67.2083333, 46.875 ], [ -66.9583333, 47.0 ], [ -66.3333333, 47.0 ], [ -66.2083333, 47.125 ], [ -66.1666667, 47.4583333 ], [ -65.9583333, 47.5416667 ], [ -65.9166667, 47.5 ], [ -65.875, 47.3333333 ], [ -65.7916667, 47.5 ], [ -65.625, 47.4583333 ], [ -65.6666667, 47.375 ], [ -65.5, 47.375 ], [ -65.1666667, 47.5 ], [ -64.9583333, 47.7083333 ], [ -65.0, 47.8333333 ], [ -65.0416667, 47.8333333 ], [ -65.625, 47.6666667 ], [ -65.7916667, 47.9166667 ], [ -66.125, 48.0 ], [ -66.0, 48.1666667 ], [ -65.625, 48.0833333 ], [ -65.75, 48.375 ], [ -66.4166667, 48.3333333 ], [ -66.5, 48.4166667 ], [ -66.7916667, 48.4583333 ], [ -66.7916667, 48.6666667 ], [ -67.0, 48.7083333 ], [ -67.2083333, 48.625 ], [ -67.4583333, 48.3333333 ], [ -67.5833333, 48.25 ], [ -67.6666667, 48.4583333 ], [ -68.0, 48.625 ], [ -68.2083333, 48.6666667 ], [ -68.2916667, 48.5416667 ], [ -68.5, 48.5416667 ], [ -68.9583333, 48.3333333 ], [ -69.2916667, 48.0833333 ], [ -69.4583333, 48.0833333 ], [ -69.5833333, 47.7083333 ], [ -69.875, 47.625 ], [ -70.375, 47.1666667 ], [ -70.6666667, 47.0416667 ], [ -70.5416667, 47.25 ], [ -70.1666667, 47.5 ], [ -70.0833333, 47.6666667 ], [ -69.7916667, 47.875 ], [ -69.625, 48.125 ], [ -69.2916667, 48.375 ], [ -69.25, 48.5416667 ], [ -69.0833333, 48.7083333 ], [ -68.6666667, 48.9166667 ], [ -68.7083333, 49.2916667 ], [ -69.0, 49.4583333 ], [ -69.1666667, 49.4583333 ] ], [ [ -81.5833333, 46.5416667 ], [ -81.5416667, 46.4583333 ], [ -81.5416667, 46.4166667 ], [ -81.5833333, 46.5416667 ] ], [ [ -71.1666667, 47.9166667 ], [ -71.125, 47.875 ], [ -71.25, 47.9166667 ], [ -71.1666667, 47.9166667 ] ], [ [ -71.0833333, 47.125 ], [ -71.125, 47.0833333 ], [ -71.3333333, 47.0833333 ], [ -71.4166667, 47.25 ], [ -71.5416667, 47.25 ], [ -71.4583333, 47.4166667 ], [ -71.625, 47.5416667 ], [ -71.25, 47.6666667 ], [ -70.9583333, 47.6666667 ], [ -70.7083333, 47.4583333 ], [ -70.7083333, 47.3333333 ], [ -70.9166667, 47.0833333 ], [ -71.0833333, 47.0833333 ], [ -71.0833333, 47.125 ] ], [ [ -68.2083333, 47.375 ], [ -68.2083333, 47.5 ], [ -68.0416667, 47.375 ], [ -68.2916667, 47.2916667 ], [ -68.2083333, 47.375 ] ], [ [ -79.875, 47.2916667 ], [ -79.7916667, 47.2916667 ], [ -79.7916667, 47.25 ], [ -79.875, 47.25 ], [ -79.875, 47.2916667 ] ], [ [ -79.2083333, 45.5833333 ], [ -79.2916667, 45.6666667 ], [ -79.6666667, 45.7083333 ], [ -79.75, 45.7916667 ], [ -79.5416667, 45.9583333 ], [ -79.5, 45.9583333 ], [ -79.3333333, 46.0416667 ], [ -78.8333333, 45.9583333 ], [ -78.9583333, 45.6666667 ], [ -79.0, 45.6666667 ], [ -79.25, 45.75 ], [ -79.2083333, 45.625 ], [ -79.2083333, 45.5833333 ] ], [ [ -78.8333333, 45.9583333 ], [ -78.7916667, 45.9166667 ], [ -78.8333333, 45.9166667 ], [ -78.8333333, 45.9583333 ] ], [ [ -70.0, 45.625 ], [ -69.9583333, 45.7083333 ], [ -69.9583333, 45.6666667 ], [ -70.0, 45.625 ] ], [ [ -78.9583333, 45.6666667 ], [ -78.9166667, 45.6666667 ], [ -78.9166667, 45.625 ], [ -78.9583333, 45.6666667 ] ], [ [ -94.5, 45.2916667 ], [ -94.4166667, 45.25 ], [ -94.5, 45.25 ], [ -94.5, 45.2916667 ] ], [ [ -84.375, 44.9166667 ], [ -83.9583333, 44.6666667 ], [ -84.0, 44.4583333 ], [ -83.875, 44.2083333 ], [ -84.0833333, 44.125 ], [ -84.375, 44.125 ], [ -84.5416667, 44.25 ], [ -84.6666667, 44.625 ], [ -84.625, 44.8333333 ], [ -84.375, 44.9166667 ] ], [ [ -75.8333333, 44.5416667 ], [ -75.875, 44.375 ], [ -76.0833333, 44.2083333 ], [ -76.0416667, 44.0416667 ], [ -76.2083333, 43.8333333 ], [ -76.2083333, 43.5 ], [ -76.4583333, 43.5 ], [ -76.6666667, 43.3333333 ], [ -76.9166667, 43.25 ], [ -77.4166667, 43.2916667 ], [ -77.6666667, 43.25 ], [ -77.9583333, 43.375 ], [ -78.5833333, 43.375 ], [ -78.9583333, 43.25 ], [ -79.2916667, 43.2083333 ], [ -79.7083333, 43.2083333 ], [ -79.75, 43.375 ], [ -79.5, 43.6666667 ], [ -79.375, 43.6666667 ], [ -79.1666667, 43.8333333 ], [ -78.8333333, 43.9166667 ], [ -78.4583333, 43.9166667 ], [ -78.2916667, 44.0 ], [ -77.875, 44.0 ], [ -77.4166667, 44.2083333 ], [ -76.75, 44.2083333 ], [ -76.1666667, 44.375 ], [ -76.0, 44.375 ], [ -75.8333333, 44.5416667 ] ], [ [ -74.5, 43.875 ], [ -74.7916667, 43.9166667 ], [ -74.6666667, 44.0833333 ], [ -74.7083333, 44.2083333 ], [ -74.375, 44.2916667 ], [ -74.25, 44.0 ], [ -74.4166667, 43.9583333 ], [ -74.5, 43.875 ] ], [ [ -79.0833333, 43.125 ], [ -78.875, 43.0833333 ], [ -78.8333333, 42.7916667 ], [ -79.125, 42.5416667 ], [ -79.25, 42.5416667 ], [ -79.5, 42.375 ], [ -79.9166667, 42.2083333 ], [ -80.0, 42.125 ], [ -80.4583333, 41.9583333 ], [ -80.625, 41.9583333 ], [ -81.375, 41.7083333 ], [ -81.7083333, 41.4583333 ], [ -82.0833333, 41.5 ], [ -82.375, 41.375 ], [ -82.6666667, 41.4583333 ], [ -83.0, 41.4166667 ], [ -83.0, 41.5416667 ], [ -83.4583333, 41.7916667 ], [ -83.2083333, 42.0416667 ], [ -83.1666667, 42.2916667 ], [ -82.9166667, 42.4166667 ], [ -82.7916667, 42.7083333 ], [ -82.625, 42.7083333 ], [ -82.5833333, 42.5416667 ], [ -82.4166667, 42.5416667 ], [ -82.4583333, 42.2916667 ], [ -83.0833333, 42.2916667 ], [ -83.0416667, 42.0416667 ], [ -82.5416667, 42.0416667 ], [ -82.4166667, 42.1666667 ], [ -82.125, 42.2916667 ], [ -81.9166667, 42.2916667 ], [ -81.6666667, 42.5416667 ], [ -81.4166667, 42.6666667 ], [ -80.7083333, 42.6666667 ], [ -80.5416667, 42.625 ], [ -80.2083333, 42.8333333 ], [ -79.8333333, 42.8333333 ], [ -79.5, 42.9166667 ], [ -79.1666667, 42.9166667 ], [ -79.0833333, 43.125 ] ], [ [ -89.625, 43.0416667 ], [ -89.375, 43.0 ], [ -89.2083333, 42.8333333 ], [ -89.375, 42.5833333 ], [ -89.5833333, 42.5416667 ], [ -89.625, 43.0416667 ] ], [ [ -91.5833333, 42.7916667 ], [ -91.375, 42.9583333 ], [ -91.3333333, 42.75 ], [ -91.5833333, 42.7916667 ] ], [ [ -91.9166667, 42.5416667 ], [ -91.8333333, 42.7916667 ], [ -91.5833333, 42.7916667 ], [ -91.2083333, 42.5416667 ], [ -91.125, 42.375 ], [ -91.1666667, 42.125 ], [ -91.2916667, 42.0 ], [ -91.5416667, 42.0416667 ], [ -91.8333333, 42.2916667 ], [ -91.75, 42.5 ], [ -91.9166667, 42.5416667 ] ], [ [ -92.0, 41.9166667 ], [ -92.4583333, 41.9583333 ], [ -92.4583333, 41.625 ], [ -92.625, 41.625 ], [ -92.625, 41.375 ], [ -92.9166667, 41.5 ], [ -92.9583333, 41.7083333 ], [ -93.0833333, 41.8333333 ], [ -92.9583333, 42.125 ], [ -92.7083333, 42.25 ], [ -92.625, 42.4583333 ], [ -92.2916667, 42.4166667 ], [ -92.0416667, 42.2916667 ], [ -91.9166667, 42.0416667 ], [ -91.9583333, 42.0 ], [ -92.0, 41.9166667 ] ], [ [ -91.9583333, 42.0 ], [ -91.9166667, 42.0 ], [ -91.9583333, 41.9166667 ], [ -91.9583333, 42.0 ] ], [ [ -78.2083333, 42.1666667 ], [ -78.125, 42.2916667 ], [ -77.75, 42.4166667 ], [ -77.6666667, 42.25 ], [ -77.5, 42.1666667 ], [ -77.4583333, 42.1666667 ], [ -77.4583333, 42.0416667 ], [ -77.5, 41.9166667 ], [ -77.7083333, 41.9166667 ], [ -78.0833333, 41.7083333 ], [ -77.9583333, 41.6666667 ], [ -78.0416667, 41.4583333 ], [ -78.2083333, 41.3333333 ], [ -78.4583333, 41.2916667 ], [ -78.375, 41.5 ], [ -78.5833333, 41.625 ], [ -78.5, 41.75 ], [ -78.4166667, 42.0416667 ], [ -78.2083333, 42.1666667 ] ], [ [ -91.2916667, 42.0 ], [ -91.125, 41.9166667 ], [ -91.2083333, 41.9166667 ], [ -91.2916667, 42.0 ] ], [ [ -78.5833333, 41.625 ], [ -78.6666667, 41.4166667 ], [ -78.875, 41.4166667 ], [ -78.75, 41.625 ], [ -78.5833333, 41.625 ] ], [ [ -89.3333333, 41.2916667 ], [ -89.4166667, 41.0833333 ], [ -89.5833333, 41.0416667 ], [ -89.6666667, 41.4166667 ], [ -89.5416667, 41.5 ], [ -89.1666667, 41.4583333 ], [ -89.3333333, 41.2916667 ] ], [ [ -75.125, 40.9583333 ], [ -74.7916667, 41.125 ], [ -74.5833333, 41.125 ], [ -74.875, 40.875 ], [ -75.125, 40.9583333 ] ], [ [ -75.125, 40.9583333 ], [ -75.1666667, 41.0833333 ], [ -74.9583333, 41.125 ], [ -75.125, 40.9583333 ] ], [ [ -92.125, 40.4583333 ], [ -92.2916667, 40.625 ], [ -92.0, 40.6666667 ], [ -92.125, 40.4583333 ] ], [ [ -92.2083333, 40.4583333 ], [ -92.125, 40.4583333 ], [ -92.0833333, 40.375 ], [ -92.2083333, 40.4583333 ] ], [ [ -90.0, 40.3333333 ], [ -89.9583333, 40.0833333 ], [ -90.125, 40.0833333 ], [ -90.125, 40.2916667 ], [ -90.0, 40.3333333 ] ], [ [ -89.2083333, 40.0416667 ], [ -89.0416667, 40.0416667 ], [ -88.9166667, 39.5 ], [ -89.2083333, 39.4583333 ], [ -89.4166667, 39.625 ], [ -89.3333333, 39.75 ], [ -89.4166667, 39.9583333 ], [ -89.2083333, 40.0416667 ] ], [ [ -79.7083333, 39.4166667 ], [ -79.7916667, 39.625 ], [ -79.6666667, 39.6666667 ], [ -79.625, 39.4166667 ], [ -79.7083333, 39.4166667 ] ], [ [ -75.75, 36.1666667 ], [ -75.75, 36.0 ], [ -76.2916667, 36.0 ], [ -76.0416667, 36.1666667 ], [ -75.7916667, 36.1666667 ], [ -75.75, 36.1666667 ] ] ], [ [ [ -91.1666667, 33.0833333 ], [ -91.2083333, 33.0 ], [ -91.125, 32.9583333 ], [ -91.125, 33.0833333 ], [ -91.1666667, 33.0833333 ] ] ], [ [ [ -92.2916667, 30.875 ], [ -92.3333333, 30.7916667 ], [ -92.1666667, 30.75 ], [ -92.2916667, 30.8333333 ], [ -92.2916667, 30.875 ] ] ], [ [ [ -92.125, 30.875 ], [ -92.125, 30.7083333 ], [ -92.0833333, 30.7083333 ], [ -92.125, 30.875 ] ] ], [ [ [ -79.9166667, 33.0416667 ], [ -80.0416667, 32.7916667 ], [ -80.25, 32.6666667 ], [ -80.4583333, 32.625 ], [ -80.6666667, 32.625 ], [ -80.7083333, 32.5833333 ], [ -80.7083333, 32.5416667 ], [ -80.7916667, 32.5416667 ], [ -80.7916667, 32.5 ], [ -80.9166667, 32.375 ], [ -80.875, 32.2083333 ], [ -81.0416667, 32.0416667 ], [ -81.0833333, 32.0416667 ], [ -81.2083333, 32.0 ], [ -81.2916667, 31.7916667 ], [ -81.2916667, 31.5416667 ], [ -81.4166667, 31.4166667 ], [ -81.4166667, 31.25 ], [ -81.5416667, 31.2083333 ], [ -81.5416667, 30.9583333 ], [ -81.375, 30.875 ], [ -81.375, 31.125 ], [ -81.25, 31.2083333 ], [ -81.0833333, 31.7083333 ], [ -80.8333333, 31.9583333 ], [ -80.7916667, 32.125 ], [ -80.4166667, 32.3333333 ], [ -80.4166667, 32.4166667 ], [ -80.125, 32.5833333 ], [ -79.9583333, 32.625 ], [ -79.6666667, 32.875 ], [ -79.5833333, 33.0 ], [ -79.8333333, 32.9166667 ], [ -79.9166667, 33.0416667 ] ] ], [ [ [ -87.875, 30.8333333 ], [ -88.0, 30.7916667 ], [ -88.0, 30.6666667 ], [ -87.9166667, 30.4583333 ], [ -87.875, 30.8333333 ] ] ], [ [ [ -95.625, 30.5416667 ], [ -95.625, 30.375 ], [ -95.5416667, 30.375 ], [ -95.5416667, 30.4166667 ], [ -95.625, 30.5416667 ] ] ], [ [ [ -96.5833333, 30.3333333 ], [ -96.5833333, 30.2916667 ], [ -96.5416667, 30.2916667 ], [ -96.5833333, 30.3333333 ] ] ], [ [ [ -88.3333333, 30.375 ], [ -88.2083333, 30.4166667 ], [ -88.2916667, 30.4166667 ], [ -88.3333333, 30.375 ] ] ], [ [ [ -86.3333333, 30.4583333 ], [ -86.7916667, 30.5 ], [ -87.0833333, 30.6666667 ], [ -87.3333333, 30.6666667 ], [ -87.4583333, 30.5833333 ], [ -87.5, 30.375 ], [ -87.7916667, 30.3333333 ], [ -87.6666667, 30.25 ], [ -87.2083333, 30.3333333 ], [ -86.9166667, 30.375 ], [ -86.375, 30.375 ], [ -86.2083333, 30.3333333 ], [ -86.3333333, 30.4583333 ] ] ], [ [ [ -84.75, 29.7083333 ], [ -85.1666667, 29.7083333 ], [ -85.125, 29.5833333 ], [ -84.75, 29.7083333 ] ] ], [ [ [ -91.9583333, 30.6666667 ], [ -92.0416667, 30.625 ], [ -91.875, 30.625 ], [ -91.875, 30.375 ], [ -92.125, 30.25 ], [ -92.2083333, 30.3333333 ], [ -92.2083333, 30.5833333 ], [ -92.5416667, 30.5416667 ], [ -92.8333333, 30.5833333 ], [ -93.0, 30.4583333 ], [ -93.4166667, 30.4166667 ], [ -93.6666667, 30.5 ], [ -93.75, 30.375 ], [ -94.3333333, 30.25 ], [ -94.5833333, 30.125 ], [ -94.625, 29.9583333 ], [ -94.875, 29.9583333 ], [ -94.9166667, 29.7083333 ], [ -95.0833333, 29.875 ], [ -95.0833333, 30.125 ], [ -95.2083333, 30.0416667 ], [ -95.125, 29.7083333 ], [ -95.125, 29.375 ], [ -95.2916667, 29.2083333 ], [ -95.4583333, 28.9166667 ], [ -95.25, 28.9583333 ], [ -95.0, 29.1666667 ], [ -94.6666667, 29.2916667 ], [ -94.6666667, 29.4166667 ], [ -94.4166667, 29.5416667 ], [ -94.1666667, 29.5833333 ], [ -94.0833333, 29.6666667 ], [ -93.7916667, 29.6666667 ], [ -93.6666667, 29.75 ], [ -93.0833333, 29.75 ], [ -92.875, 29.625 ], [ -92.625, 29.5416667 ], [ -92.25, 29.5 ], [ -92.1666667, 29.5833333 ], [ -91.75, 29.4583333 ], [ -91.625, 29.7083333 ], [ -91.375, 29.4166667 ], [ -91.2916667, 29.375 ], [ -91.2916667, 29.2083333 ], [ -91.125, 29.2083333 ], [ -90.7083333, 29.0833333 ], [ -90.4583333, 29.2916667 ], [ -90.375, 29.1666667 ], [ -90.4583333, 29.0833333 ], [ -90.25, 29.0833333 ], [ -89.9166667, 29.2916667 ], [ -89.625, 29.2916667 ], [ -89.3333333, 29.125 ], [ -89.1666667, 29.0 ], [ -89.0416667, 29.0833333 ], [ -89.125, 29.3333333 ], [ -89.2916667, 29.4166667 ], [ -89.5, 29.4166667 ], [ -89.5416667, 29.625 ], [ -89.375, 29.7083333 ], [ -89.2083333, 29.875 ], [ -89.1666667, 30.0833333 ], [ -89.5, 30.0833333 ], [ -89.3333333, 30.2916667 ], [ -89.0416667, 30.375 ], [ -88.4583333, 30.2916667 ], [ -88.3333333, 30.375 ], [ -88.3333333, 30.4166667 ], [ -88.5, 30.5833333 ], [ -88.8333333, 30.6666667 ], [ -89.0416667, 30.6666667 ], [ -89.2083333, 30.625 ], [ -89.375, 30.5833333 ], [ -89.375, 30.5416667 ], [ -89.375, 30.4166667 ], [ -89.6666667, 30.25 ], [ -89.9583333, 30.25 ], [ -90.125, 30.3333333 ], [ -90.125, 30.375 ], [ -90.25, 30.375 ], [ -90.3333333, 30.375 ], [ -90.625, 30.3333333 ], [ -90.625, 30.2916667 ], [ -90.8333333, 30.2916667 ], [ -90.8333333, 30.2083333 ], [ -90.875, 30.125 ], [ -91.1666667, 30.375 ], [ -91.2916667, 30.375 ], [ -91.25, 30.6666667 ], [ -91.2916667, 30.6666667 ], [ -91.3333333, 30.5 ], [ -91.5, 30.4166667 ], [ -91.625, 30.5416667 ], [ -91.7916667, 30.75 ], [ -91.9583333, 30.6666667 ] ], [ [ -91.0833333, 30.125 ], [ -91.0, 30.0833333 ], [ -91.0, 30.0 ], [ -90.9583333, 29.875 ], [ -90.7083333, 29.75 ], [ -90.4583333, 29.7916667 ], [ -90.375, 29.5833333 ], [ -90.7083333, 29.5416667 ], [ -90.7916667, 29.5833333 ], [ -91.0833333, 29.9583333 ], [ -91.0833333, 30.125 ] ], [ [ -94.7083333, 29.5 ], [ -95.0, 29.5833333 ], [ -94.7916667, 29.75 ], [ -94.7083333, 29.5 ] ] ] ] } },
{ "type": "Feature", "properties": { "ID": 2 }, "geometry": { "type": "MultiPolygon", "coordinates": [ [ [ [ -80.7916667, 35.8333333 ], [ -80.6666667, 35.75 ], [ -81.0, 35.5833333 ], [ -81.0416667, 35.4166667 ], [ -81.2916667, 35.4166667 ], [ -81.2083333, 35.4166667 ], [ -81.0833333, 35.75 ], [ -80.7916667, 35.8333333 ] ], [ [ -77.1666667, 48.375 ], [ -77.125, 48.2083333 ], [ -77.2083333, 48.25 ], [ -77.2083333, 48.375 ], [ -77.1666667, 48.375 ] ], [ [ -80.2083333, 48.0416667 ], [ -80.25, 48.0416667 ], [ -80.25, 48.0833333 ], [ -80.2083333, 48.0416667 ] ], [ [ -80.25, 48.0416667 ], [ -80.25, 48.0 ], [ -80.2916667, 48.0416667 ], [ -80.25, 48.0416667 ] ], [ [ -80.2083333, 47.9583333 ], [ -80.25, 47.9583333 ], [ -80.25, 48.0 ], [ -80.2083333, 47.9583333 ] ], [ [ -75.6666667, 47.375 ], [ -75.7083333, 47.3333333 ], [ -75.7083333, 47.375 ], [ -75.6666667, 47.375 ] ], [ [ -75.5416667, 47.3333333 ], [ -75.5833333, 47.3333333 ], [ -75.5416667, 47.375 ], [ -75.5416667, 47.3333333 ] ], [ [ -75.875, 47.3333333 ], [ -75.7083333, 47.3333333 ], [ -75.75, 47.2916667 ], [ -75.8333333, 47.25 ], [ -75.8333333, 47.2083333 ], [ -76.0, 47.25 ], [ -76.0, 47.2916667 ], [ -75.9583333, 47.3333333 ], [ -75.875, 47.3333333 ] ], [ [ -73.5833333, 47.2083333 ], [ -73.7083333, 47.2083333 ], [ -73.5416667, 47.3333333 ], [ -73.5833333, 47.2083333 ] ], [ [ -76.0, 47.25 ], [ -76.0, 47.1666667 ], [ -76.0416667, 47.1666667 ], [ -76.0416667, 47.25 ], [ -76.0, 47.25 ] ], [ [ -73.7083333, 47.1666667 ], [ -73.75, 47.125 ], [ -73.7083333, 47.2083333 ], [ -73.7083333, 47.1666667 ] ], [ [ -73.6666667, 47.125 ], [ -73.7083333, 47.125 ], [ -73.7083333, 47.1666667 ], [ -73.6666667, 47.125 ] ], [ [ -88.5, 46.625 ], [ -88.5833333, 46.625 ], [ -88.5833333, 46.6666667 ], [ -88.5, 46.625 ] ], [ [ -75.2916667, 47.4166667 ], [ -75.25, 47.4166667 ], [ -75.1666667, 47.3333333 ], [ -75.2083333, 47.25 ], [ -75.0416667, 47.25 ], [ -74.9166667, 47.2916667 ], [ -74.875, 47.3333333 ], [ -74.75, 47.2916667 ], [ -74.5833333, 47.25 ], [ -74.5, 47.0 ], [ -74.375, 46.9583333 ], [ -74.3333333, 47.0416667 ], [ -74.3333333, 47.0 ], [ -74.2916667, 47.0416667 ], [ -74.25, 46.875 ], [ -74.25, 46.8333333 ], [ -74.0416667, 46.875 ], [ -74.0, 46.875 ], [ -73.8333333, 47.0416667 ], [ -73.7916667, 47.0 ], [ -73.6666667, 46.875 ], [ -73.9166667, 46.8333333 ], [ -73.9583333, 46.8333333 ], [ -73.9583333, 46.7916667 ], [ -73.9166667, 46.75 ], [ -73.9583333, 46.75 ], [ -73.9583333, 46.7083333 ], [ -73.875, 46.6666667 ], [ -74.0, 46.5833333 ], [ -74.5833333, 46.5833333 ], [ -74.5833333, 46.5 ], [ -74.9166667, 46.4166667 ], [ -74.9166667, 46.6666667 ], [ -75.0833333, 46.7916667 ], [ -75.0416667, 46.8333333 ], [ -75.0833333, 46.8333333 ], [ -75.0416667, 46.875 ], [ -75.2916667, 46.7083333 ], [ -75.2916667, 46.9583333 ], [ -75.0416667, 46.9583333 ], [ -75.5, 47.2916667 ], [ -75.5416667, 47.3333333 ], [ -75.5, 47.3333333 ], [ -75.5, 47.375 ], [ -75.4166667, 47.375 ], [ -75.375, 47.5 ], [ -75.2916667, 47.4166667 ] ], [ [ -89.125, 46.5 ], [ -89.5, 46.5 ], [ -89.5, 46.625 ], [ -89.1666667, 46.5833333 ], [ -89.125, 46.5 ] ], [ [ -92.875, 46.0416667 ], [ -92.9166667, 46.0416667 ], [ -92.9166667, 46.0833333 ], [ -92.875, 46.0416667 ] ], [ [ -94.7083333, 45.9166667 ], [ -94.75, 45.8333333 ], [ -94.7916667, 45.8333333 ], [ -94.875, 45.8333333 ], [ -94.875, 45.9583333 ], [ -94.7083333, 45.9583333 ], [ -94.7083333, 45.9166667 ] ], [ [ -94.4583333, 45.6666667 ], [ -94.5416667, 45.7083333 ], [ -94.5416667, 45.5833333 ], [ -94.625, 45.5 ], [ -94.75, 45.5416667 ], [ -94.6666667, 45.5833333 ], [ -94.6666667, 45.625 ], [ -94.6666667, 45.6666667 ], [ -94.625, 45.7916667 ], [ -94.6666667, 45.8333333 ], [ -94.7083333, 45.9166667 ], [ -94.4166667, 45.875 ], [ -94.4583333, 45.6666667 ] ], [ [ -94.9166667, 45.5 ], [ -94.8333333, 45.5 ], [ -94.8333333, 45.4583333 ], [ -94.9583333, 45.375 ], [ -95.125, 45.5 ], [ -94.9166667, 45.5416667 ], [ -94.9166667, 45.5 ] ], [ [ -94.7083333, 45.4166667 ], [ -94.75, 45.375 ], [ -94.75, 45.4166667 ], [ -94.7083333, 45.4166667 ] ], [ [ -70.125, 44.9166667 ], [ -70.2083333, 44.9166667 ], [ -70.125, 44.9583333 ], [ -70.125, 44.9166667 ] ], [ [ -70.1666667, 44.7916667 ], [ -70.25, 44.875 ], [ -70.125, 44.9166667 ], [ -70.0416667, 44.875 ], [ -70.1666667, 44.7916667 ] ], [ [ -87.7083333, 45.5416667 ], [ -87.7916667, 45.3333333 ], [ -87.9166667, 45.25 ], [ -87.9583333, 45.0416667 ], [ -88.0833333, 44.9166667 ], [ -88.5, 44.6666667 ], [ -88.9166667, 44.5833333 ], [ -89.0833333, 44.7083333 ], [ -89.2916667, 44.7083333 ], [ -89.125, 44.7916667 ], [ -88.5416667, 44.9583333 ], [ -88.375, 45.1666667 ], [ -88.125, 45.2916667 ], [ -87.8333333, 45.5833333 ], [ -87.875, 45.625 ], [ -87.8333333, 45.625 ], [ -87.7083333, 45.7083333 ], [ -87.7083333, 45.5416667 ] ], [ [ -95.625, 44.875 ], [ -95.5833333, 44.6666667 ], [ -95.6666667, 44.5416667 ], [ -95.8333333, 44.5416667 ], [ -95.9583333, 44.6666667 ], [ -96.125, 44.7916667 ], [ -96.3333333, 44.6666667 ], [ -96.4166667, 44.9166667 ], [ -96.2083333, 45.0 ], [ -96.0833333, 44.9583333 ], [ -96.0, 45.0416667 ], [ -95.8333333, 45.125 ], [ -95.5416667, 44.9583333 ], [ -95.625, 44.875 ] ], [ [ -71.0416667, 44.5 ], [ -71.1666667, 44.375 ], [ -71.25, 44.375 ], [ -71.2083333, 44.5 ], [ -71.375, 44.625 ], [ -71.1666667, 44.7083333 ], [ -71.125, 44.7083333 ], [ -71.0416667, 44.5 ] ], [ [ -70.75, 44.3333333 ], [ -70.7916667, 44.3333333 ], [ -70.7916667, 44.4166667 ], [ -70.75, 44.3333333 ] ], [ [ -83.9583333, 44.6666667 ], [ -84.0, 44.4583333 ], [ -83.875, 44.2083333 ], [ -84.0833333, 44.125 ], [ -84.375, 44.125 ], [ -84.5416667, 44.25 ], [ -84.6666667, 44.625 ], [ -84.625, 44.8333333 ], [ -84.375, 44.9166667 ], [ -83.9583333, 44.6666667 ] ], [ [ -95.0833333, 44.1666667 ], [ -95.1666667, 44.2083333 ], [ -95.1666667, 44.1666667 ], [ -95.2083333, 44.25 ], [ -95.2083333, 44.2916667 ], [ -94.9166667, 44.25 ], [ -95.0833333, 44.1666667 ] ], [ [ -74.4166667, 43.9583333 ], [ -74.5, 43.875 ], [ -74.7916667, 43.9166667 ], [ -74.6666667, 44.0833333 ], [ -74.7083333, 44.2083333 ], [ -74.375, 44.2916667 ], [ -74.25, 44.0 ], [ -74.4166667, 43.9583333 ] ], [ [ -96.0, 43.5833333 ], [ -95.875, 43.5833333 ], [ -95.9583333, 43.5416667 ], [ -95.8333333, 43.5 ], [ -95.8333333, 43.3333333 ], [ -95.7083333, 43.1666667 ], [ -95.875, 43.125 ], [ -96.0, 43.25 ], [ -96.0833333, 43.2083333 ], [ -96.125, 43.2083333 ], [ -96.25, 43.375 ], [ -96.25, 43.6666667 ], [ -96.0833333, 43.75 ], [ -96.0, 43.5833333 ] ], [ [ -92.2916667, 45.9166667 ], [ -92.0833333, 45.75 ], [ -92.0416667, 45.7083333 ], [ -91.875, 45.5833333 ], [ -91.625, 45.5416667 ], [ -91.625, 45.4166667 ], [ -91.2083333, 45.2916667 ], [ -91.0416667, 45.1666667 ], [ -91.0, 45.125 ], [ -90.9583333, 45.125 ], [ -90.7083333, 44.9583333 ], [ -90.4166667, 44.875 ], [ -90.2083333, 44.875 ], [ -89.9583333, 45.0416667 ], [ -89.9166667, 45.0416667 ], [ -89.9166667, 44.9166667 ], [ -90.0, 44.8333333 ], [ -89.8333333, 44.5416667 ], [ -89.7916667, 44.3333333 ], [ -89.5, 44.4166667 ], [ -89.5, 44.1666667 ], [ -89.375, 44.0416667 ], [ -89.375, 43.5416667 ], [ -89.5416667, 43.5416667 ], [ -89.6666667, 43.375 ], [ -89.7083333, 43.25 ], [ -89.9583333, 43.1666667 ], [ -90.5, 43.1666667 ], [ -90.5416667, 43.25 ], [ -90.5416667, 43.75 ], [ -90.5416667, 43.7916667 ], [ -90.5, 43.9166667 ], [ -90.8333333, 43.9166667 ], [ -90.7916667, 44.0416667 ], [ -91.2916667, 44.125 ], [ -91.5, 44.2083333 ], [ -91.5, 44.4583333 ], [ -91.6666667, 44.4583333 ], [ -91.75, 44.625 ], [ -92.0416667, 44.7083333 ], [ -92.0416667, 44.7916667 ], [ -92.0416667, 44.8333333 ], [ -92.2916667, 44.875 ], [ -92.5833333, 45.0833333 ], [ -92.5833333, 45.2083333 ], [ -92.7916667, 45.4166667 ], [ -93.2083333, 45.4166667 ], [ -93.4166667, 45.25 ], [ -93.875, 45.25 ], [ -93.875, 45.3333333 ], [ -94.25, 45.3333333 ], [ -94.2083333, 45.4583333 ], [ -94.3333333, 45.625 ], [ -93.25, 45.5416667 ], [ -93.125, 45.5833333 ], [ -93.0, 45.6666667 ], [ -92.9166667, 46.0 ], [ -92.875, 46.0 ], [ -92.75, 45.9583333 ], [ -92.5, 45.875 ], [ -92.2916667, 45.9166667 ] ], [ [ -112.875, 43.125 ], [ -112.75, 43.4166667 ], [ -113.0833333, 43.4583333 ], [ -113.0416667, 43.75 ], [ -112.75, 43.9166667 ], [ -112.5416667, 43.7916667 ], [ -112.1666667, 43.7916667 ], [ -112.375, 43.625 ], [ -112.2083333, 43.4166667 ], [ -112.375, 43.3333333 ], [ -112.625, 43.3333333 ], [ -112.6666667, 43.0833333 ], [ -112.8333333, 43.0833333 ], [ -112.875, 43.125 ] ], [ [ -95.6666667, 43.0416667 ], [ -95.6666667, 43.0 ], [ -95.7083333, 43.0416667 ], [ -95.6666667, 43.0416667 ] ], [ [ -95.625, 42.9583333 ], [ -95.6666667, 42.9583333 ], [ -95.6666667, 43.0 ], [ -95.625, 42.9583333 ] ], [ [ -96.0, 42.9166667 ], [ -96.0416667, 42.8333333 ], [ -96.0416667, 42.9166667 ], [ -96.0, 42.9166667 ] ], [ [ -91.375, 42.9583333 ], [ -91.3333333, 42.75 ], [ -91.5833333, 42.7916667 ], [ -91.375, 42.9583333 ] ], [ [ -89.375, 43.0 ], [ -89.2083333, 42.8333333 ], [ -89.375, 42.5833333 ], [ -89.5833333, 42.5416667 ], [ -89.625, 43.0416667 ], [ -89.375, 43.0 ] ], [ [ -71.875, 44.2083333 ], [ -72.0833333, 43.9166667 ], [ -72.125, 43.75 ], [ -71.8333333, 43.7083333 ], [ -71.7083333, 43.8333333 ], [ -71.6666667, 44.0833333 ], [ -71.625, 44.0 ], [ -71.625, 43.9166667 ], [ -71.5416667, 43.9166667 ], [ -71.5833333, 43.875 ], [ -71.4583333, 43.875 ], [ -71.4166667, 43.9166667 ], [ -71.25, 43.9166667 ], [ -71.25, 43.9583333 ], [ -71.1666667, 44.0416667 ], [ -71.25, 44.0833333 ], [ -71.25, 44.125 ], [ -71.2083333, 44.1666667 ], [ -71.1666667, 44.1666667 ], [ -71.125, 44.125 ], [ -71.0833333, 44.0833333 ], [ -71.0416667, 44.0416667 ], [ -71.0416667, 44.25 ], [ -70.9166667, 44.2916667 ], [ -70.8333333, 44.2916667 ], [ -70.75, 44.125 ], [ -70.6666667, 44.125 ], [ -70.6666667, 44.0 ], [ -70.7916667, 43.875 ], [ -70.75, 43.6666667 ], [ -70.9583333, 43.5416667 ], [ -71.4166667, 43.125 ], [ -71.375, 42.9166667 ], [ -71.5, 42.875 ], [ -71.625, 43.2083333 ], [ -71.7916667, 43.25 ], [ -72.125, 43.625 ], [ -72.3333333, 43.5833333 ], [ -72.3333333, 43.375 ], [ -72.4166667, 43.25 ], [ -72.3333333, 43.0416667 ], [ -72.0416667, 42.7916667 ], [ -72.125, 42.375 ], [ -72.375, 42.4166667 ], [ -72.2916667, 42.2083333 ], [ -72.4583333, 42.0833333 ], [ -72.625, 42.0833333 ], [ -72.75, 42.2083333 ], [ -72.75, 42.7083333 ], [ -72.6666667, 42.75 ], [ -72.625, 43.375 ], [ -72.4583333, 43.5 ], [ -72.5, 43.7083333 ], [ -72.7083333, 43.7916667 ], [ -72.625, 44.0416667 ], [ -72.1666667, 44.0833333 ], [ -72.0833333, 44.2083333 ], [ -72.125, 44.5 ], [ -71.4583333, 44.6666667 ], [ -71.4583333, 44.4166667 ], [ -71.6666667, 44.25 ], [ -71.875, 44.2083333 ] ], [ [ -91.2083333, 42.5416667 ], [ -91.125, 42.375 ], [ -91.1666667, 42.125 ], [ -91.2916667, 42.0 ], [ -91.5416667, 42.0416667 ], [ -91.8333333, 42.2916667 ], [ -91.75, 42.5 ], [ -91.9166667, 42.5416667 ], [ -91.8333333, 42.7916667 ], [ -91.5833333, 42.7916667 ], [ -91.2083333, 42.5416667 ] ], [ [ -91.9166667, 42.0 ], [ -91.9583333, 41.9166667 ], [ -91.9583333, 42.0 ], [ -91.9166667, 42.0 ] ], [ [ -91.125, 41.9166667 ], [ -91.2083333, 41.9166667 ], [ -91.2916667, 42.0 ], [ -91.125, 41.9166667 ] ], [ [ -112.375, 42.25 ], [ -112.2083333, 42.25 ], [ -112.0416667, 42.0833333 ], [ -111.9166667, 42.25 ], [ -111.75, 42.2083333 ], [ -111.8333333, 41.75 ], [ -112.1666667, 41.75 ], [ -112.375, 42.25 ] ], [ [ -78.6666667, 41.4166667 ], [ -78.875, 41.4166667 ], [ -78.75, 41.625 ], [ -78.5833333, 41.625 ], [ -78.6666667, 41.4166667 ] ], [ [ -91.9583333, 42.0 ], [ -92.0, 41.9166667 ], [ -92.4583333, 41.9583333 ], [ -92.4583333, 41.625 ], [ -92.625, 41.625 ], [ -92.625, 41.375 ], [ -92.9166667, 41.5 ], [ -92.9583333, 41.7083333 ], [ -93.0833333, 41.8333333 ], [ -92.9583333, 42.125 ], [ -92.7083333, 42.25 ], [ -92.625, 42.4583333 ], [ -92.2916667, 42.4166667 ], [ -92.0416667, 42.2916667 ], [ -91.9166667, 42.0416667 ], [ -91.9583333, 42.0 ] ], [ [ -77.4583333, 42.1666667 ], [ -77.4583333, 42.0416667 ], [ -77.5, 41.9166667 ], [ -77.7083333, 41.9166667 ], [ -78.0833333, 41.7083333 ], [ -77.9583333, 41.6666667 ], [ -78.0416667, 41.4583333 ], [ -78.2083333, 41.3333333 ], [ -78.4583333, 41.2916667 ], [ -78.375, 41.5 ], [ -78.5833333, 41.625 ], [ -78.5, 41.75 ], [ -78.4166667, 42.0416667 ], [ -78.2083333, 42.1666667 ], [ -78.125, 42.2916667 ], [ -77.75, 42.4166667 ], [ -77.6666667, 42.25 ], [ -77.5, 42.1666667 ], [ -77.4583333, 42.1666667 ] ], [ [ -113.0833333, 41.7083333 ], [ -113.125, 41.9166667 ], [ -112.875, 42.125 ], [ -112.7916667, 42.0416667 ], [ -112.625, 42.2083333 ], [ -112.4166667, 42.0833333 ], [ -112.4166667, 41.8333333 ], [ -112.25, 41.5 ], [ -112.3333333, 41.3333333 ], [ -112.5416667, 41.625 ], [ -112.5833333, 41.5833333 ], [ -112.7083333, 41.7083333 ], [ -113.0416667, 41.6666667 ], [ -113.0833333, 41.5 ], [ -113.0833333, 41.1666667 ], [ -113.1666667, 41.0833333 ], [ -113.3333333, 41.1666667 ], [ -113.5416667, 41.25 ], [ -113.625, 41.0833333 ], [ -113.625, 41.25 ], [ -113.4583333, 41.5 ], [ -113.0833333, 41.7083333 ] ], [ [ -113.75, 41.375 ], [ -113.75, 41.0 ], [ -113.8333333, 41.0 ], [ -113.9166667, 41.3333333 ], [ -113.7916667, 41.375 ], [ -113.75, 41.375 ] ], [ [ -96.875, 41.125 ], [ -96.875, 41.0 ], [ -97.0, 41.0 ], [ -96.9166667, 41.125 ], [ -96.875, 41.125 ] ], [ [ -89.4166667, 41.0833333 ], [ -89.5833333, 41.0416667 ], [ -89.6666667, 41.4166667 ], [ -89.5416667, 41.5 ], [ -89.1666667, 41.4583333 ], [ -89.3333333, 41.2916667 ], [ -89.4166667, 41.0833333 ] ], [ [ -75.125, 40.9583333 ], [ -75.1666667, 41.0833333 ], [ -74.9583333, 41.125 ], [ -75.125, 40.9583333 ] ], [ [ -74.7916667, 41.125 ], [ -74.5833333, 41.125 ], [ -74.875, 40.875 ], [ -75.125, 40.9583333 ], [ -74.7916667, 41.125 ] ], [ [ -92.2916667, 40.625 ], [ -92.0, 40.6666667 ], [ -92.125, 40.4583333 ], [ -92.2916667, 40.625 ] ], [ [ -92.125, 40.4583333 ], [ -92.0833333, 40.375 ], [ -92.2083333, 40.4583333 ], [ -92.125, 40.4583333 ] ], [ [ -107.4583333, 40.7083333 ], [ -107.5, 40.5 ], [ -107.9583333, 40.3333333 ], [ -108.0416667, 40.4166667 ], [ -108.3333333, 40.4583333 ], [ -108.2083333, 40.625 ], [ -107.6666667, 40.5833333 ], [ -107.5833333, 40.75 ], [ -107.4583333, 40.7083333 ] ], [ [ -89.9583333, 40.0833333 ], [ -90.125, 40.0833333 ], [ -90.125, 40.2916667 ], [ -90.0, 40.3333333 ], [ -89.9583333, 40.0833333 ] ], [ [ -112.0833333, 39.625 ], [ -112.125, 39.625 ], [ -112.125, 39.6666667 ], [ -112.0833333, 39.625 ] ], [ [ -89.0416667, 40.0416667 ], [ -88.9166667, 39.5 ], [ -89.2083333, 39.4583333 ], [ -89.4166667, 39.625 ], [ -89.3333333, 39.75 ], [ -89.4166667, 39.9583333 ], [ -89.2083333, 40.0416667 ], [ -89.0416667, 40.0416667 ] ], [ [ -79.7083333, 39.4166667 ], [ -79.7916667, 39.625 ], [ -79.6666667, 39.6666667 ], [ -79.625, 39.4166667 ], [ -79.7083333, 39.4166667 ] ], [ [ -112.3333333, 39.7083333 ], [ -112.125, 39.6666667 ], [ -112.25, 39.6666667 ], [ -112.375, 39.375 ], [ -112.375, 39.125 ], [ -112.5833333, 38.9166667 ], [ -112.8333333, 38.9166667 ], [ -112.8333333, 39.0833333 ], [ -113.0833333, 39.1666667 ], [ -113.0416667, 39.2083333 ], [ -113.0833333, 39.2083333 ], [ -113.125, 39.3333333 ], [ -113.375, 39.5833333 ], [ -113.375, 39.2916667 ], [ -113.4583333, 39.0833333 ], [ -113.5416667, 39.25 ], [ -113.4166667, 39.3333333 ], [ -113.4166667, 39.5416667 ], [ -113.5, 39.625 ], [ -113.2916667, 39.7083333 ], [ -113.2083333, 39.9583333 ], [ -113.4583333, 40.25 ], [ -113.3333333, 40.4166667 ], [ -113.375, 40.625 ], [ -113.25, 40.7083333 ], [ -113.1666667, 41.0833333 ], [ -113.0, 41.1666667 ], [ -112.7916667, 41.1666667 ], [ -112.7916667, 40.9583333 ], [ -112.7083333, 40.7916667 ], [ -112.9583333, 40.7916667 ], [ -113.0416667, 40.5416667 ], [ -112.7083333, 40.4583333 ], [ -112.7083333, 40.25 ], [ -112.7916667, 39.9166667 ], [ -112.5416667, 39.7916667 ], [ -112.3333333, 39.7083333 ] ], [ [ -115.7083333, 38.2083333 ], [ -115.9166667, 38.125 ], [ -115.9583333, 37.875 ], [ -116.0833333, 37.875 ], [ -116.166666699999979, 38.25 ], [ -116.0, 38.2916667 ], [ -115.875, 38.5 ], [ -115.625, 38.5416667 ], [ -115.5416667, 38.4583333 ], [ -115.7083333, 38.2083333 ] ], [ [ -81.25, 37.7916667 ], [ -81.25, 37.75 ], [ -81.2916667, 37.7916667 ], [ -81.25, 37.7916667 ] ], [ [ -110.875, 37.3333333 ], [ -111.0416667, 37.2916667 ], [ -111.0416667, 37.5 ], [ -110.875, 37.3333333 ] ], [ [ -108.5416667, 40.1666667 ], [ -108.7083333, 40.0416667 ], [ -108.7083333, 39.875 ], [ -108.875, 39.875 ], [ -108.9583333, 39.7083333 ], [ -109.1666667, 39.7083333 ], [ -109.2083333, 39.5833333 ], [ -109.5, 39.5833333 ], [ -109.4583333, 39.4583333 ], [ -109.7083333, 39.4583333 ], [ -109.9583333, 39.5416667 ], [ -109.9166667, 39.1666667 ], [ -109.875, 39.0833333 ], [ -109.5833333, 39.125 ], [ -109.2916667, 39.3333333 ], [ -109.0, 39.4583333 ], [ -108.75, 39.4583333 ], [ -108.5, 39.25 ], [ -108.3333333, 39.4166667 ], [ -108.0833333, 39.4166667 ], [ -108.0833333, 39.1666667 ], [ -108.2916667, 39.1666667 ], [ -108.2083333, 38.8333333 ], [ -107.8333333, 38.875 ], [ -107.625, 38.8333333 ], [ -107.5833333, 38.6666667 ], [ -107.8333333, 38.6666667 ], [ -108.125, 38.7916667 ], [ -108.1666667, 38.6666667 ], [ -108.5416667, 38.875 ], [ -108.5833333, 38.9583333 ], [ -108.9166667, 38.9583333 ], [ -109.0833333, 38.7916667 ], [ -109.0, 38.7083333 ], [ -109.2083333, 38.7083333 ], [ -109.5, 38.625 ], [ -109.5833333, 38.4166667 ], [ -109.7083333, 38.375 ], [ -109.7083333, 38.2083333 ], [ -110.0833333, 38.2083333 ], [ -110.1666667, 38.375 ], [ -110.375, 38.4583333 ], [ -110.3333333, 37.9166667 ], [ -110.25, 37.8333333 ], [ -110.4583333, 37.7083333 ], [ -110.5, 37.4583333 ], [ -110.625, 37.25 ], [ -110.7083333, 37.2916667 ], [ -110.875, 37.625 ], [ -110.875, 37.7083333 ], [ -110.5416667, 37.75 ], [ -110.6666667, 38.2083333 ], [ -111.125, 38.25 ], [ -110.875, 38.5833333 ], [ -110.625, 38.625 ], [ -110.4583333, 38.7916667 ], [ -110.5833333, 39.0833333 ], [ -110.8333333, 39.0833333 ], [ -111.0, 38.9166667 ], [ -111.0, 39.3333333 ], [ -110.9166667, 39.375 ], [ -110.9166667, 39.6666667 ], [ -110.5416667, 39.6666667 ], [ -110.4166667, 39.5833333 ], [ -110.2916667, 39.3333333 ], [ -110.0833333, 39.375 ], [ -110.125, 39.7083333 ], [ -110.25, 39.8333333 ], [ -110.2083333, 39.9583333 ], [ -110.375, 40.0833333 ], [ -110.625, 40.125 ], [ -110.5, 40.2916667 ], [ -110.3333333, 40.2916667 ], [ -110.25, 40.4166667 ], [ -109.9583333, 40.5 ], [ -109.5416667, 40.5 ], [ -109.4583333, 40.5833333 ], [ -109.1666667, 40.5 ], [ -109.1666667, 40.3333333 ], [ -108.9583333, 40.25 ], [ -108.7083333, 40.25 ], [ -108.5833333, 40.3333333 ], [ -108.25, 40.3333333 ], [ -108.25, 40.125 ], [ -108.5416667, 40.1666667 ] ], [ [ -109.25, 37.25 ], [ -109.25, 37.2083333 ], [ -109.375, 37.25 ], [ -109.25, 37.25 ] ], [ [ -111.2083333, 36.9166667 ], [ -111.5416667, 36.875 ], [ -111.6666667, 37.0833333 ], [ -111.2083333, 36.9166667 ] ], [ [ -82.4166667, 36.375 ], [ -82.7916667, 36.4583333 ], [ -82.7083333, 36.75 ], [ -82.3333333, 36.5416667 ], [ -82.4166667, 36.375 ] ], [ [ -114.5833333, 36.2083333 ], [ -114.5833333, 36.3333333 ], [ -114.875, 36.4166667 ], [ -114.7083333, 36.75 ], [ -114.25, 36.7083333 ], [ -114.2916667, 36.5833333 ], [ -114.1666667, 36.4583333 ], [ -114.2916667, 36.375 ], [ -114.2916667, 36.125 ], [ -114.5833333, 36.2083333 ] ], [ [ -114.0416667, 36.375 ], [ -113.875, 36.375 ], [ -113.875, 36.1666667 ], [ -113.9583333, 36.0416667 ], [ -114.125, 36.125 ], [ -114.0416667, 36.375 ] ], [ [ -116.7916667, 35.9166667 ], [ -116.875, 36.25 ], [ -117.0833333, 36.6666667 ], [ -116.8333333, 36.5833333 ], [ -116.8333333, 36.375 ], [ -116.75, 36.2083333 ], [ -116.75, 36.0 ], [ -116.6666667, 35.9166667 ], [ -116.7916667, 35.9166667 ] ], [ [ -116.375, 35.7083333 ], [ -116.166666699999979, 35.6666667 ], [ -116.166666699999979, 35.5416667 ], [ -116.25, 35.625 ], [ -116.5833333, 35.6666667 ], [ -116.625, 35.875 ], [ -116.375, 35.7083333 ] ], [ [ -114.6666667, 35.5 ], [ -114.75, 35.5 ], [ -114.7083333, 35.9166667 ], [ -114.6666667, 35.5 ] ], [ [ -99.0833333, 35.2083333 ], [ -99.125, 35.2083333 ], [ -99.0833333, 35.25 ], [ -99.0833333, 35.2083333 ] ], [ [ -115.9583333, 35.2916667 ], [ -115.9583333, 35.0833333 ], [ -116.0833333, 35.125 ], [ -116.0833333, 35.3333333 ], [ -115.9583333, 35.2916667 ] ], [ [ -114.625, 35.2083333 ], [ -114.5, 35.2083333 ], [ -114.5, 34.9166667 ], [ -114.6666667, 35.0 ], [ -114.625, 35.2083333 ] ], [ [ -87.5416667, 35.0 ], [ -87.375, 34.8333333 ], [ -87.6666667, 34.6666667 ], [ -87.8333333, 34.875 ], [ -87.7083333, 35.0 ], [ -87.5416667, 35.0 ] ], [ [ -88.375, 34.5416667 ], [ -88.4166667, 34.5416667 ], [ -88.375, 34.625 ], [ -88.375, 34.5416667 ] ], [ [ -81.375, 34.5416667 ], [ -81.375, 34.5833333 ], [ -81.375, 34.625 ], [ -81.3333333, 34.7083333 ], [ -81.375, 34.5416667 ] ], [ [ -88.4166667, 34.5416667 ], [ -88.375, 34.5 ], [ -88.4583333, 34.5416667 ], [ -88.4166667, 34.5416667 ] ], [ [ -99.5833333, 34.375 ], [ -99.7083333, 34.375 ], [ -99.6666667, 34.4166667 ], [ -99.5833333, 34.375 ] ], [ [ -99.25, 34.25 ], [ -99.25, 34.2083333 ], [ -99.2916667, 34.25 ], [ -99.25, 34.25 ] ], [ [ -81.5416667, 34.2083333 ], [ -81.5416667, 34.25 ], [ -81.4166667, 34.2916667 ], [ -81.5416667, 34.2083333 ] ], [ [ -113.5833333, 34.375 ], [ -113.2916667, 34.2916667 ], [ -113.2916667, 34.125 ], [ -113.6666667, 34.125 ], [ -113.875, 34.2083333 ], [ -113.75, 34.25 ], [ -113.5833333, 34.375 ] ], [ [ -81.5833333, 34.25 ], [ -81.5416667, 34.2083333 ], [ -81.4583333, 34.125 ], [ -81.5833333, 34.0416667 ], [ -81.7083333, 34.25 ], [ -81.6666667, 34.2916667 ], [ -81.5833333, 34.25 ] ], [ [ -84.125, 33.875 ], [ -84.25, 33.9583333 ], [ -84.0833333, 33.9583333 ], [ -84.125, 33.7916667 ], [ -84.125, 33.875 ] ], [ [ -114.0, 34.0833333 ], [ -113.7083333, 34.0416667 ], [ -113.6666667, 34.125 ], [ -113.625, 34.0 ], [ -113.8333333, 33.9166667 ], [ -113.7916667, 33.7083333 ], [ -113.9583333, 33.7083333 ], [ -113.9583333, 33.875 ], [ -114.2916667, 33.7083333 ], [ -114.2916667, 33.9166667 ], [ -114.0416667, 34.1666667 ], [ -114.0, 34.0833333 ] ], [ [ -114.916666699999979, 34.2083333 ], [ -114.5833333, 33.9166667 ], [ -114.875, 33.9166667 ], [ -114.916666699999979, 34.0416667 ], [ -115.1666667, 33.9583333 ], [ -115.5416667, 34.2916667 ], [ -115.9583333, 34.5833333 ], [ -115.4583333, 34.5833333 ], [ -115.4166667, 34.4583333 ], [ -115.25, 34.4166667 ], [ -115.083333299999978, 34.25 ], [ -114.916666699999979, 34.2083333 ] ], [ [ -79.3333333, 33.375 ], [ -79.4166667, 33.3333333 ], [ -79.4166667, 33.375 ], [ -79.3333333, 33.375 ] ], [ [ -90.9583333, 33.125 ], [ -91.0, 33.125 ], [ -91.0, 33.1666667 ], [ -90.9583333, 33.125 ] ], [ [ -112.9166667, 33.4583333 ], [ -112.625, 33.5416667 ], [ -112.625, 33.3333333 ], [ -112.375, 33.3333333 ], [ -112.4583333, 33.1666667 ], [ -113.0833333, 33.1666667 ], [ -113.0833333, 33.2916667 ], [ -112.9166667, 33.4583333 ] ], [ [ -91.0, 33.125 ], [ -90.9583333, 33.0833333 ], [ -91.0416667, 33.125 ], [ -91.0, 33.125 ] ], [ [ -81.7083333, 32.9583333 ], [ -82.0416667, 33.25 ], [ -81.8333333, 33.375 ], [ -81.6666667, 33.7083333 ], [ -81.2916667, 34.125 ], [ -81.125, 34.25 ], [ -81.0416667, 34.4166667 ], [ -81.0416667, 34.4583333 ], [ -81.125, 34.6666667 ], [ -81.375, 34.9166667 ], [ -81.375, 35.0833333 ], [ -81.25, 35.1666667 ], [ -81.4583333, 35.1666667 ], [ -81.4166667, 34.9166667 ], [ -81.625, 34.7916667 ], [ -81.5833333, 34.875 ], [ -81.5833333, 34.9166667 ], [ -81.7916667, 34.9166667 ], [ -81.875, 34.875 ], [ -82.0833333, 34.875 ], [ -82.25, 34.6666667 ], [ -82.2916667, 34.7083333 ], [ -82.2916667, 34.6666667 ], [ -82.5, 34.7083333 ], [ -82.5416667, 34.7083333 ], [ -82.6666667, 34.75 ], [ -82.7083333, 34.9166667 ], [ -82.4583333, 35.0833333 ], [ -82.1666667, 35.0416667 ], [ -82.0833333, 35.2083333 ], [ -82.0, 35.4166667 ], [ -81.7916667, 35.4166667 ], [ -81.4583333, 35.5 ], [ -81.2916667, 35.4166667 ], [ -81.25, 35.6666667 ], [ -81.7083333, 35.7083333 ], [ -81.9166667, 35.625 ], [ -81.9583333, 35.6666667 ], [ -81.9166667, 35.6666667 ], [ -81.9583333, 35.7083333 ], [ -81.5, 35.875 ], [ -81.2916667, 35.9166667 ], [ -81.0416667, 36.0 ], [ -81.0, 36.0 ], [ -80.9583333, 36.125 ], [ -81.25, 36.125 ], [ -81.0833333, 36.2083333 ], [ -80.625, 36.5833333 ], [ -80.5, 36.5 ], [ -80.4583333, 36.625 ], [ -80.0833333, 36.9583333 ], [ -79.9583333, 37.125 ], [ -80.0833333, 37.375 ], [ -79.9583333, 37.625 ], [ -79.875, 37.75 ], [ -79.875, 37.7916667 ], [ -79.75, 37.9166667 ], [ -79.5833333, 37.9583333 ], [ -79.6666667, 37.9166667 ], [ -79.7083333, 37.875 ], [ -79.5833333, 37.8333333 ], [ -79.5416667, 37.9583333 ], [ -79.375, 38.0416667 ], [ -79.3333333, 38.0833333 ], [ -79.3333333, 38.0416667 ], [ -79.25, 38.0416667 ], [ -79.1666667, 38.3333333 ], [ -79.0416667, 38.4166667 ], [ -78.9583333, 38.6666667 ], [ -78.75, 38.75 ], [ -78.75, 38.9166667 ], [ -78.5833333, 39.0 ], [ -78.75, 39.0833333 ], [ -78.9166667, 39.0 ], [ -79.2083333, 39.0 ], [ -79.125, 39.3333333 ], [ -79.125, 39.4166667 ], [ -78.9166667, 39.5 ], [ -78.7916667, 39.7083333 ], [ -78.1666667, 39.6666667 ], [ -78.2083333, 39.4583333 ], [ -78.0833333, 39.4166667 ], [ -77.9166667, 39.4583333 ], [ -77.7916667, 39.3333333 ], [ -77.8333333, 39.1666667 ], [ -78.125, 38.875 ], [ -77.9583333, 38.9166667 ], [ -77.8333333, 39.0833333 ], [ -77.625, 39.0416667 ], [ -77.5, 39.25 ], [ -77.4583333, 39.125 ], [ -77.4583333, 38.6666667 ], [ -77.5, 38.5 ], [ -77.125, 38.2083333 ], [ -77.125, 38.125 ], [ -77.0416667, 38.0833333 ], [ -76.9166667, 37.9166667 ], [ -76.9583333, 37.4166667 ], [ -77.0833333, 37.3333333 ], [ -77.0833333, 36.9166667 ], [ -77.0, 36.7083333 ], [ -76.875, 36.2083333 ], [ -76.8333333, 35.8333333 ], [ -77.0833333, 35.5833333 ], [ -77.125, 35.2916667 ], [ -77.4583333, 34.9166667 ], [ -77.6666667, 34.7916667 ], [ -77.6666667, 34.6666667 ], [ -78.0416667, 34.1666667 ], [ -78.125, 34.2083333 ], [ -78.1666667, 34.2083333 ], [ -78.4583333, 34.2083333 ], [ -78.625, 34.0 ], [ -78.7083333, 33.9583333 ], [ -79.0, 33.875 ], [ -79.1666667, 33.7083333 ], [ -79.2916667, 33.4583333 ], [ -79.4166667, 33.375 ], [ -79.4583333, 33.3333333 ], [ -79.6666667, 33.3333333 ], [ -79.6666667, 33.2916667 ], [ -79.7083333, 33.3333333 ], [ -79.7916667, 33.3333333 ], [ -80.0833333, 33.0833333 ], [ -80.2083333, 33.1666667 ], [ -80.25, 33.0833333 ], [ -80.25, 33.1666667 ], [ -80.3333333, 33.1666667 ], [ -80.4166667, 33.125 ], [ -80.4583333, 33.0833333 ], [ -80.4583333, 33.125 ], [ -80.5416667, 33.125 ], [ -80.625, 33.0 ], [ -80.6666667, 33.2083333 ], [ -80.75, 33.0416667 ], [ -81.125, 33.0 ], [ -81.125, 33.0833333 ], [ -81.2083333, 33.0416667 ], [ -81.2083333, 33.0 ], [ -81.375, 33.0833333 ], [ -81.625, 33.0 ], [ -81.7083333, 32.9583333 ] ], [ [ -82.25, 33.0 ], [ -82.2916667, 32.9583333 ], [ -82.25, 33.0416667 ], [ -82.25, 33.0 ] ], [ [ -82.25, 32.9583333 ], [ -82.25, 32.9166667 ], [ -82.2916667, 32.9583333 ], [ -82.25, 32.9583333 ] ], [ [ -91.0416667, 32.9166667 ], [ -91.0833333, 32.875 ], [ -91.0833333, 32.9166667 ], [ -91.0416667, 32.9166667 ] ], [ [ -98.0416667, 33.0 ], [ -97.9583333, 32.8333333 ], [ -97.9583333, 32.5833333 ], [ -98.1666667, 32.625 ], [ -98.2083333, 32.625 ], [ -98.25, 32.625 ], [ -98.4166667, 32.75 ], [ -98.4166667, 32.7916667 ], [ -98.4166667, 32.9166667 ], [ -98.2083333, 32.9166667 ], [ -98.125, 33.0 ], [ -98.0416667, 33.0 ] ], [ [ -95.0, 32.2916667 ], [ -95.0, 32.0833333 ], [ -95.1666667, 32.125 ], [ -95.1666667, 32.3333333 ], [ -95.0, 32.2916667 ] ], [ [ -97.1666667, 32.0416667 ], [ -97.2083333, 32.125 ], [ -97.125, 32.0 ], [ -96.9166667, 31.875 ], [ -96.9166667, 31.7083333 ], [ -96.8333333, 31.5833333 ], [ -96.9166667, 31.5416667 ], [ -96.9583333, 31.25 ], [ -97.0416667, 31.2083333 ], [ -97.2083333, 31.1666667 ], [ -97.375, 31.0833333 ], [ -97.5416667, 31.125 ], [ -97.5, 31.2916667 ], [ -97.5833333, 31.375 ], [ -97.5833333, 31.5833333 ], [ -97.5416667, 31.5833333 ], [ -97.5416667, 31.75 ], [ -97.4166667, 31.9583333 ], [ -97.1666667, 32.0416667 ] ], [ [ -92.5416667, 31.0416667 ], [ -92.4583333, 31.125 ], [ -92.4583333, 31.0 ], [ -92.375, 30.9583333 ], [ -92.2916667, 30.875 ], [ -92.3333333, 30.7916667 ], [ -92.1666667, 30.75 ], [ -92.125, 30.7083333 ], [ -92.0833333, 30.7083333 ], [ -92.0416667, 30.7916667 ], [ -92.0416667, 30.625 ], [ -91.875, 30.5 ], [ -91.875, 30.375 ], [ -92.125, 30.25 ], [ -92.2083333, 30.3333333 ], [ -92.2083333, 30.5833333 ], [ -92.5416667, 30.5416667 ], [ -92.8333333, 30.5833333 ], [ -92.8333333, 30.75 ], [ -92.6666667, 30.75 ], [ -92.5416667, 31.0416667 ] ], [ [ -91.7916667, 30.7916667 ], [ -91.8333333, 30.7916667 ], [ -91.8333333, 30.875 ], [ -91.7916667, 30.7916667 ] ], [ [ -91.7083333, 30.7916667 ], [ -91.7083333, 30.75 ], [ -91.7916667, 30.75 ], [ -91.7916667, 30.7916667 ], [ -91.7083333, 30.7916667 ] ], [ [ -89.0416667, 30.6666667 ], [ -89.2083333, 30.625 ], [ -89.2083333, 30.7083333 ], [ -89.0416667, 30.6666667 ] ], [ [ -88.0416667, 30.6666667 ], [ -88.0416667, 30.625 ], [ -88.0833333, 30.6666667 ], [ -88.0416667, 30.6666667 ] ], [ [ -95.3333333, 43.375 ], [ -95.25, 43.3333333 ], [ -94.9583333, 43.1666667 ], [ -95.0833333, 43.0833333 ], [ -94.7916667, 43.0 ], [ -94.5416667, 43.0833333 ], [ -94.5, 42.8333333 ], [ -94.2916667, 42.7083333 ], [ -94.1666667, 42.75 ], [ -93.75, 42.75 ], [ -93.6666667, 42.5416667 ], [ -93.4583333, 42.5416667 ], [ -93.4583333, 42.25 ], [ -93.375, 42.0416667 ], [ -93.5, 42.0 ], [ -93.4166667, 41.7916667 ], [ -93.7916667, 41.7916667 ], [ -93.7083333, 41.4583333 ], [ -93.5, 41.125 ], [ -93.3333333, 41.125 ], [ -93.125, 41.0 ], [ -93.0416667, 40.7083333 ], [ -93.0833333, 40.625 ], [ -93.0833333, 40.1666667 ], [ -93.0416667, 39.9166667 ], [ -93.0416667, 39.8333333 ], [ -93.0833333, 39.5 ], [ -92.875, 39.5 ], [ -92.7083333, 39.625 ], [ -92.6666667, 39.4166667 ], [ -92.8333333, 39.125 ], [ -92.5, 39.1666667 ], [ -92.2916667, 39.0 ], [ -92.125, 39.0833333 ], [ -92.125, 39.4583333 ], [ -92.0416667, 39.5416667 ], [ -91.75, 39.4583333 ], [ -91.4583333, 39.5416667 ], [ -90.625, 39.5416667 ], [ -90.6666667, 39.8333333 ], [ -90.3333333, 39.9166667 ], [ -90.25, 39.75 ], [ -90.25, 39.7083333 ], [ -90.3333333, 39.0833333 ], [ -90.5833333, 39.0416667 ], [ -90.5416667, 38.9166667 ], [ -90.5, 38.625 ], [ -90.2083333, 38.5416667 ], [ -90.2083333, 38.3333333 ], [ -89.9166667, 38.375 ], [ -89.6666667, 38.0416667 ], [ -89.5, 37.75 ], [ -89.4166667, 37.3333333 ], [ -89.375, 36.9166667 ], [ -89.125, 36.9583333 ], [ -88.875, 37.1666667 ], [ -89.1666667, 37.25 ], [ -89.0, 37.4583333 ], [ -88.6666667, 37.4583333 ], [ -88.4166667, 37.5833333 ], [ -88.75, 37.6666667 ], [ -88.75, 37.7083333 ], [ -88.9166667, 37.8333333 ], [ -88.875, 38.1666667 ], [ -88.75, 38.2916667 ], [ -88.75, 38.5416667 ], [ -88.6666667, 38.7916667 ], [ -88.4583333, 38.7916667 ], [ -88.2916667, 38.2916667 ], [ -88.1666667, 38.0833333 ], [ -88.125, 37.9166667 ], [ -88.0416667, 37.7083333 ], [ -87.7916667, 37.5416667 ], [ -87.5833333, 37.5833333 ], [ -87.5833333, 37.625 ], [ -87.4583333, 37.6666667 ], [ -87.25, 37.875 ], [ -87.1666667, 38.0416667 ], [ -87.0, 38.1666667 ], [ -87.0, 38.5833333 ], [ -87.125, 38.7916667 ], [ -87.125, 38.9583333 ], [ -86.9166667, 39.2083333 ], [ -86.75, 39.0 ], [ -86.375, 39.0 ], [ -86.1666667, 38.9166667 ], [ -86.0416667, 39.0416667 ], [ -85.875, 39.0416667 ], [ -85.7083333, 38.9166667 ], [ -85.6666667, 38.625 ], [ -86.0, 38.625 ], [ -86.0, 38.125 ], [ -85.5416667, 38.125 ], [ -85.5, 38.2916667 ], [ -85.2916667, 38.4583333 ], [ -85.2083333, 38.7083333 ], [ -85.0, 39.125 ], [ -85.0, 39.2916667 ], [ -85.1666667, 39.375 ], [ -85.1666667, 39.7083333 ], [ -85.0416667, 39.7083333 ], [ -84.6666667, 39.6666667 ], [ -84.625, 39.5416667 ], [ -84.375, 39.5416667 ], [ -84.25, 39.4166667 ], [ -84.25, 39.0 ], [ -84.2083333, 38.8333333 ], [ -84.0416667, 38.875 ], [ -83.625, 38.875 ], [ -83.5833333, 38.9583333 ], [ -83.1666667, 38.9583333 ], [ -83.0416667, 39.2083333 ], [ -83.0833333, 39.5416667 ], [ -82.6666667, 39.5416667 ], [ -82.2916667, 39.9166667 ], [ -82.0416667, 39.9166667 ], [ -82.0833333, 39.75 ], [ -81.5, 39.7083333 ], [ -81.4583333, 39.625 ], [ -81.0833333, 39.7916667 ], [ -81.0416667, 39.9166667 ], [ -80.7916667, 39.9166667 ], [ -80.6666667, 40.0416667 ], [ -80.375, 40.0416667 ], [ -80.2083333, 40.125 ], [ -80.125, 40.2916667 ], [ -80.0833333, 40.2916667 ], [ -80.0416667, 40.4583333 ], [ -80.0, 40.625 ], [ -80.1666667, 40.7916667 ], [ -80.4583333, 40.9583333 ], [ -80.4166667, 41.125 ], [ -80.0, 41.125 ], [ -79.9583333, 41.0416667 ], [ -79.625, 40.9583333 ], [ -79.5, 40.9166667 ], [ -79.2916667, 41.1666667 ], [ -79.2083333, 41.0833333 ], [ -79.125, 40.875 ], [ -79.2083333, 40.625 ], [ -79.1666667, 40.4583333 ], [ -79.5, 40.0416667 ], [ -79.8333333, 39.7083333 ], [ -79.9166667, 39.5416667 ], [ -79.75, 39.375 ], [ -79.7083333, 39.4166667 ], [ -79.7083333, 39.375 ], [ -79.5416667, 39.25 ], [ -79.625, 39.0833333 ], [ -79.9166667, 38.9583333 ], [ -80.2083333, 38.7916667 ], [ -80.3333333, 38.7083333 ], [ -80.3333333, 38.5416667 ], [ -80.2916667, 38.5416667 ], [ -80.4583333, 38.4583333 ], [ -80.6666667, 38.2083333 ], [ -80.9166667, 38.0833333 ], [ -81.0416667, 37.8333333 ], [ -81.2083333, 37.8333333 ], [ -81.2916667, 37.8333333 ], [ -81.2916667, 37.7916667 ], [ -81.4166667, 37.7916667 ], [ -81.5, 37.875 ], [ -81.6666667, 37.8333333 ], [ -81.5, 37.7083333 ], [ -81.4583333, 37.6666667 ], [ -81.3333333, 37.6666667 ], [ -81.3333333, 37.5833333 ], [ -81.5416667, 37.4166667 ], [ -81.9166667, 37.375 ], [ -82.0, 37.2916667 ], [ -82.25, 37.2083333 ], [ -82.5416667, 37.2916667 ], [ -82.625, 37.2083333 ], [ -82.75, 37.125 ], [ -82.9166667, 37.1666667 ], [ -83.0833333, 37.0833333 ], [ -83.3333333, 37.0 ], [ -83.5, 36.9166667 ], [ -83.7916667, 37.0 ], [ -83.7916667, 37.2083333 ], [ -84.0416667, 37.2083333 ], [ -84.0416667, 37.0 ], [ -84.125, 36.9166667 ], [ -84.0, 36.75 ], [ -84.0416667, 36.75 ], [ -84.0833333, 36.75 ], [ -84.25, 36.75 ], [ -84.4166667, 36.5833333 ], [ -84.5416667, 36.4166667 ], [ -84.7916667, 36.25 ], [ -84.875, 36.2916667 ], [ -84.875, 36.25 ], [ -84.9166667, 36.2916667 ], [ -84.9583333, 36.2916667 ], [ -85.125, 36.25 ], [ -85.1666667, 36.25 ], [ -85.25, 36.125 ], [ -85.4166667, 36.1666667 ], [ -85.4166667, 35.875 ], [ -85.5833333, 35.7083333 ], [ -85.8333333, 35.6666667 ], [ -85.875, 35.5833333 ], [ -85.9583333, 35.6666667 ], [ -86.1666667, 35.625 ], [ -86.25, 35.4166667 ], [ -86.625, 35.375 ], [ -86.9166667, 35.5416667 ], [ -86.9583333, 35.5416667 ], [ -87.1666667, 35.7083333 ], [ -87.0833333, 35.9583333 ], [ -87.2083333, 35.9166667 ], [ -87.2916667, 35.9583333 ], [ -87.7916667, 35.875 ], [ -87.875, 35.7083333 ], [ -87.9166667, 35.6666667 ], [ -87.9583333, 35.6666667 ], [ -87.875, 35.4583333 ], [ -88.0, 35.2916667 ], [ -88.125, 35.3333333 ], [ -88.1666667, 35.0833333 ], [ -88.0833333, 35.0416667 ], [ -88.1666667, 34.9583333 ], [ -88.1666667, 34.8333333 ], [ -88.2916667, 34.875 ], [ -88.5, 34.7916667 ], [ -88.4583333, 34.5416667 ], [ -88.625, 34.4166667 ], [ -88.625, 34.375 ], [ -88.625, 34.3333333 ], [ -88.625, 34.2916667 ], [ -88.7916667, 34.1666667 ], [ -88.8333333, 34.2916667 ], [ -88.8333333, 34.1666667 ], [ -88.9166667, 34.2916667 ], [ -88.9583333, 34.125 ], [ -89.125, 34.1666667 ], [ -89.1666667, 34.2083333 ], [ -89.2083333, 34.25 ], [ -89.1666667, 34.25 ], [ -89.1666667, 34.2916667 ], [ -89.125, 34.25 ], [ -89.0416667, 34.3333333 ], [ -89.2916667, 34.4166667 ], [ -89.5833333, 34.2916667 ], [ -89.7083333, 34.125 ], [ -89.9583333, 34.0833333 ], [ -90.0416667, 33.875 ], [ -90.0833333, 33.875 ], [ -90.0, 33.7916667 ], [ -90.0416667, 33.5 ], [ -90.3333333, 33.0416667 ], [ -90.5, 32.9583333 ], [ -90.6666667, 33.0833333 ], [ -91.0, 33.1666667 ], [ -91.0416667, 33.2916667 ], [ -91.125, 33.2916667 ], [ -91.125, 33.2083333 ], [ -91.0833333, 33.125 ], [ -91.125, 33.0833333 ], [ -91.1666667, 33.0833333 ], [ -91.2083333, 33.0 ], [ -91.2083333, 33.0833333 ], [ -91.4166667, 33.0833333 ], [ -91.4583333, 33.3333333 ], [ -91.875, 33.3333333 ], [ -91.9166667, 33.2916667 ], [ -91.9166667, 33.125 ], [ -92.1666667, 32.9166667 ], [ -92.2083333, 32.9166667 ], [ -92.1666667, 32.875 ], [ -92.2916667, 32.75 ], [ -92.5833333, 32.5 ], [ -92.8333333, 32.625 ], [ -92.875, 32.7916667 ], [ -93.0, 32.9166667 ], [ -93.2083333, 32.9166667 ], [ -93.1666667, 32.8333333 ], [ -93.2083333, 32.7083333 ], [ -93.25, 32.7083333 ], [ -93.5, 32.6666667 ], [ -93.5, 32.5 ], [ -93.625, 32.375 ], [ -94.0416667, 32.4166667 ], [ -94.0833333, 32.5833333 ], [ -94.375, 32.6666667 ], [ -94.5833333, 32.5833333 ], [ -94.75, 32.4166667 ], [ -94.875, 32.5 ], [ -94.875, 32.7083333 ], [ -94.75, 32.625 ], [ -94.7916667, 32.75 ], [ -94.9166667, 32.9583333 ], [ -95.0833333, 33.0 ], [ -95.375, 32.9166667 ], [ -95.375, 32.875 ], [ -95.4166667, 32.9166667 ], [ -95.5416667, 32.7916667 ], [ -95.7083333, 32.8333333 ], [ -95.7916667, 32.6666667 ], [ -96.0, 32.4583333 ], [ -95.9583333, 32.375 ], [ -95.9166667, 32.2083333 ], [ -95.875, 31.9166667 ], [ -95.625, 31.9166667 ], [ -95.625, 32.0 ], [ -95.5, 32.0833333 ], [ -95.5, 32.3333333 ], [ -95.25, 32.4166667 ], [ -95.3333333, 32.1666667 ], [ -95.3333333, 32.0416667 ], [ -95.375, 32.0 ], [ -95.3333333, 32.0 ], [ -95.1666667, 32.0416667 ], [ -95.0833333, 31.75 ], [ -95.125, 31.4583333 ], [ -95.1666667, 31.4583333 ], [ -95.3333333, 31.5 ], [ -95.3333333, 31.4583333 ], [ -95.5, 31.2083333 ], [ -95.2916667, 31.1666667 ], [ -95.25, 31.1666667 ], [ -95.1666667, 30.9583333 ], [ -94.9583333, 30.75 ], [ -94.9583333, 30.5833333 ], [ -95.2083333, 30.625 ], [ -95.2083333, 30.7916667 ], [ -95.5, 30.7916667 ], [ -95.5416667, 30.7083333 ], [ -95.7916667, 30.75 ], [ -95.7083333, 30.9166667 ], [ -95.7916667, 30.9583333 ], [ -95.7916667, 31.0 ], [ -95.75, 31.25 ], [ -95.8333333, 31.2916667 ], [ -95.8333333, 31.4166667 ], [ -95.8333333, 31.4583333 ], [ -95.9166667, 31.5833333 ], [ -96.125, 31.6666667 ], [ -96.2083333, 31.8333333 ], [ -96.2083333, 31.875 ], [ -96.2916667, 31.875 ], [ -96.3333333, 31.875 ], [ -96.3333333, 31.7083333 ], [ -96.4583333, 31.625 ], [ -96.5833333, 31.7083333 ], [ -96.5, 31.7916667 ], [ -96.5416667, 31.9583333 ], [ -96.5, 31.9583333 ], [ -96.5416667, 32.0 ], [ -96.6666667, 32.0416667 ], [ -96.7916667, 32.25 ], [ -97.0416667, 32.3333333 ], [ -97.2083333, 32.5 ], [ -97.5416667, 32.6666667 ], [ -97.625, 32.7083333 ], [ -97.625, 32.75 ], [ -97.625, 32.7916667 ], [ -97.6666667, 33.0416667 ], [ -97.6666667, 33.0833333 ], [ -97.6666667, 33.25 ], [ -97.5833333, 33.2083333 ], [ -97.5416667, 33.2083333 ], [ -97.5, 33.3333333 ], [ -97.4166667, 33.4166667 ], [ -97.4583333, 33.5833333 ], [ -97.625, 33.8333333 ], [ -97.75, 33.7916667 ], [ -97.7916667, 33.7916667 ], [ -97.875, 33.7916667 ], [ -98.25, 33.75 ], [ -98.375, 33.8333333 ], [ -98.625, 33.8333333 ], [ -98.7083333, 33.9166667 ], [ -98.9166667, 33.8333333 ], [ -99.0, 33.9583333 ], [ -99.125, 34.0416667 ], [ -99.0833333, 34.25 ], [ -99.125, 34.375 ], [ -99.125, 34.4583333 ], [ -99.0, 34.5833333 ], [ -98.9166667, 34.7083333 ], [ -98.8333333, 34.5833333 ], [ -98.5833333, 34.625 ], [ -98.375, 34.7083333 ], [ -98.2083333, 34.625 ], [ -98.0, 34.4166667 ], [ -97.8333333, 34.25 ], [ -97.5416667, 34.1666667 ], [ -97.375, 34.125 ], [ -97.375, 34.3333333 ], [ -97.2916667, 34.4166667 ], [ -97.2083333, 34.4583333 ], [ -97.3333333, 34.5833333 ], [ -97.2916667, 34.75 ], [ -97.5833333, 34.7916667 ], [ -97.625, 34.875 ], [ -97.7083333, 34.9166667 ], [ -98.0, 35.0 ], [ -98.0416667, 35.2083333 ], [ -97.9166667, 35.25 ], [ -97.875, 35.5416667 ], [ -97.9583333, 35.6666667 ], [ -98.1666667, 35.7083333 ], [ -98.4583333, 36.0 ], [ -98.5416667, 36.25 ], [ -98.7083333, 36.3333333 ], [ -98.7916667, 36.3333333 ], [ -99.0, 36.375 ], [ -99.0416667, 36.5833333 ], [ -99.2916667, 36.7083333 ], [ -99.5416667, 36.7083333 ], [ -99.5833333, 36.9166667 ], [ -99.75, 37.0 ], [ -99.8333333, 37.0833333 ], [ -99.7083333, 37.125 ], [ -99.5833333, 37.125 ], [ -99.5, 37.1666667 ], [ -99.3333333, 37.25 ], [ -99.1666667, 37.125 ], [ -99.0416667, 37.25 ], [ -98.9583333, 37.25 ], [ -99.0, 37.3333333 ], [ -99.125, 37.4583333 ], [ -99.0416667, 37.5833333 ], [ -98.75, 37.7916667 ], [ -98.75, 37.8333333 ], [ -98.9166667, 37.875 ], [ -99.0, 38.0833333 ], [ -99.125, 38.1666667 ], [ -98.8333333, 38.4166667 ], [ -98.8333333, 38.4583333 ], [ -98.7916667, 38.4583333 ], [ -98.8333333, 38.5 ], [ -98.8333333, 38.5416667 ], [ -98.875, 38.625 ], [ -98.875, 38.5833333 ], [ -98.9166667, 38.625 ], [ -98.9583333, 38.7916667 ], [ -98.9583333, 38.8333333 ], [ -98.9166667, 39.0833333 ], [ -98.75, 39.1666667 ], [ -98.5833333, 39.125 ], [ -98.3333333, 39.2083333 ], [ -98.3333333, 39.3333333 ], [ -98.2916667, 39.5833333 ], [ -98.1666667, 39.5833333 ], [ -98.0, 39.7083333 ], [ -97.9583333, 39.6666667 ], [ -97.7083333, 39.75 ], [ -97.75, 39.7916667 ], [ -97.7083333, 39.7916667 ], [ -97.75, 39.8333333 ], [ -97.75, 39.875 ], [ -97.625, 39.9583333 ], [ -97.625, 40.1666667 ], [ -97.3333333, 40.2916667 ], [ -97.125, 40.2916667 ], [ -97.125, 40.25 ], [ -96.875, 40.2916667 ], [ -96.9166667, 40.7916667 ], [ -96.875, 40.875 ], [ -96.875, 40.9166667 ], [ -96.8333333, 40.9166667 ], [ -96.875, 40.9583333 ], [ -96.875, 41.0 ], [ -96.75, 41.0416667 ], [ -96.5, 41.0416667 ], [ -96.4583333, 41.25 ], [ -96.4166667, 41.5833333 ], [ -96.5416667, 41.625 ], [ -96.4166667, 41.625 ], [ -96.3333333, 41.8333333 ], [ -96.3333333, 41.875 ], [ -96.3333333, 42.0416667 ], [ -96.2083333, 42.1666667 ], [ -96.2083333, 42.375 ], [ -96.0416667, 42.3333333 ], [ -95.9583333, 42.3333333 ], [ -95.9583333, 42.4583333 ], [ -95.7083333, 42.7083333 ], [ -95.6666667, 42.7083333 ], [ -95.625, 42.75 ], [ -95.625, 42.7083333 ], [ -95.5833333, 42.75 ], [ -95.5, 42.7916667 ], [ -95.4583333, 42.875 ], [ -95.5833333, 42.9583333 ], [ -95.6666667, 43.0416667 ], [ -95.4583333, 43.2083333 ], [ -95.5416667, 43.375 ], [ -95.5416667, 43.4166667 ], [ -95.375, 43.375 ], [ -95.3333333, 43.375 ] ], [ [ -95.0416667, 30.5 ], [ -95.0833333, 30.4583333 ], [ -95.0833333, 30.5 ], [ -95.0416667, 30.5 ] ], [ [ -90.8333333, 30.5 ], [ -90.7916667, 30.5 ], [ -90.7916667, 30.4583333 ], [ -90.625, 30.3333333 ], [ -90.625, 30.2916667 ], [ -90.8333333, 30.2916667 ], [ -90.8333333, 30.2083333 ], [ -90.875, 30.125 ], [ -91.1666667, 30.375 ], [ -91.2916667, 30.375 ], [ -91.25, 30.6666667 ], [ -91.0, 30.7083333 ], [ -90.8333333, 30.5 ] ], [ [ -91.3333333, 30.5 ], [ -91.5, 30.4166667 ], [ -91.625, 30.5416667 ], [ -91.5833333, 30.625 ], [ -91.5416667, 30.625 ], [ -91.2916667, 30.6666667 ], [ -91.3333333, 30.5 ] ], [ [ -96.0833333, 30.5833333 ], [ -96.0, 30.5 ], [ -96.0833333, 30.25 ], [ -96.125, 30.25 ], [ -96.375, 30.2916667 ], [ -96.125, 30.5833333 ], [ -96.0833333, 30.5833333 ] ], [ [ -93.9166667, 30.5833333 ], [ -93.7083333, 30.5416667 ], [ -93.75, 30.375 ], [ -94.3333333, 30.25 ], [ -94.5833333, 30.125 ], [ -94.7083333, 30.0416667 ], [ -95.0833333, 30.0416667 ], [ -95.0833333, 30.125 ], [ -95.2083333, 30.0416667 ], [ -95.4166667, 30.125 ], [ -95.5, 30.1666667 ], [ -95.5, 30.4583333 ], [ -95.125, 30.5 ], [ -95.0833333, 30.4583333 ], [ -95.0, 30.3333333 ], [ -94.9583333, 30.4166667 ], [ -94.9166667, 30.4166667 ], [ -94.7916667, 30.375 ], [ -94.875, 30.4583333 ], [ -94.625, 30.4583333 ], [ -94.4166667, 30.5416667 ], [ -94.375, 30.5 ], [ -94.375, 30.4583333 ], [ -94.25, 30.5416667 ], [ -94.0833333, 30.6666667 ], [ -94.0416667, 30.7083333 ], [ -93.9166667, 30.5833333 ] ] ], [ [ [ -74.3333333, 46.9583333 ], [ -74.3333333, 47.0 ], [ -74.375, 46.9583333 ], [ -74.3333333, 46.9583333 ] ] ], [ [ [ -73.9583333, 46.8333333 ], [ -74.0, 46.875 ], [ -74.0, 46.8333333 ], [ -73.9583333, 46.8333333 ] ] ], [ [ [ -74.25, 46.8333333 ], [ -74.2916667, 46.8333333 ], [ -74.25, 46.7916667 ], [ -74.25, 46.8333333 ] ] ], [ [ [ -74.2916667, 46.8333333 ], [ -74.25, 46.875 ], [ -74.3333333, 46.9583333 ], [ -74.2916667, 46.8333333 ] ] ], [ [ [ -74.0, 46.7916667 ], [ -74.0, 46.8333333 ], [ -74.0416667, 46.875 ], [ -74.0, 46.7916667 ] ] ], [ [ [ -73.9583333, 46.75 ], [ -73.9583333, 46.7916667 ], [ -74.0, 46.7916667 ], [ -73.9583333, 46.75 ] ] ], [ [ [ -91.25, 45.2083333 ], [ -91.2083333, 45.2916667 ], [ -91.2916667, 45.25 ], [ -91.25, 45.2083333 ] ] ], [ [ [ -77.125, 38.0833333 ], [ -77.125, 38.125 ], [ -77.2083333, 38.125 ], [ -77.125, 38.0833333 ] ] ], [ [ [ -79.3333333, 38.0416667 ], [ -79.375, 38.0416667 ], [ -79.375, 38.0 ], [ -79.3333333, 38.0416667 ] ] ], [ [ [ -79.7083333, 37.875 ], [ -79.7083333, 37.9166667 ], [ -79.75, 37.9166667 ], [ -79.7083333, 37.875 ] ] ], [ [ [ -79.7083333, 33.375 ], [ -79.7083333, 33.3333333 ], [ -79.6666667, 33.3333333 ], [ -79.7083333, 33.375 ] ] ], [ [ [ -79.7916667, 33.3333333 ], [ -79.7916667, 33.4166667 ], [ -79.75, 33.4166667 ], [ -79.7916667, 33.4583333 ], [ -79.9166667, 33.4583333 ], [ -79.7916667, 33.3333333 ] ] ], [ [ [ -80.25, 33.2083333 ], [ -80.25, 33.1666667 ], [ -80.2083333, 33.1666667 ], [ -80.2083333, 33.2083333 ], [ -80.25, 33.2083333 ] ] ], [ [ [ -80.3333333, 33.25 ], [ -80.2916667, 33.25 ], [ -80.2916667, 33.2916667 ], [ -80.3333333, 33.2916667 ], [ -80.3333333, 33.25 ] ] ], [ [ [ -81.625, 33.0 ], [ -81.6666667, 33.0416667 ], [ -81.6666667, 33.0 ], [ -81.625, 33.0 ] ] ], [ [ [ -78.4166667, 38.625 ], [ -78.5, 38.5416667 ], [ -78.5833333, 38.375 ], [ -78.6666667, 38.2916667 ], [ -78.75, 38.25 ], [ -78.7916667, 38.25 ], [ -78.7083333, 38.0833333 ], [ -78.7083333, 38.2083333 ], [ -78.625, 38.2083333 ], [ -78.5416667, 38.2916667 ], [ -78.5, 38.375 ], [ -78.4583333, 38.4166667 ], [ -78.375, 38.4166667 ], [ -78.2916667, 38.5416667 ], [ -78.2916667, 38.7083333 ], [ -78.125, 38.875 ], [ -78.3333333, 38.7916667 ], [ -78.4166667, 38.625 ] ] ], [ [ [ -79.2083333, 37.875 ], [ -79.1666667, 37.7083333 ], [ -78.9166667, 37.875 ], [ -79.0833333, 38.0 ], [ -79.2083333, 37.875 ] ] ], [ [ [ -95.625, 42.7083333 ], [ -95.6666667, 42.7083333 ], [ -95.5833333, 42.625 ], [ -95.625, 42.7083333 ] ] ], [ [ [ -96.4166667, 41.625 ], [ -96.4166667, 41.5833333 ], [ -96.3333333, 41.5833333 ], [ -96.4166667, 41.625 ] ] ], [ [ [ -97.7083333, 39.7916667 ], [ -97.7083333, 39.75 ], [ -97.6666667, 39.7916667 ], [ -97.7083333, 39.7916667 ] ] ], [ [ [ -79.7083333, 39.375 ], [ -79.75, 39.375 ], [ -79.7916667, 39.25 ], [ -79.7083333, 39.375 ] ] ], [ [ [ -98.7916667, 38.4583333 ], [ -98.8333333, 38.4166667 ], [ -98.75, 38.4583333 ], [ -98.7916667, 38.4583333 ] ] ], [ [ [ -81.5, 37.875 ], [ -81.2916667, 37.8333333 ], [ -81.3333333, 37.9583333 ], [ -81.3333333, 38.0 ], [ -81.4583333, 37.9583333 ], [ -81.5, 37.875 ] ] ], [ [ [ -89.125, 34.25 ], [ -89.1666667, 34.25 ], [ -89.1666667, 34.2083333 ], [ -89.125, 34.2083333 ], [ -89.125, 34.25 ] ] ], [ [ [ -88.9166667, 34.2916667 ], [ -88.8333333, 34.2916667 ], [ -88.8333333, 34.3333333 ], [ -88.9166667, 34.2916667 ] ] ], [ [ [ -91.1666667, 33.2083333 ], [ -91.1666667, 33.1666667 ], [ -91.125, 33.2083333 ], [ -91.1666667, 33.2083333 ] ] ], [ [ [ -91.2083333, 33.2083333 ], [ -91.1666667, 33.2083333 ], [ -91.2083333, 33.25 ], [ -91.2083333, 33.2083333 ] ] ], [ [ [ -91.2083333, 33.0833333 ], [ -91.1666667, 33.0833333 ], [ -91.1666667, 33.1666667 ], [ -91.2083333, 33.2083333 ], [ -91.2083333, 33.0833333 ] ] ], [ [ [ -95.75, 42.25 ], [ -95.75, 42.2916667 ], [ -95.7916667, 42.25 ], [ -95.75, 42.25 ] ] ], [ [ [ -95.7916667, 42.25 ], [ -95.8333333, 42.25 ], [ -95.8333333, 42.2083333 ], [ -95.7916667, 42.2083333 ], [ -95.7916667, 42.25 ] ] ], [ [ [ -84.7083333, 38.75 ], [ -84.6666667, 38.4583333 ], [ -84.5833333, 38.4166667 ], [ -84.7916667, 38.5 ], [ -84.6666667, 38.2916667 ], [ -84.5, 38.3333333 ], [ -84.5416667, 38.8333333 ], [ -84.625, 38.9166667 ], [ -84.7083333, 38.75 ] ] ], [ [ [ -84.8333333, 38.5416667 ], [ -84.7916667, 38.5 ], [ -84.7916667, 38.5416667 ], [ -84.8333333, 38.5416667 ] ] ], [ [ [ -84.7916667, 38.5833333 ], [ -84.7916667, 38.625 ], [ -84.8333333, 38.5833333 ], [ -84.7916667, 38.5833333 ] ] ], [ [ [ -84.4166667, 38.0416667 ], [ -84.5416667, 38.125 ], [ -84.75, 38.0833333 ], [ -84.7916667, 37.8333333 ], [ -84.75, 37.625 ], [ -84.5416667, 37.75 ], [ -84.4166667, 38.0416667 ] ] ], [ [ [ -99.0833333, 36.9166667 ], [ -99.0416667, 36.875 ], [ -99.0416667, 36.9166667 ], [ -99.0833333, 36.9166667 ] ] ], [ [ [ -99.0416667, 36.9583333 ], [ -99.0416667, 37.0 ], [ -99.1666667, 37.0416667 ], [ -99.2083333, 37.0416667 ], [ -99.0833333, 36.9166667 ], [ -99.0416667, 36.9583333 ] ] ], [ [ [ -91.125, 35.0833333 ], [ -91.25, 34.9166667 ], [ -91.7916667, 34.625 ], [ -91.7916667, 34.3333333 ], [ -91.5416667, 34.2083333 ], [ -91.375, 33.9583333 ], [ -91.1666667, 33.9166667 ], [ -91.125, 33.625 ], [ -90.9583333, 33.75 ], [ -90.7083333, 33.6666667 ], [ -90.7083333, 33.5416667 ], [ -90.5833333, 33.4166667 ], [ -90.4166667, 33.4166667 ], [ -90.375, 33.625 ], [ -90.5, 33.6666667 ], [ -90.5416667, 33.9583333 ], [ -90.5, 34.4583333 ], [ -90.5, 34.5 ], [ -90.125, 34.7083333 ], [ -90.0, 34.7083333 ], [ -89.7083333, 35.0416667 ], [ -89.4583333, 35.4583333 ], [ -89.25, 35.4583333 ], [ -89.125, 35.7083333 ], [ -89.125, 36.0416667 ], [ -89.2083333, 36.375 ], [ -89.2916667, 36.625 ], [ -89.4166667, 36.7083333 ], [ -89.75, 36.7083333 ], [ -89.9583333, 36.4583333 ], [ -89.9583333, 36.2916667 ], [ -90.0833333, 36.125 ], [ -90.5833333, 36.0833333 ], [ -90.7916667, 35.875 ], [ -90.7916667, 35.7083333 ], [ -91.0, 35.5416667 ], [ -91.0416667, 35.3333333 ], [ -91.125, 35.0833333 ] ], [ [ -90.9166667, 34.4166667 ], [ -90.7916667, 34.2916667 ], [ -90.9583333, 34.2083333 ], [ -91.0, 34.5416667 ], [ -90.9166667, 34.5833333 ], [ -90.9166667, 34.4166667 ] ], [ [ -91.0, 33.9166667 ], [ -90.7916667, 33.9583333 ], [ -90.7916667, 33.7916667 ], [ -90.9583333, 33.75 ], [ -91.0, 33.9166667 ] ] ], [ [ [ -93.2916667, 36.1666667 ], [ -93.7916667, 35.9166667 ], [ -93.625, 35.75 ], [ -93.4166667, 35.625 ], [ -93.375, 35.7916667 ], [ -93.1666667, 35.75 ], [ -92.875, 35.7083333 ], [ -92.7916667, 35.5833333 ], [ -92.7916667, 35.5416667 ], [ -92.5, 35.7083333 ], [ -92.5416667, 35.875 ], [ -92.8333333, 35.875 ], [ -93.125, 35.9166667 ], [ -93.25, 36.0833333 ], [ -93.25, 36.125 ], [ -93.2916667, 36.1666667 ] ] ], [ [ [ -97.125, 35.0416667 ], [ -97.0833333, 35.1666667 ], [ -97.1666667, 35.375 ], [ -97.125, 35.0416667 ] ] ], [ [ [ -88.375, 34.9583333 ], [ -88.375, 34.9166667 ], [ -88.2916667, 34.9166667 ], [ -88.3333333, 35.0 ], [ -88.375, 34.9583333 ] ] ], [ [ [ -97.125, 34.6666667 ], [ -97.0833333, 34.5 ], [ -97.2083333, 34.4583333 ], [ -97.0416667, 34.4583333 ], [ -97.0, 34.4583333 ], [ -96.8333333, 34.5 ], [ -96.75, 34.625 ], [ -96.875, 34.7916667 ], [ -96.9583333, 34.75 ], [ -97.125, 34.6666667 ] ] ], [ [ [ -94.5, 34.5416667 ], [ -94.5, 34.6666667 ], [ -94.5416667, 34.6666667 ], [ -94.5, 34.5416667 ] ] ], [ [ [ -88.7083333, 34.625 ], [ -88.7083333, 34.6666667 ], [ -88.75, 34.625 ], [ -88.7083333, 34.625 ] ] ], [ [ [ -96.625, 34.4583333 ], [ -96.625, 34.5416667 ], [ -96.6666667, 34.4583333 ], [ -96.625, 34.4583333 ] ] ], [ [ [ -94.7083333, 32.5833333 ], [ -94.7083333, 32.625 ], [ -94.75, 32.625 ], [ -94.7083333, 32.5833333 ] ] ], [ [ [ -95.5833333, 31.875 ], [ -95.5833333, 31.9166667 ], [ -95.625, 31.9166667 ], [ -95.5833333, 31.875 ] ] ] ] } },
{ "type": "Feature", "properties": { "ID": 3 }, "geometry": { "type": "MultiPolygon", "coordinates": [ [ [ [ -59.8333333, 55.5 ], [ -59.9583333, 55.4583333 ], [ -59.7916667, 55.4166667 ], [ -59.8333333, 55.5 ] ] ] ] } }
]
}
