{
"type": "FeatureCollection",
"name": "Asclepias_viridiflora",
"crs": { "type": "name", "properties": { "name": "urn:ogc:def:crs:OGC:1.3:CRS84" } },
"features": [
{ "type": "Feature", "properties": { "ID": 6 }, "geometry": { "type": "MultiPolygon", "coordinates": [ [ [ [ -109.9583333, 47.7916667 ], [ -110.0416667, 47.9583333 ], [ -109.9583333, 48.3333333 ], [ -110.3333333, 48.2916667 ], [ -110.4166667, 48.0416667 ], [ -110.6666667, 48.0416667 ], [ -110.75, 47.7916667 ], [ -110.0833333, 47.9166667 ], [ -109.9583333, 47.7916667 ] ] ], [ [ [ -108.2916667, 47.125 ], [ -108.25, 47.0416667 ], [ -108.25, 47.125 ], [ -108.2916667, 47.125 ] ] ], [ [ [ -107.6666667, 47.0833333 ], [ -107.6666667, 47.0416667 ], [ -107.625, 47.0416667 ], [ -107.625, 47.0833333 ], [ -107.6666667, 47.0833333 ] ] ], [ [ [ -107.8333333, 47.125 ], [ -107.7916667, 47.0833333 ], [ -107.7916667, 47.0 ], [ -107.7083333, 47.0 ], [ -107.7083333, 47.125 ], [ -107.8333333, 47.125 ] ] ], [ [ [ -104.1666667, 48.9583333 ], [ -104.25, 49.125 ], [ -104.6666667, 49.25 ], [ -105.0, 49.5833333 ], [ -105.25, 49.5833333 ], [ -105.9583333, 49.25 ], [ -106.2083333, 48.9166667 ], [ -106.2083333, 48.625 ], [ -106.8333333, 48.5416667 ], [ -106.5833333, 48.9166667 ], [ -107.0416667, 48.875 ], [ -107.4166667, 48.6666667 ], [ -107.7916667, 48.875 ], [ -107.7916667, 48.6666667 ], [ -108.1666667, 48.5416667 ], [ -108.5, 48.625 ], [ -109.0416667, 48.5416667 ], [ -108.75, 48.2916667 ], [ -108.75, 48.125 ], [ -108.375, 48.0833333 ], [ -108.3333333, 47.8333333 ], [ -108.75, 47.7916667 ], [ -109.0833333, 47.5833333 ], [ -108.7916667, 47.375 ], [ -108.7916667, 47.1666667 ], [ -108.5, 47.0 ], [ -108.4166667, 47.0833333 ], [ -108.2916667, 47.125 ], [ -108.375, 47.2083333 ], [ -108.1666667, 47.2083333 ], [ -108.1666667, 47.1666667 ], [ -108.25, 47.0416667 ], [ -108.2083333, 46.9166667 ], [ -108.0, 46.9166667 ], [ -107.7916667, 47.0 ], [ -107.8333333, 47.0416667 ], [ -107.875, 47.0416667 ], [ -107.875, 47.125 ], [ -107.8333333, 47.125 ], [ -107.875, 47.1666667 ], [ -107.875, 47.3333333 ], [ -107.5416667, 47.4166667 ], [ -107.7083333, 47.5 ], [ -107.6666667, 47.625 ], [ -107.5, 47.8333333 ], [ -107.4166667, 47.75 ], [ -107.2083333, 47.625 ], [ -107.25, 47.4583333 ], [ -107.375, 47.4166667 ], [ -107.2916667, 47.4166667 ], [ -107.2916667, 47.25 ], [ -107.2916667, 47.2083333 ], [ -106.75, 47.2916667 ], [ -106.625, 47.4583333 ], [ -106.2916667, 47.4583333 ], [ -106.2916667, 47.6666667 ], [ -105.9583333, 47.75 ], [ -105.875, 47.9583333 ], [ -105.1666667, 48.375 ], [ -105.125, 48.4166667 ], [ -104.9583333, 48.5833333 ], [ -104.5, 48.875 ], [ -104.3333333, 48.9166667 ], [ -104.2916667, 48.9166667 ], [ -104.2916667, 48.9583333 ], [ -104.1666667, 48.9583333 ] ] ] ] } },
{ "type": "Feature", "properties": { "ID": 7 }, "geometry": { "type": "MultiPolygon", "coordinates": [ [ [ [ -100.4583333, 49.125 ], [ -100.5416667, 48.9166667 ], [ -100.1666667, 48.9166667 ], [ -100.4583333, 49.0833333 ], [ -100.4583333, 49.125 ] ] ], [ [ [ -104.3333333, 48.9166667 ], [ -104.5, 48.875 ], [ -104.4166667, 48.875 ], [ -104.25, 48.7916667 ], [ -104.25, 48.9166667 ], [ -104.3333333, 48.9166667 ] ] ], [ [ [ -108.1666667, 47.1666667 ], [ -108.1666667, 47.2083333 ], [ -108.375, 47.2083333 ], [ -108.2916667, 47.125 ], [ -108.25, 47.125 ], [ -108.25, 47.0416667 ], [ -108.1666667, 47.1666667 ] ] ], [ [ [ -107.875, 47.125 ], [ -107.875, 47.0416667 ], [ -107.7916667, 47.0416667 ], [ -107.7916667, 47.0833333 ], [ -107.8333333, 47.125 ], [ -107.875, 47.125 ] ] ], [ [ [ -107.5, 47.8333333 ], [ -107.6666667, 47.625 ], [ -107.7083333, 47.5 ], [ -107.5416667, 47.4166667 ], [ -107.875, 47.3333333 ], [ -107.875, 47.1666667 ], [ -107.8333333, 47.125 ], [ -107.7083333, 47.125 ], [ -107.7083333, 47.0833333 ], [ -107.625, 47.0833333 ], [ -107.625, 47.0416667 ], [ -107.5416667, 47.0416667 ], [ -107.2916667, 47.1666667 ], [ -107.2916667, 47.25 ], [ -107.2916667, 47.4166667 ], [ -107.375, 47.4166667 ], [ -107.25, 47.4583333 ], [ -107.2083333, 47.625 ], [ -107.4166667, 47.75 ], [ -107.5, 47.8333333 ] ] ], [ [ [ -111.3333333, 46.1666667 ], [ -111.625, 46.5833333 ], [ -111.6666667, 46.5833333 ], [ -111.5833333, 46.1666667 ], [ -111.3333333, 46.1666667 ] ] ], [ [ [ -106.9166667, 50.8333333 ], [ -107.6666667, 50.875 ], [ -107.875, 51.0416667 ], [ -108.9583333, 51.0833333 ], [ -110.375, 51.1666667 ], [ -110.5833333, 51.0833333 ], [ -111.2083333, 51.1666667 ], [ -112.0, 51.0833333 ], [ -111.9166667, 50.8333333 ], [ -112.4166667, 50.5833333 ], [ -112.1666667, 50.1666667 ], [ -112.6666667, 50.0416667 ], [ -112.3333333, 49.6666667 ], [ -112.4166667, 49.4166667 ], [ -112.75, 48.875 ], [ -112.8333333, 48.375 ], [ -112.5833333, 48.1666667 ], [ -112.5833333, 47.4166667 ], [ -111.9583333, 46.9583333 ], [ -111.875, 47.125 ], [ -110.5833333, 47.25 ], [ -109.7916667, 46.75 ], [ -110.0, 46.5416667 ], [ -109.6666667, 46.0416667 ], [ -110.0, 46.0 ], [ -110.125, 45.75 ], [ -109.75, 45.7083333 ], [ -109.375, 45.7916667 ], [ -109.2083333, 45.75 ], [ -109.25, 46.0 ], [ -108.6666667, 46.0833333 ], [ -108.1666667, 46.4166667 ], [ -108.2083333, 46.4166667 ], [ -108.4166667, 46.5416667 ], [ -108.0833333, 46.9166667 ], [ -108.2083333, 46.9166667 ], [ -108.25, 47.0416667 ], [ -108.2916667, 47.125 ], [ -108.4166667, 47.0833333 ], [ -108.5, 47.0 ], [ -108.7916667, 47.1666667 ], [ -108.7916667, 47.375 ], [ -109.0833333, 47.5833333 ], [ -108.75, 47.7916667 ], [ -108.3333333, 47.8333333 ], [ -108.375, 48.0833333 ], [ -108.75, 48.125 ], [ -108.75, 48.2916667 ], [ -109.0416667, 48.5416667 ], [ -108.5, 48.625 ], [ -108.1666667, 48.5416667 ], [ -107.7916667, 48.6666667 ], [ -107.7916667, 48.875 ], [ -107.4166667, 48.6666667 ], [ -107.0416667, 48.875 ], [ -106.5833333, 48.9166667 ], [ -106.8333333, 48.5416667 ], [ -106.2083333, 48.625 ], [ -106.2083333, 48.9166667 ], [ -105.9583333, 49.25 ], [ -105.25, 49.5833333 ], [ -105.0, 49.5833333 ], [ -104.6666667, 49.25 ], [ -104.25, 49.125 ], [ -104.1666667, 48.9583333 ], [ -104.125, 48.9583333 ], [ -103.875, 48.9166667 ], [ -103.9166667, 48.875 ], [ -103.9583333, 48.7083333 ], [ -103.75, 48.5833333 ], [ -103.6666667, 48.5833333 ], [ -103.4583333, 48.5833333 ], [ -103.2083333, 48.2916667 ], [ -102.9166667, 48.4166667 ], [ -102.6666667, 48.25 ], [ -102.0833333, 48.375 ], [ -101.7916667, 48.1666667 ], [ -101.5, 48.2083333 ], [ -102.0, 48.5833333 ], [ -101.5416667, 48.5833333 ], [ -101.5, 48.7916667 ], [ -100.9166667, 48.875 ], [ -100.625, 49.0833333 ], [ -101.1666667, 49.4166667 ], [ -101.0416667, 49.6666667 ], [ -101.4583333, 49.5416667 ], [ -101.8333333, 49.5416667 ], [ -102.7916667, 49.7916667 ], [ -103.1666667, 50.0 ], [ -103.5416667, 50.0 ], [ -104.125, 50.375 ], [ -104.7083333, 50.5416667 ], [ -105.0, 50.9166667 ], [ -105.8333333, 50.875 ], [ -106.5416667, 51.0416667 ], [ -106.9166667, 50.8333333 ] ], [ [ -103.9166667, 48.8333333 ], [ -103.9166667, 48.875 ], [ -103.875, 48.875 ], [ -103.9166667, 48.8333333 ] ], [ [ -110.4166667, 49.75 ], [ -109.75, 49.7083333 ], [ -109.7083333, 49.5416667 ], [ -110.4166667, 49.5416667 ], [ -110.4166667, 49.75 ] ], [ [ -109.9583333, 47.7916667 ], [ -110.0833333, 47.9166667 ], [ -110.75, 47.7916667 ], [ -110.6666667, 48.0416667 ], [ -110.4166667, 48.0416667 ], [ -110.3333333, 48.2916667 ], [ -109.9583333, 48.3333333 ], [ -110.0416667, 47.9583333 ], [ -109.9583333, 47.7916667 ] ], [ [ -109.2916667, 47.25 ], [ -108.9166667, 46.75 ], [ -109.2083333, 46.625 ], [ -109.7083333, 46.6666667 ], [ -109.7083333, 46.875 ], [ -109.2916667, 47.0 ], [ -109.2916667, 47.25 ] ] ], [ [ [ -109.75, 45.7083333 ], [ -109.625, 45.5833333 ], [ -109.625, 45.5416667 ], [ -109.5, 45.4583333 ], [ -109.75, 45.7083333 ] ] ], [ [ [ -109.2083333, 45.5416667 ], [ -109.375, 45.4583333 ], [ -109.2916667, 45.4166667 ], [ -109.2916667, 45.375 ], [ -109.125, 45.4583333 ], [ -109.1666667, 45.5416667 ], [ -109.2083333, 45.5416667 ] ] ] ] } },
{ "type": "Feature", "properties": { "ID": 9 }, "geometry": { "type": "MultiPolygon", "coordinates": [ [ [ [ -87.625, 38.6666667 ], [ -87.75, 38.6666667 ], [ -87.6666667, 38.5 ], [ -87.625, 38.6666667 ] ] ], [ [ [ -92.9166667, 35.8333333 ], [ -93.4166667, 36.0 ], [ -93.7916667, 35.9583333 ], [ -93.5833333, 35.7083333 ], [ -93.125, 35.7916667 ], [ -92.75, 35.6666667 ], [ -92.9166667, 35.8333333 ] ] ], [ [ [ -90.25, 33.7916667 ], [ -90.2916667, 33.75 ], [ -90.2916667, 33.7083333 ], [ -90.2083333, 33.625 ], [ -90.1666667, 33.6666667 ], [ -90.1666667, 33.75 ], [ -90.2083333, 33.7916667 ], [ -90.25, 33.7916667 ] ] ], [ [ [ -90.6666667, 33.375 ], [ -90.7916667, 33.4583333 ], [ -90.7916667, 33.4166667 ], [ -90.6666667, 33.375 ] ] ], [ [ [ -90.5416667, 33.6666667 ], [ -90.8333333, 33.5416667 ], [ -90.6666667, 33.375 ], [ -90.5833333, 33.25 ], [ -90.5416667, 33.2916667 ], [ -90.5416667, 33.3333333 ], [ -90.5416667, 33.6666667 ] ] ], [ [ [ -91.4166667, 32.7916667 ], [ -91.4166667, 32.625 ], [ -91.375, 32.625 ], [ -91.4166667, 32.7916667 ] ] ], [ [ [ -91.375, 32.625 ], [ -91.375, 32.5833333 ], [ -91.3333333, 32.5833333 ], [ -91.3333333, 32.625 ], [ -91.375, 32.625 ] ] ], [ [ [ -91.3333333, 32.5833333 ], [ -91.2916667, 32.5416667 ], [ -91.2916667, 32.5833333 ], [ -91.3333333, 32.5833333 ] ] ], [ [ [ -91.8333333, 32.3333333 ], [ -91.875, 32.2916667 ], [ -91.8333333, 32.2916667 ], [ -91.8333333, 32.3333333 ] ] ], [ [ [ -91.8333333, 32.2916667 ], [ -91.6666667, 32.25 ], [ -91.6666667, 32.2916667 ], [ -91.8333333, 32.2916667 ] ] ], [ [ [ -92.5, 32.25 ], [ -92.5, 32.2083333 ], [ -92.4166667, 32.2083333 ], [ -92.5, 32.25 ] ] ], [ [ [ -92.5416667, 32.2083333 ], [ -92.5833333, 32.125 ], [ -92.5833333, 32.0833333 ], [ -92.5, 31.9583333 ], [ -92.5, 32.2083333 ], [ -92.5416667, 32.2083333 ] ] ], [ [ [ -93.5833333, 31.5833333 ], [ -93.5416667, 31.5416667 ], [ -93.5416667, 31.5833333 ], [ -93.5833333, 31.5833333 ] ] ], [ [ [ -93.4166667, 31.625 ], [ -93.4166667, 31.5 ], [ -93.2916667, 31.5416667 ], [ -93.4166667, 31.625 ] ] ], [ [ [ -93.5416667, 31.5416667 ], [ -93.5, 31.4583333 ], [ -93.4166667, 31.5 ], [ -93.5416667, 31.5416667 ] ] ], [ [ [ -92.6666667, 31.125 ], [ -92.7083333, 31.0833333 ], [ -92.6666667, 31.0833333 ], [ -92.6666667, 31.125 ] ] ], [ [ [ -93.9166667, 31.0833333 ], [ -94.0, 31.0 ], [ -93.9583333, 31.0 ], [ -93.9583333, 31.0416667 ], [ -93.9166667, 31.0833333 ] ] ], [ [ [ -93.1666667, 31.0416667 ], [ -93.1666667, 31.0 ], [ -93.125, 31.0416667 ], [ -93.1666667, 31.0416667 ] ] ], [ [ [ -90.1666667, 31.0833333 ], [ -90.0833333, 31.0833333 ], [ -90.0, 31.125 ], [ -89.5416667, 31.375 ], [ -89.2916667, 31.2916667 ], [ -89.0, 31.375 ], [ -88.8333333, 31.5416667 ], [ -88.5, 31.5416667 ], [ -88.4583333, 31.75 ], [ -88.0833333, 31.7083333 ], [ -87.8333333, 31.9583333 ], [ -87.3333333, 31.9166667 ], [ -86.9166667, 32.25 ], [ -86.5833333, 32.25 ], [ -86.375, 32.2083333 ], [ -86.1666667, 32.4583333 ], [ -86.2916667, 32.75 ], [ -86.375, 32.75 ], [ -86.2916667, 32.9166667 ], [ -86.0833333, 33.3333333 ], [ -85.8333333, 33.5416667 ], [ -85.4166667, 33.625 ], [ -85.0416667, 33.9583333 ], [ -84.9583333, 33.7916667 ], [ -85.375, 33.4583333 ], [ -84.9583333, 33.5416667 ], [ -85.1666667, 33.2916667 ], [ -84.75, 33.2916667 ], [ -84.25, 33.125 ], [ -84.0833333, 33.0833333 ], [ -84.0416667, 32.8333333 ], [ -83.75, 32.7083333 ], [ -83.5416667, 32.7916667 ], [ -83.0416667, 32.6666667 ], [ -82.75, 32.5 ], [ -82.5416667, 32.8333333 ], [ -82.2916667, 33.0833333 ], [ -81.625, 33.0833333 ], [ -80.9166667, 33.375 ], [ -80.0833333, 33.375 ], [ -78.9166667, 33.8333333 ], [ -78.4583333, 33.8333333 ], [ -78.125, 34.0416667 ], [ -77.875, 34.0416667 ], [ -77.7916667, 34.2083333 ], [ -77.4166667, 34.5 ], [ -77.0, 34.6666667 ], [ -76.5833333, 34.6666667 ], [ -76.375, 34.7916667 ], [ -75.8333333, 35.1666667 ], [ -76.1666667, 35.0416667 ], [ -76.5416667, 35.0833333 ], [ -76.4583333, 35.3333333 ], [ -76.0833333, 35.3333333 ], [ -75.9166667, 35.5416667 ], [ -75.7083333, 35.5833333 ], [ -75.7083333, 35.875 ], [ -75.5, 35.6666667 ], [ -75.5, 35.375 ], [ -75.4583333, 35.75 ], [ -75.75, 36.1666667 ], [ -75.9583333, 36.9583333 ], [ -76.25, 36.9583333 ], [ -76.3333333, 37.2916667 ], [ -76.25, 37.2916667 ], [ -76.2083333, 37.9166667 ], [ -76.5, 38.0833333 ], [ -76.375, 38.2083333 ], [ -76.5, 38.5 ], [ -76.5, 38.8333333 ], [ -76.375, 39.0 ], [ -76.3333333, 38.8333333 ], [ -76.3333333, 38.5416667 ], [ -76.3333333, 38.5 ], [ -76.125, 38.2083333 ], [ -76.0833333, 37.9166667 ], [ -75.7916667, 37.9166667 ], [ -76.0416667, 37.375 ], [ -75.7916667, 37.2916667 ], [ -75.625, 37.4166667 ], [ -75.5416667, 37.75 ], [ -75.3333333, 37.8333333 ], [ -75.0416667, 38.3333333 ], [ -75.0416667, 38.75 ], [ -75.375, 39.0416667 ], [ -75.4166667, 39.3333333 ], [ -75.1666667, 39.1666667 ], [ -74.9166667, 39.1666667 ], [ -74.8333333, 38.9166667 ], [ -74.5416667, 39.2916667 ], [ -74.375, 39.3333333 ], [ -74.125, 39.625 ], [ -73.9583333, 40.2083333 ], [ -74.0416667, 40.4583333 ], [ -73.8333333, 40.5833333 ], [ -73.25, 40.5833333 ], [ -72.25, 40.9166667 ], [ -72.5833333, 41.0 ], [ -73.1666667, 41.0 ], [ -73.6666667, 40.9166667 ], [ -73.0833333, 41.125 ], [ -72.9166667, 41.375 ], [ -73.375, 41.2916667 ], [ -73.375, 41.5416667 ], [ -73.7083333, 41.4166667 ], [ -73.7916667, 41.5833333 ], [ -74.25, 41.6666667 ], [ -74.5, 41.4583333 ], [ -74.875, 41.4583333 ], [ -75.0416667, 41.5833333 ], [ -75.2916667, 41.375 ], [ -75.5, 41.0833333 ], [ -75.75, 41.25 ], [ -75.5416667, 41.4166667 ], [ -75.6666667, 41.6666667 ], [ -75.875, 41.6666667 ], [ -76.4583333, 42.0 ], [ -77.1666667, 42.2083333 ], [ -77.5, 42.125 ], [ -77.6666667, 41.8333333 ], [ -77.9166667, 41.8333333 ], [ -78.3333333, 42.125 ], [ -78.6666667, 41.6666667 ], [ -79.0833333, 41.875 ], [ -79.125, 42.125 ], [ -79.2083333, 42.1666667 ], [ -79.2916667, 42.1666667 ], [ -79.4583333, 42.2083333 ], [ -79.7083333, 42.25 ], [ -80.4583333, 41.9583333 ], [ -80.625, 41.9583333 ], [ -81.375, 41.7083333 ], [ -81.7083333, 41.4583333 ], [ -82.0833333, 41.5 ], [ -82.375, 41.375 ], [ -83.0, 41.5416667 ], [ -83.4583333, 41.7916667 ], [ -83.2083333, 42.0416667 ], [ -83.1666667, 42.2916667 ], [ -82.9166667, 42.4166667 ], [ -82.7916667, 42.7083333 ], [ -82.4583333, 42.2916667 ], [ -83.0833333, 42.2916667 ], [ -83.0416667, 42.0416667 ], [ -82.5416667, 42.0416667 ], [ -82.125, 42.2916667 ], [ -81.9166667, 42.2916667 ], [ -81.4166667, 42.6666667 ], [ -80.5416667, 42.625 ], [ -80.2083333, 42.8333333 ], [ -80.25, 42.9583333 ], [ -80.875, 43.0833333 ], [ -81.5833333, 43.375 ], [ -82.0, 43.2083333 ], [ -82.1666667, 43.0416667 ], [ -82.4583333, 43.0 ], [ -82.625, 43.75 ], [ -82.875, 44.0416667 ], [ -83.3333333, 43.9166667 ], [ -83.625, 43.5833333 ], [ -83.9583333, 43.6666667 ], [ -83.9583333, 43.9166667 ], [ -83.5833333, 44.125 ], [ -83.4583333, 44.2916667 ], [ -83.875, 44.625 ], [ -84.0, 44.75 ], [ -84.4166667, 44.8333333 ], [ -84.9583333, 44.7916667 ], [ -85.0833333, 45.0 ], [ -85.375, 45.0 ], [ -85.5, 44.75 ], [ -85.7916667, 44.9166667 ], [ -86.0416667, 44.9166667 ], [ -86.2083333, 44.6666667 ], [ -86.25, 44.3333333 ], [ -86.375, 44.2083333 ], [ -86.5, 43.625 ], [ -86.25, 43.2916667 ], [ -86.2083333, 42.5833333 ], [ -86.3333333, 42.25 ], [ -86.5416667, 41.9583333 ], [ -86.8333333, 41.7083333 ], [ -87.4583333, 41.625 ], [ -87.8333333, 42.1666667 ], [ -87.8333333, 42.7083333 ], [ -87.9166667, 43.375 ], [ -87.7083333, 43.7083333 ], [ -87.7083333, 44.0833333 ], [ -87.5416667, 44.1666667 ], [ -87.5416667, 44.4583333 ], [ -87.375, 44.7916667 ], [ -88.0, 44.5416667 ], [ -88.0833333, 44.5416667 ], [ -87.875, 44.9583333 ], [ -87.3333333, 45.4583333 ], [ -87.2916667, 45.6666667 ], [ -88.0, 45.9583333 ], [ -89.0416667, 45.875 ], [ -89.25, 46.125 ], [ -89.7916667, 46.125 ], [ -89.9583333, 46.2083333 ], [ -90.375, 46.1666667 ], [ -90.5833333, 46.5416667 ], [ -90.75, 46.625 ], [ -90.7083333, 46.375 ], [ -91.0833333, 46.375 ], [ -90.9583333, 46.625 ], [ -90.9583333, 46.7083333 ], [ -91.3333333, 46.75 ], [ -91.5416667, 46.5 ], [ -91.4583333, 46.2916667 ], [ -91.6666667, 46.0833333 ], [ -91.5416667, 45.875 ], [ -91.5, 45.7083333 ], [ -91.2916667, 45.5416667 ], [ -90.9583333, 45.4583333 ], [ -91.0, 45.2083333 ], [ -91.0, 45.1666667 ], [ -90.8333333, 44.9166667 ], [ -91.0416667, 44.8333333 ], [ -91.0833333, 44.5 ], [ -90.6666667, 44.4583333 ], [ -90.5416667, 44.1666667 ], [ -90.3333333, 44.25 ], [ -89.7916667, 44.1666667 ], [ -89.9166667, 43.75 ], [ -90.4583333, 43.9166667 ], [ -91.0, 43.7083333 ], [ -91.0, 43.5833333 ], [ -90.7083333, 43.375 ], [ -90.0833333, 43.2083333 ], [ -90.5416667, 42.9583333 ], [ -90.5833333, 42.7916667 ], [ -90.2916667, 42.5416667 ], [ -90.2916667, 42.375 ], [ -89.9583333, 42.1666667 ], [ -89.9166667, 41.9166667 ], [ -89.5, 41.8333333 ], [ -89.5, 41.5833333 ], [ -89.0, 41.3333333 ], [ -89.0416667, 41.0833333 ], [ -88.9166667, 40.75 ], [ -89.1666667, 40.625 ], [ -89.1666667, 40.4583333 ], [ -88.375, 39.7916667 ], [ -88.5833333, 39.4166667 ], [ -87.9166667, 39.0 ], [ -87.75, 38.7916667 ], [ -87.5416667, 38.8333333 ], [ -87.5833333, 38.5833333 ], [ -87.6666667, 38.5 ], [ -87.7083333, 38.2916667 ], [ -87.9166667, 38.0833333 ], [ -87.8333333, 37.7083333 ], [ -87.9583333, 37.5 ], [ -88.25, 37.2916667 ], [ -88.0, 37.1666667 ], [ -88.125, 36.7916667 ], [ -88.4583333, 36.7916667 ], [ -88.75, 36.6666667 ], [ -88.8333333, 36.125 ], [ -88.875, 35.7916667 ], [ -89.1666667, 35.6666667 ], [ -89.375, 35.4583333 ], [ -89.5416667, 35.0 ], [ -89.8333333, 34.8333333 ], [ -89.8333333, 34.75 ], [ -89.9583333, 34.7083333 ], [ -89.9166667, 34.625 ], [ -89.9166667, 34.5416667 ], [ -90.0833333, 34.4583333 ], [ -90.0416667, 34.4583333 ], [ -89.9166667, 34.4583333 ], [ -89.8333333, 34.2916667 ], [ -90.0416667, 34.2083333 ], [ -90.1666667, 33.7916667 ], [ -90.1666667, 33.75 ], [ -90.0833333, 33.7083333 ], [ -90.1666667, 33.625 ], [ -90.2083333, 33.625 ], [ -90.125, 33.4166667 ], [ -90.1666667, 33.375 ], [ -90.1666667, 33.4166667 ], [ -90.2083333, 33.375 ], [ -90.4166667, 33.1666667 ], [ -90.4166667, 33.2083333 ], [ -90.3333333, 33.4583333 ], [ -90.2916667, 33.7083333 ], [ -90.4583333, 33.5833333 ], [ -90.5, 33.3333333 ], [ -90.5416667, 33.2916667 ], [ -90.5416667, 33.25 ], [ -90.5833333, 33.25 ], [ -90.5833333, 33.1666667 ], [ -90.7916667, 33.125 ], [ -90.7916667, 33.2083333 ], [ -90.9583333, 33.25 ], [ -91.0, 33.25 ], [ -91.1666667, 33.375 ], [ -91.1666667, 33.1666667 ], [ -91.1666667, 33.125 ], [ -91.2916667, 33.0 ], [ -91.2916667, 32.7916667 ], [ -91.2916667, 32.75 ], [ -91.25, 32.625 ], [ -91.2916667, 32.625 ], [ -91.2916667, 32.5833333 ], [ -91.25, 32.5833333 ], [ -91.2916667, 32.5416667 ], [ -91.4166667, 32.4583333 ], [ -91.375, 32.5833333 ], [ -91.4166667, 32.625 ], [ -91.5833333, 32.625 ], [ -91.625, 32.5416667 ], [ -91.6666667, 32.2916667 ], [ -91.5416667, 32.2916667 ], [ -91.5416667, 32.2083333 ], [ -91.6666667, 32.25 ], [ -91.875, 32.2916667 ], [ -91.9166667, 32.2916667 ], [ -92.2916667, 32.3333333 ], [ -92.4166667, 32.2083333 ], [ -92.2916667, 32.1666667 ], [ -92.25, 32.2083333 ], [ -92.25, 32.1666667 ], [ -92.4583333, 31.9583333 ], [ -92.7083333, 31.9166667 ], [ -92.75, 31.875 ], [ -92.75, 31.8333333 ], [ -92.7083333, 31.7083333 ], [ -92.875, 31.6666667 ], [ -92.8333333, 31.6666667 ], [ -92.75, 31.625 ], [ -92.5833333, 31.4166667 ], [ -92.6666667, 31.4166667 ], [ -92.75, 31.5 ], [ -92.7916667, 31.5 ], [ -93.25, 31.5416667 ], [ -93.2916667, 31.5416667 ], [ -93.375, 31.4583333 ], [ -93.375, 31.375 ], [ -93.4166667, 31.4166667 ], [ -93.4583333, 31.4166667 ], [ -93.5, 31.4583333 ], [ -93.625, 31.375 ], [ -93.75, 31.33333330000001 ], [ -93.9166667, 31.0833333 ], [ -93.6666667, 31.0 ], [ -93.4166667, 31.0 ], [ -93.375, 31.0833333 ], [ -93.3333333, 31.1666667 ], [ -93.2083333, 31.0 ], [ -93.1666667, 31.0416667 ], [ -93.2083333, 31.1666667 ], [ -92.9166667, 31.0416667 ], [ -92.875, 31.1666667 ], [ -92.875, 31.2083333 ], [ -92.6666667, 31.25 ], [ -92.6666667, 31.125 ], [ -92.625, 31.2083333 ], [ -92.4166667, 31.0833333 ], [ -92.25, 31.1666667 ], [ -92.0416667, 31.125 ], [ -91.9166667, 31.25 ], [ -91.375, 31.5416667 ], [ -91.0833333, 31.5833333 ], [ -90.9583333, 31.375 ], [ -90.5833333, 31.5 ], [ -90.5416667, 31.2916667 ], [ -90.25, 31.0833333 ], [ -90.25, 31.0 ], [ -90.1666667, 31.0833333 ] ], [ [ -91.0, 33.1666667 ], [ -90.8333333, 33.125 ], [ -90.7916667, 33.125 ], [ -90.7916667, 33.0416667 ], [ -90.8333333, 33.0416667 ], [ -90.875, 32.8333333 ], [ -90.875, 33.0416667 ], [ -90.9583333, 33.0416667 ], [ -90.9583333, 33.0833333 ], [ -91.0416667, 33.0833333 ], [ -91.0, 33.1666667 ] ], [ [ -90.5, 33.125 ], [ -90.4583333, 33.125 ], [ -90.4583333, 33.0833333 ], [ -90.5, 33.125 ] ], [ [ -90.75, 33.0416667 ], [ -90.5833333, 33.1666667 ], [ -90.5, 33.125 ], [ -90.75, 33.0416667 ] ], [ [ -89.625, 43.5833333 ], [ -89.5416667, 43.9166667 ], [ -89.2083333, 43.75 ], [ -89.2083333, 43.4583333 ], [ -89.5416667, 43.5833333 ], [ -89.625, 43.5833333 ] ], [ [ -90.2083333, 43.5833333 ], [ -89.875, 43.5416667 ], [ -90.1666667, 43.5416667 ], [ -90.2083333, 43.5833333 ] ], [ [ -80.5416667, 38.125 ], [ -80.4166667, 38.3333333 ], [ -80.1666667, 38.2916667 ], [ -80.5416667, 38.125 ] ], [ [ -81.9166667, 36.2916667 ], [ -81.5416667, 36.5 ], [ -81.375, 36.375 ], [ -81.875, 35.875 ], [ -82.0833333, 35.9166667 ], [ -82.1666667, 35.7083333 ], [ -82.25, 35.5416667 ], [ -82.3333333, 35.4166667 ], [ -82.4166667, 35.4166667 ], [ -82.4583333, 35.5416667 ], [ -82.6666667, 36.0 ], [ -82.6666667, 36.0416667 ], [ -82.375, 36.0833333 ], [ -81.9166667, 36.2916667 ] ], [ [ -83.0833333, 35.75 ], [ -82.7916667, 35.8333333 ], [ -82.75, 35.5 ], [ -82.375, 35.2916667 ], [ -82.7083333, 35.0 ], [ -83.0, 35.0 ], [ -83.125, 34.75 ], [ -83.5833333, 34.4166667 ], [ -84.0, 34.375 ], [ -84.5416667, 34.4166667 ], [ -84.5, 34.6666667 ], [ -84.7083333, 34.8333333 ], [ -84.4583333, 35.0416667 ], [ -84.0833333, 34.9583333 ], [ -83.9166667, 35.1666667 ], [ -84.25, 35.2916667 ], [ -83.9166667, 35.5833333 ], [ -83.625, 35.7083333 ], [ -83.0833333, 35.75 ] ], [ [ -90.0416667, 34.2083333 ], [ -89.9583333, 34.1666667 ], [ -89.875, 34.1666667 ], [ -90.0, 34.125 ], [ -90.0416667, 34.2083333 ] ], [ [ -92.0833333, 32.2083333 ], [ -91.9583333, 32.2083333 ], [ -92.0416667, 32.125 ], [ -92.0833333, 32.2083333 ] ] ], [ [ [ -90.8333333, 33.125 ], [ -90.9583333, 33.0833333 ], [ -90.875, 33.0416667 ], [ -90.8333333, 33.0416667 ], [ -90.8333333, 33.125 ] ] ], [ [ [ -82.375, 36.0833333 ], [ -82.375, 36.0 ], [ -82.3333333, 35.9583333 ], [ -82.0833333, 35.9166667 ], [ -82.375, 36.0833333 ] ] ], [ [ [ -92.2916667, 31.0 ], [ -92.25, 30.9583333 ], [ -92.25, 31.0 ], [ -92.2916667, 31.0 ] ] ], [ [ [ -92.8333333, 30.9583333 ], [ -92.875, 30.9166667 ], [ -92.8333333, 30.9166667 ], [ -92.8333333, 30.9583333 ] ] ], [ [ [ -92.8333333, 30.9166667 ], [ -92.8333333, 30.8333333 ], [ -92.75, 30.875 ], [ -92.8333333, 30.9166667 ] ] ] ] } },
{ "type": "Feature", "properties": { "ID": 10 }, "geometry": { "type": "MultiPolygon", "coordinates": [ [ [ [ -103.9166667, 48.875 ], [ -103.9166667, 48.8333333 ], [ -103.875, 48.875 ], [ -103.9166667, 48.875 ] ] ], [ [ [ -107.8333333, 47.0416667 ], [ -107.7916667, 47.0 ], [ -107.7916667, 47.0416667 ], [ -107.8333333, 47.0416667 ] ] ], [ [ [ -90.9583333, 46.625 ], [ -91.0833333, 46.375 ], [ -90.7083333, 46.375 ], [ -90.75, 46.625 ], [ -90.9583333, 46.625 ] ] ], [ [ [ -109.375, 45.4583333 ], [ -109.2916667, 45.375 ], [ -109.2916667, 45.4166667 ], [ -109.375, 45.4583333 ] ] ], [ [ [ -89.875, 43.5416667 ], [ -90.2083333, 43.5833333 ], [ -90.1666667, 43.5416667 ], [ -89.875, 43.5416667 ] ] ], [ [ [ -89.5416667, 43.5833333 ], [ -89.2083333, 43.4583333 ], [ -89.2083333, 43.75 ], [ -89.5416667, 43.9166667 ], [ -89.625, 43.5833333 ], [ -89.5416667, 43.5833333 ] ] ], [ [ [ -106.125, 42.2083333 ], [ -106.375, 42.0 ], [ -106.2916667, 41.7916667 ], [ -105.9166667, 41.7916667 ], [ -105.8333333, 41.9583333 ], [ -106.125, 42.2083333 ] ] ], [ [ [ -105.9166667, 37.9166667 ], [ -105.8333333, 37.5416667 ], [ -105.5833333, 37.375 ], [ -105.625, 37.875 ], [ -105.9166667, 37.9166667 ] ] ], [ [ [ -89.9583333, 34.1666667 ], [ -90.0416667, 34.2083333 ], [ -90.0, 34.125 ], [ -89.875, 34.1666667 ], [ -89.9583333, 34.1666667 ] ] ], [ [ [ -90.1666667, 33.75 ], [ -90.1666667, 33.6666667 ], [ -90.2083333, 33.625 ], [ -90.1666667, 33.625 ], [ -90.0833333, 33.7083333 ], [ -90.1666667, 33.75 ] ] ], [ [ [ -90.5416667, 33.2916667 ], [ -90.5833333, 33.25 ], [ -90.5416667, 33.25 ], [ -90.5416667, 33.2916667 ] ] ], [ [ [ -90.2916667, 33.7083333 ], [ -90.3333333, 33.4583333 ], [ -90.4166667, 33.2083333 ], [ -90.4166667, 33.1666667 ], [ -90.2083333, 33.375 ], [ -90.1666667, 33.4166667 ], [ -90.1666667, 33.375 ], [ -90.125, 33.4166667 ], [ -90.2083333, 33.625 ], [ -90.2916667, 33.7083333 ] ] ], [ [ [ -91.0, 33.1666667 ], [ -91.0416667, 33.0833333 ], [ -90.9583333, 33.0833333 ], [ -90.8333333, 33.125 ], [ -91.0, 33.1666667 ] ] ], [ [ [ -90.5, 33.125 ], [ -90.4583333, 33.0833333 ], [ -90.4583333, 33.125 ], [ -90.5, 33.125 ] ] ], [ [ [ -90.8333333, 33.125 ], [ -90.8333333, 33.0416667 ], [ -90.7916667, 33.0416667 ], [ -90.7916667, 33.125 ], [ -90.8333333, 33.125 ] ] ], [ [ [ -90.9583333, 33.0833333 ], [ -90.9583333, 33.0416667 ], [ -90.875, 33.0416667 ], [ -90.9583333, 33.0833333 ] ] ], [ [ [ -90.5833333, 33.1666667 ], [ -90.75, 33.0416667 ], [ -90.5, 33.125 ], [ -90.5833333, 33.1666667 ] ] ], [ [ [ -90.875, 33.0416667 ], [ -90.875, 32.8333333 ], [ -90.8333333, 33.0416667 ], [ -90.875, 33.0416667 ] ] ], [ [ [ -91.4166667, 32.625 ], [ -91.375, 32.5833333 ], [ -91.375, 32.625 ], [ -91.4166667, 32.625 ] ] ], [ [ [ -91.2916667, 32.5833333 ], [ -91.2916667, 32.5416667 ], [ -91.25, 32.5833333 ], [ -91.2916667, 32.5833333 ] ] ], [ [ [ -91.375, 32.5833333 ], [ -91.4166667, 32.4583333 ], [ -91.2916667, 32.5416667 ], [ -91.3333333, 32.5833333 ], [ -91.375, 32.5833333 ] ] ], [ [ [ -91.6666667, 32.2916667 ], [ -91.6666667, 32.25 ], [ -91.5416667, 32.2083333 ], [ -91.5416667, 32.2916667 ], [ -91.6666667, 32.2916667 ] ] ], [ [ [ -91.875, 32.2916667 ], [ -91.6666667, 32.25 ], [ -91.8333333, 32.2916667 ], [ -91.875, 32.2916667 ] ] ], [ [ [ -91.9583333, 32.2083333 ], [ -92.0833333, 32.2083333 ], [ -92.0416667, 32.125 ], [ -91.9583333, 32.2083333 ] ] ], [ [ [ -93.2916667, 31.5416667 ], [ -93.4166667, 31.5 ], [ -93.5, 31.4583333 ], [ -93.4583333, 31.4166667 ], [ -93.375, 31.4166667 ], [ -93.375, 31.4583333 ], [ -93.2916667, 31.5416667 ] ] ], [ [ [ -92.2916667, 47.0833333 ], [ -92.4583333, 47.5 ], [ -93.0416667, 47.5416667 ], [ -93.5416667, 47.7916667 ], [ -94.25, 47.8333333 ], [ -94.5416667, 48.0833333 ], [ -94.5416667, 48.3333333 ], [ -95.5416667, 48.375 ], [ -95.875, 48.5416667 ], [ -95.9166667, 48.7916667 ], [ -96.625, 48.8333333 ], [ -96.9583333, 49.0833333 ], [ -97.3333333, 49.1666667 ], [ -98.0, 49.0833333 ], [ -98.0833333, 48.9166667 ], [ -98.75, 49.0 ], [ -98.8333333, 49.1666667 ], [ -99.4583333, 49.25 ], [ -99.9583333, 49.25 ], [ -100.0, 49.5 ], [ -100.375, 49.5833333 ], [ -100.7083333, 49.8333333 ], [ -101.0416667, 49.6666667 ], [ -101.1666667, 49.4166667 ], [ -100.625, 49.0833333 ], [ -100.9166667, 48.875 ], [ -101.5, 48.7916667 ], [ -101.5416667, 48.5833333 ], [ -102.0, 48.5833333 ], [ -101.5, 48.2083333 ], [ -101.7916667, 48.1666667 ], [ -102.0833333, 48.375 ], [ -102.6666667, 48.25 ], [ -102.9166667, 48.4166667 ], [ -103.2083333, 48.2916667 ], [ -103.4583333, 48.5833333 ], [ -103.6666667, 48.5833333 ], [ -103.75, 48.5833333 ], [ -103.9583333, 48.7083333 ], [ -103.9166667, 48.875 ], [ -103.875, 48.9166667 ], [ -104.125, 48.9583333 ], [ -104.2916667, 48.9583333 ], [ -104.2916667, 48.9166667 ], [ -104.25, 48.9166667 ], [ -104.25, 48.7916667 ], [ -104.4166667, 48.875 ], [ -104.4583333, 48.875 ], [ -104.5, 48.875 ], [ -104.9583333, 48.5833333 ], [ -105.125, 48.4166667 ], [ -105.1666667, 48.375 ], [ -105.875, 47.9583333 ], [ -105.9583333, 47.75 ], [ -106.2916667, 47.6666667 ], [ -106.2916667, 47.4583333 ], [ -106.625, 47.4583333 ], [ -106.75, 47.2916667 ], [ -107.2916667, 47.2083333 ], [ -107.2916667, 47.1666667 ], [ -107.5416667, 47.0416667 ], [ -107.6666667, 47.0416667 ], [ -107.6666667, 47.0833333 ], [ -107.7083333, 47.0833333 ], [ -107.7083333, 47.0 ], [ -107.7916667, 47.0 ], [ -108.0, 46.9166667 ], [ -108.0833333, 46.9166667 ], [ -108.4166667, 46.5416667 ], [ -108.2083333, 46.4166667 ], [ -108.1666667, 46.4166667 ], [ -108.6666667, 46.0833333 ], [ -109.25, 46.0 ], [ -109.2083333, 45.75 ], [ -109.375, 45.7916667 ], [ -109.75, 45.7083333 ], [ -109.5, 45.4583333 ], [ -109.4583333, 45.4583333 ], [ -109.4166667, 45.4583333 ], [ -109.375, 45.4583333 ], [ -109.2083333, 45.5416667 ], [ -109.1666667, 45.5416667 ], [ -109.125, 45.4583333 ], [ -109.125, 45.1666667 ], [ -109.25, 44.9166667 ], [ -109.1666667, 44.75 ], [ -108.875, 44.75 ], [ -108.875, 44.4166667 ], [ -108.5416667, 44.0833333 ], [ -108.5416667, 43.7083333 ], [ -108.4166667, 43.5 ], [ -108.0416667, 43.5833333 ], [ -107.375, 43.5833333 ], [ -107.25, 43.6666667 ], [ -107.25, 44.0 ], [ -107.6666667, 44.5833333 ], [ -108.0416667, 44.7916667 ], [ -107.9166667, 45.2083333 ], [ -107.875, 45.2083333 ], [ -107.4166667, 44.9583333 ], [ -107.0416667, 44.625 ], [ -106.8333333, 44.5833333 ], [ -106.7916667, 43.875 ], [ -106.9583333, 43.75 ], [ -106.9166667, 43.4583333 ], [ -107.2083333, 43.25 ], [ -107.5416667, 43.4166667 ], [ -108.3333333, 43.4166667 ], [ -108.5416667, 43.3333333 ], [ -108.625, 42.9166667 ], [ -108.2916667, 42.625 ], [ -108.0416667, 42.7916667 ], [ -107.7083333, 42.7916667 ], [ -107.5416667, 42.9583333 ], [ -107.0833333, 42.75 ], [ -107.2083333, 42.625 ], [ -107.25, 42.625 ], [ -107.3333333, 42.5416667 ], [ -107.125, 42.25 ], [ -106.75, 42.2083333 ], [ -106.7083333, 42.4583333 ], [ -106.3333333, 42.5416667 ], [ -106.125, 42.7083333 ], [ -105.8333333, 42.75 ], [ -105.3333333, 42.375 ], [ -105.2916667, 42.1666667 ], [ -105.4166667, 41.75 ], [ -105.125, 41.5 ], [ -105.0833333, 41.0 ], [ -105.375, 40.875 ], [ -105.2916667, 40.5416667 ], [ -105.3333333, 40.0416667 ], [ -105.2916667, 39.7083333 ], [ -105.1666667, 39.5833333 ], [ -105.2916667, 39.1666667 ], [ -104.9166667, 39.1666667 ], [ -104.9166667, 39.0833333 ], [ -104.875, 38.875 ], [ -104.9166667, 38.875 ], [ -104.875, 38.625 ], [ -105.0416667, 38.5833333 ], [ -105.0416667, 38.5416667 ], [ -105.1666667, 38.5833333 ], [ -105.2083333, 38.5833333 ], [ -105.25, 38.375 ], [ -105.0, 38.1666667 ], [ -104.9583333, 38.0 ], [ -104.9583333, 37.8333333 ], [ -105.0, 37.7916667 ], [ -105.0416667, 37.7916667 ], [ -105.0833333, 37.8333333 ], [ -105.25, 37.8333333 ], [ -105.2916667, 37.7916667 ], [ -105.1666667, 37.75 ], [ -105.1666667, 37.7083333 ], [ -105.0833333, 37.625 ], [ -105.0833333, 37.5833333 ], [ -105.0833333, 37.5 ], [ -104.8333333, 37.4583333 ], [ -104.7916667, 37.4166667 ], [ -104.5833333, 37.125 ], [ -104.375, 37.125 ], [ -104.375, 37.0833333 ], [ -104.2916667, 37.0416667 ], [ -104.625, 36.6666667 ], [ -104.875, 36.5833333 ], [ -104.9583333, 36.5416667 ], [ -104.8333333, 36.3333333 ], [ -104.875, 36.2916667 ], [ -104.9166667, 36.25 ], [ -104.8333333, 36.0 ], [ -104.8333333, 35.9583333 ], [ -104.8333333, 35.9166667 ], [ -104.9583333, 35.875 ], [ -104.875, 35.5416667 ], [ -105.125, 35.2916667 ], [ -105.0833333, 34.875 ], [ -104.8333333, 34.5 ], [ -104.7916667, 34.0 ], [ -104.625, 33.6666667 ], [ -104.5833333, 33.375 ], [ -104.4166667, 33.375 ], [ -104.3333333, 33.0 ], [ -104.125, 32.8333333 ], [ -104.0833333, 32.5833333 ], [ -103.7083333, 32.0 ], [ -103.5833333, 31.7083333 ], [ -103.1666667, 31.25 ], [ -102.7916667, 31.0416667 ], [ -102.25, 30.8333333 ], [ -102.0, 30.4166667 ], [ -101.7916667, 30.2083333 ], [ -101.625, 29.7916667 ], [ -100.4166667, 29.0833333 ], [ -99.8333333, 28.625 ], [ -99.4166667, 28.2083333 ], [ -99.0833333, 28.0 ], [ -98.3333333, 27.9166667 ], [ -98.125, 28.25 ], [ -97.9583333, 28.2916667 ], [ -98.0, 28.5833333 ], [ -97.5833333, 28.9166667 ], [ -97.3333333, 28.9166667 ], [ -97.25, 29.2083333 ], [ -96.7916667, 29.5 ], [ -96.375, 29.375 ], [ -96.0416667, 29.5 ], [ -95.75, 29.75 ], [ -95.5416667, 30.0416667 ], [ -95.5, 30.0833333 ], [ -95.7916667, 30.25 ], [ -95.375, 30.25 ], [ -95.1666667, 30.5 ], [ -94.9166667, 30.375 ], [ -94.7916667, 30.375 ], [ -94.6666667, 30.8333333 ], [ -93.9583333, 30.875 ], [ -93.9583333, 31.0 ], [ -94.0, 31.0 ], [ -93.9166667, 31.0833333 ], [ -93.75, 31.33333330000001 ], [ -93.625, 31.375 ], [ -93.5, 31.4583333 ], [ -93.5416667, 31.5416667 ], [ -93.4166667, 31.5 ], [ -93.4166667, 31.625 ], [ -93.2916667, 31.5416667 ], [ -93.25, 31.5416667 ], [ -92.7916667, 31.5 ], [ -92.75, 31.5 ], [ -92.6666667, 31.4166667 ], [ -92.5833333, 31.4166667 ], [ -92.75, 31.625 ], [ -92.8333333, 31.6666667 ], [ -92.875, 31.6666667 ], [ -92.7083333, 31.7083333 ], [ -92.75, 31.8333333 ], [ -92.75, 31.875 ], [ -92.7083333, 31.9166667 ], [ -92.4583333, 31.9583333 ], [ -92.25, 32.1666667 ], [ -92.25, 32.2083333 ], [ -92.2916667, 32.1666667 ], [ -92.4166667, 32.2083333 ], [ -92.2916667, 32.3333333 ], [ -91.9166667, 32.2916667 ], [ -91.875, 32.2916667 ], [ -91.8333333, 32.3333333 ], [ -91.8333333, 32.2916667 ], [ -91.6666667, 32.2916667 ], [ -91.625, 32.5416667 ], [ -91.5833333, 32.625 ], [ -91.4166667, 32.625 ], [ -91.4166667, 32.7916667 ], [ -91.375, 32.625 ], [ -91.3333333, 32.625 ], [ -91.3333333, 32.5833333 ], [ -91.2916667, 32.5833333 ], [ -91.2916667, 32.625 ], [ -91.25, 32.625 ], [ -91.2916667, 32.75 ], [ -91.2916667, 32.7916667 ], [ -91.2916667, 33.0 ], [ -91.1666667, 33.125 ], [ -91.1666667, 33.1666667 ], [ -91.1666667, 33.375 ], [ -91.0, 33.25 ], [ -90.9583333, 33.25 ], [ -90.7916667, 33.2083333 ], [ -90.7916667, 33.125 ], [ -90.5833333, 33.1666667 ], [ -90.5833333, 33.25 ], [ -90.6666667, 33.375 ], [ -90.8333333, 33.5416667 ], [ -90.5416667, 33.6666667 ], [ -90.5416667, 33.3333333 ], [ -90.5416667, 33.2916667 ], [ -90.5, 33.3333333 ], [ -90.4583333, 33.5833333 ], [ -90.2916667, 33.7083333 ], [ -90.2916667, 33.75 ], [ -90.25, 33.7916667 ], [ -90.2083333, 33.7916667 ], [ -90.1666667, 33.75 ], [ -90.1666667, 33.7916667 ], [ -90.0416667, 34.2083333 ], [ -89.8333333, 34.2916667 ], [ -89.9166667, 34.4583333 ], [ -90.0416667, 34.4583333 ], [ -90.0833333, 34.4583333 ], [ -89.9166667, 34.5416667 ], [ -89.9166667, 34.625 ], [ -89.9583333, 34.7083333 ], [ -89.8333333, 34.75 ], [ -89.8333333, 34.8333333 ], [ -89.5416667, 35.0 ], [ -89.375, 35.4583333 ], [ -89.1666667, 35.6666667 ], [ -88.875, 35.7916667 ], [ -88.8333333, 36.125 ], [ -88.75, 36.6666667 ], [ -88.4583333, 36.7916667 ], [ -88.125, 36.7916667 ], [ -88.0, 37.1666667 ], [ -88.25, 37.2916667 ], [ -87.9583333, 37.5 ], [ -87.8333333, 37.7083333 ], [ -87.9166667, 38.0833333 ], [ -87.7083333, 38.2916667 ], [ -87.6666667, 38.5 ], [ -87.5833333, 38.5833333 ], [ -87.5416667, 38.8333333 ], [ -87.75, 38.7916667 ], [ -87.9166667, 39.0 ], [ -88.5833333, 39.4166667 ], [ -88.375, 39.7916667 ], [ -89.1666667, 40.4583333 ], [ -89.1666667, 40.625 ], [ -88.9166667, 40.75 ], [ -89.0416667, 41.0833333 ], [ -89.0, 41.3333333 ], [ -89.5, 41.5833333 ], [ -89.5, 41.8333333 ], [ -89.9166667, 41.9166667 ], [ -89.9583333, 42.1666667 ], [ -90.2916667, 42.375 ], [ -90.2916667, 42.5416667 ], [ -90.5833333, 42.7916667 ], [ -90.5416667, 42.9583333 ], [ -90.0833333, 43.2083333 ], [ -90.7083333, 43.375 ], [ -91.0, 43.5833333 ], [ -91.0, 43.7083333 ], [ -90.4583333, 43.9166667 ], [ -89.9166667, 43.75 ], [ -89.7916667, 44.1666667 ], [ -90.3333333, 44.25 ], [ -90.5416667, 44.1666667 ], [ -90.6666667, 44.4583333 ], [ -91.0833333, 44.5 ], [ -91.0416667, 44.8333333 ], [ -90.8333333, 44.9166667 ], [ -91.0, 45.1666667 ], [ -91.0, 45.2083333 ], [ -90.9583333, 45.4583333 ], [ -91.2916667, 45.5416667 ], [ -91.5, 45.7083333 ], [ -91.5416667, 45.875 ], [ -91.6666667, 46.0833333 ], [ -91.4583333, 46.2916667 ], [ -91.5416667, 46.5 ], [ -91.3333333, 46.75 ], [ -91.4166667, 46.75 ], [ -91.4166667, 46.7083333 ], [ -91.7083333, 46.7083333 ], [ -91.7083333, 46.6666667 ], [ -92.0416667, 46.6666667 ], [ -92.2916667, 46.875 ], [ -92.2916667, 47.0833333 ] ], [ [ -87.625, 38.6666667 ], [ -87.6666667, 38.5 ], [ -87.75, 38.6666667 ], [ -87.625, 38.6666667 ] ], [ [ -90.7916667, 33.4583333 ], [ -90.6666667, 33.375 ], [ -90.7916667, 33.4166667 ], [ -90.7916667, 33.4583333 ] ], [ [ -92.5416667, 32.2083333 ], [ -92.5, 32.2083333 ], [ -92.5, 31.9583333 ], [ -92.5833333, 32.0833333 ], [ -92.5833333, 32.125 ], [ -92.5416667, 32.2083333 ] ], [ [ -92.4166667, 32.2083333 ], [ -92.5, 32.2083333 ], [ -92.5, 32.25 ], [ -92.4166667, 32.2083333 ] ], [ [ -100.1666667, 48.9166667 ], [ -100.5416667, 48.9166667 ], [ -100.4583333, 49.125 ], [ -100.4583333, 49.0833333 ], [ -100.1666667, 48.9166667 ] ], [ [ -108.7083333, 45.375 ], [ -108.5416667, 45.3333333 ], [ -108.5416667, 45.375 ], [ -108.25, 45.2916667 ], [ -108.2916667, 45.25 ], [ -108.25, 45.0833333 ], [ -108.2916667, 45.0833333 ], [ -108.5, 45.0416667 ], [ -108.5, 45.0833333 ], [ -108.6666667, 45.25 ], [ -108.7083333, 45.375 ] ], [ [ -107.1666667, 45.3333333 ], [ -107.0833333, 45.375 ], [ -107.0833333, 45.1666667 ], [ -107.1666667, 45.1666667 ], [ -107.1666667, 45.2916667 ], [ -107.1666667, 45.3333333 ] ], [ [ -104.125, 44.4583333 ], [ -103.75, 44.4583333 ], [ -103.4166667, 44.25 ], [ -103.4166667, 43.7083333 ], [ -103.7083333, 43.625 ], [ -104.0833333, 43.8333333 ], [ -104.25, 44.125 ], [ -104.125, 44.4583333 ] ], [ [ -92.75, 35.6666667 ], [ -93.125, 35.7916667 ], [ -93.5833333, 35.7083333 ], [ -93.7916667, 35.9583333 ], [ -93.4166667, 36.0 ], [ -92.9166667, 35.8333333 ], [ -92.75, 35.6666667 ] ], [ [ -93.5416667, 31.5833333 ], [ -93.5416667, 31.5416667 ], [ -93.5833333, 31.5833333 ], [ -93.5416667, 31.5833333 ] ], [ [ -100.0, 29.5416667 ], [ -100.4583333, 29.5 ], [ -100.75, 29.9166667 ], [ -100.4166667, 30.1666667 ], [ -100.0416667, 30.125 ], [ -99.875, 30.25 ], [ -99.5416667, 30.125 ], [ -99.0, 30.4583333 ], [ -98.7916667, 30.375 ], [ -98.9583333, 30.1666667 ], [ -98.5, 30.1666667 ], [ -98.4583333, 30.0 ], [ -98.9583333, 30.0 ], [ -99.0833333, 29.9583333 ], [ -98.75, 29.875 ], [ -98.25, 29.8333333 ], [ -98.375, 29.5833333 ], [ -98.6666667, 29.5833333 ], [ -98.7083333, 29.375 ], [ -98.7916667, 29.5 ], [ -99.25, 29.5 ], [ -99.5, 29.5833333 ], [ -99.7916667, 29.4166667 ], [ -100.0, 29.5416667 ] ] ] ] } },
{ "type": "Feature", "properties": { "ID": 12 }, "geometry": { "type": "MultiPolygon", "coordinates": [ [ [ [ -104.5833333, 37.125 ], [ -104.7916667, 37.4166667 ], [ -104.875, 37.0833333 ], [ -104.5833333, 36.875 ], [ -104.875, 36.7916667 ], [ -104.875, 36.5833333 ], [ -104.625, 36.6666667 ], [ -104.2916667, 37.0416667 ], [ -104.5833333, 37.125 ] ] ], [ [ [ -93.4166667, 31.4166667 ], [ -93.375, 31.375 ], [ -93.375, 31.4166667 ], [ -93.4166667, 31.4166667 ] ] ], [ [ [ -98.5, 30.1666667 ], [ -98.9583333, 30.1666667 ], [ -98.7916667, 30.375 ], [ -99.0, 30.4583333 ], [ -99.5416667, 30.125 ], [ -99.875, 30.25 ], [ -100.0416667, 30.125 ], [ -100.4166667, 30.1666667 ], [ -100.75, 29.9166667 ], [ -100.4583333, 29.5 ], [ -100.0, 29.5416667 ], [ -99.7916667, 29.4166667 ], [ -99.5, 29.5833333 ], [ -99.25, 29.5 ], [ -98.7916667, 29.5 ], [ -98.7083333, 29.375 ], [ -98.6666667, 29.5833333 ], [ -98.375, 29.5833333 ], [ -98.25, 29.8333333 ], [ -98.75, 29.875 ], [ -99.0833333, 29.9583333 ], [ -98.9583333, 30.0 ], [ -98.4583333, 30.0 ], [ -98.5, 30.1666667 ] ] ], [ [ [ -90.25, 31.0833333 ], [ -90.5416667, 31.2916667 ], [ -90.5833333, 31.5 ], [ -90.9583333, 31.375 ], [ -91.0833333, 31.5833333 ], [ -91.375, 31.5416667 ], [ -91.9166667, 31.25 ], [ -92.0416667, 31.125 ], [ -92.25, 31.1666667 ], [ -92.4166667, 31.0833333 ], [ -92.625, 31.2083333 ], [ -92.6666667, 31.125 ], [ -92.6666667, 31.25 ], [ -92.875, 31.2083333 ], [ -92.875, 31.1666667 ], [ -92.9166667, 31.0416667 ], [ -93.2083333, 31.1666667 ], [ -93.1666667, 31.0416667 ], [ -93.2083333, 31.0 ], [ -93.3333333, 31.1666667 ], [ -93.375, 31.0833333 ], [ -93.4166667, 31.0 ], [ -93.6666667, 31.0 ], [ -93.9166667, 31.0833333 ], [ -93.9583333, 31.0416667 ], [ -93.9583333, 30.9583333 ], [ -93.9583333, 30.9166667 ], [ -93.9583333, 30.875 ], [ -94.6666667, 30.8333333 ], [ -94.7916667, 30.375 ], [ -94.9166667, 30.375 ], [ -95.1666667, 30.5 ], [ -95.375, 30.25 ], [ -95.7916667, 30.25 ], [ -95.5, 30.0833333 ], [ -95.5416667, 30.0416667 ], [ -95.75, 29.75 ], [ -96.0416667, 29.5 ], [ -96.375, 29.375 ], [ -96.7916667, 29.5 ], [ -97.25, 29.2083333 ], [ -97.3333333, 28.9166667 ], [ -97.5833333, 28.9166667 ], [ -98.0, 28.5833333 ], [ -97.9583333, 28.2916667 ], [ -98.125, 28.25 ], [ -98.3333333, 27.9166667 ], [ -97.7916667, 27.875 ], [ -97.4583333, 28.125 ], [ -97.25, 28.125 ], [ -97.125, 28.2916667 ], [ -96.4166667, 28.4166667 ], [ -96.4583333, 28.5833333 ], [ -96.0, 28.5416667 ], [ -95.5, 28.8333333 ], [ -95.375, 28.8333333 ], [ -95.0, 29.1666667 ], [ -94.6666667, 29.2916667 ], [ -94.6666667, 29.4166667 ], [ -94.0833333, 29.6666667 ], [ -93.6666667, 29.75 ], [ -93.0833333, 29.75 ], [ -92.8333333, 29.6666667 ], [ -92.5, 29.875 ], [ -92.2083333, 29.9166667 ], [ -91.75, 30.5 ], [ -91.5, 30.5 ], [ -91.1666667, 30.70833330000001 ], [ -90.9583333, 30.75 ], [ -90.4583333, 30.7083333 ], [ -90.4166667, 30.7916667 ], [ -90.25, 31.0 ], [ -90.25, 31.0833333 ] ], [ [ -93.1666667, 31.0 ], [ -93.1666667, 31.0416667 ], [ -93.125, 31.0416667 ], [ -93.1666667, 31.0 ] ], [ [ -92.7083333, 31.0833333 ], [ -92.6666667, 31.125 ], [ -92.6666667, 31.0833333 ], [ -92.7083333, 31.0833333 ] ], [ [ -92.2916667, 31.0 ], [ -92.25, 31.0 ], [ -92.25, 30.9583333 ], [ -92.2916667, 31.0 ] ], [ [ -92.875, 30.9166667 ], [ -92.8333333, 30.9583333 ], [ -92.8333333, 30.9166667 ], [ -92.875, 30.9166667 ] ], [ [ -92.8333333, 30.9166667 ], [ -92.75, 30.875 ], [ -92.8333333, 30.8333333 ], [ -92.8333333, 30.9166667 ] ] ] ] } }
]
}
