{
"type": "FeatureCollection",
"name": "Asclepias_exaltata",
"crs": { "type": "name", "properties": { "name": "urn:ogc:def:crs:OGC:1.3:CRS84" } },
"features": [
{ "type": "Feature", "properties": { "ID": 9 }, "geometry": { "type": "MultiPolygon", "coordinates": [ [ [ [ -82.29167, 35.79167 ], [ -82.25, 35.75 ], [ -82.25, 35.79167 ], [ -82.29167, 35.79167 ] ] ], [ [ [ -78.91667, 33.625 ], [ -78.875, 33.625 ], [ -78.875, 33.66667 ], [ -78.91667, 33.66667 ], [ -78.91667, 33.625 ] ] ] ] } },
{ "type": "Feature", "properties": { "ID": 11 }, "geometry": { "type": "MultiPolygon", "coordinates": [ [ [ [ -91.91667, 46.95833 ], [ -91.91667, 46.91667 ], [ -91.875, 46.91667 ], [ -91.875, 46.95833 ], [ -91.91667, 46.95833 ] ] ] ] } },
{ "type": "Feature", "properties": { "ID": 15 }, "geometry": { "type": "MultiPolygon", "coordinates": [ [ [ [ -92.125, 46.54167 ], [ -92.125, 46.5 ], [ -92.08333, 46.5 ], [ -92.08333, 46.54167 ], [ -92.125, 46.54167 ] ] ], [ [ [ -92.29167, 46.58333 ], [ -92.29167, 46.54167 ], [ -92.375, 46.54167 ], [ -92.375, 46.45833 ], [ -92.29167, 46.45833 ], [ -92.25, 46.5 ], [ -92.25, 46.58333 ], [ -92.29167, 46.58333 ] ] ], [ [ [ -91.125, 46.45833 ], [ -91.125, 46.54167 ], [ -91.16667, 46.54167 ], [ -91.16667, 46.45833 ], [ -91.125, 46.45833 ] ] ], [ [ [ -92.125, 46.5 ], [ -92.20833, 46.5 ], [ -92.20833, 46.41667 ], [ -92.125, 46.5 ] ] ], [ [ [ -92.08333, 46.5 ], [ -92.08333, 46.41667 ], [ -92.0, 46.41667 ], [ -92.08333, 46.5 ] ] ], [ [ [ -91.33333, 46.33333 ], [ -91.29167, 46.33333 ], [ -91.29167, 46.41667 ], [ -91.33333, 46.41667 ], [ -91.33333, 46.33333 ] ] ], [ [ [ -90.875, 46.375 ], [ -90.875, 46.33333 ], [ -90.79167, 46.33333 ], [ -90.79167, 46.375 ], [ -90.875, 46.375 ] ] ], [ [ [ -92.45833, 46.33333 ], [ -92.45833, 46.29167 ], [ -92.375, 46.29167 ], [ -92.375, 46.33333 ], [ -92.45833, 46.33333 ] ] ], [ [ [ -91.33333, 46.33333 ], [ -91.375, 46.33333 ], [ -91.375, 46.25 ], [ -91.33333, 46.25 ], [ -91.33333, 46.33333 ] ] ], [ [ [ -93.58333, 46.33333 ], [ -93.58333, 46.20833 ], [ -93.54167, 46.16667 ], [ -93.45833, 46.16667 ], [ -93.54167, 46.25 ], [ -93.54167, 46.33333 ], [ -93.58333, 46.33333 ] ] ], [ [ [ -93.54167, 46.16667 ], [ -93.625, 46.16667 ], [ -93.625, 46.125 ], [ -93.54167, 46.125 ], [ -93.54167, 46.16667 ] ] ] ] } },
{ "type": "Feature", "properties": { "ID": 16 }, "geometry": { "type": "MultiPolygon", "coordinates": [ [ [ [ -72.20833, 42.66667 ], [ -72.29167, 42.66667 ], [ -72.29167, 42.625 ], [ -72.20833, 42.625 ], [ -72.20833, 42.66667 ] ] ] ] } },
{ "type": "Feature", "properties": { "ID": 17 }, "geometry": { "type": "MultiPolygon", "coordinates": [ [ [ [ -73.95833, 44.16667 ], [ -73.95833, 44.125 ], [ -73.91667, 44.125 ], [ -73.91667, 44.16667 ], [ -73.95833, 44.16667 ] ] ] ] } },
{ "type": "Feature", "properties": { "ID": 18 }, "geometry": { "type": "MultiPolygon", "coordinates": [ [ [ [ -71.41667, 43.625 ], [ -71.41667, 43.58333 ], [ -71.29167, 43.58333 ], [ -71.29167, 43.625 ], [ -71.41667, 43.625 ] ] ], [ [ [ -72.83333, 43.41667 ], [ -72.83333, 43.375 ], [ -72.75, 43.375 ], [ -72.75, 43.41667 ], [ -72.83333, 43.41667 ] ] ], [ [ [ -72.95833, 43.29167 ], [ -73.0, 43.25 ], [ -72.95833, 43.25 ], [ -72.95833, 43.29167 ] ] ], [ [ [ -72.91667, 43.375 ], [ -72.91667, 43.20833 ], [ -72.95833, 43.16667 ], [ -72.75, 43.16667 ], [ -72.75, 43.20833 ], [ -72.875, 43.20833 ], [ -72.875, 43.29167 ], [ -72.83333, 43.33333 ], [ -72.875, 43.375 ], [ -72.91667, 43.375 ] ] ], [ [ [ -72.375, 42.875 ], [ -72.33333, 42.875 ], [ -72.33333, 42.95833 ], [ -72.375, 42.95833 ], [ -72.375, 42.875 ] ] ], [ [ [ -72.16667, 42.91667 ], [ -72.16667, 42.875 ], [ -72.08333, 42.875 ], [ -72.08333, 42.91667 ], [ -72.16667, 42.91667 ] ] ], [ [ [ -73.125, 42.79167 ], [ -73.125, 42.75 ], [ -73.08333, 42.79167 ], [ -73.125, 42.79167 ] ] ], [ [ [ -72.58333, 42.75 ], [ -72.58333, 42.70833 ], [ -72.54167, 42.70833 ], [ -72.54167, 42.75 ], [ -72.58333, 42.75 ] ] ], [ [ [ -74.95833, 42.66667 ], [ -75.0, 42.625 ], [ -74.95833, 42.625 ], [ -74.95833, 42.66667 ] ] ], [ [ [ -72.70833, 42.66667 ], [ -72.70833, 42.58333 ], [ -72.66667, 42.58333 ], [ -72.66667, 42.66667 ], [ -72.70833, 42.66667 ] ] ], [ [ [ -74.95833, 42.625 ], [ -74.95833, 42.58333 ], [ -74.91667, 42.58333 ], [ -74.91667, 42.625 ], [ -74.95833, 42.625 ] ] ], [ [ [ -74.875, 42.58333 ], [ -74.83333, 42.54167 ], [ -74.83333, 42.58333 ], [ -74.875, 42.58333 ] ] ], [ [ [ -75.29167, 42.5 ], [ -75.29167, 42.45833 ], [ -75.25, 42.5 ], [ -75.29167, 42.5 ] ] ], [ [ [ -75.33333, 42.45833 ], [ -75.33333, 42.41667 ], [ -75.29167, 42.41667 ], [ -75.29167, 42.45833 ], [ -75.33333, 42.45833 ] ] ], [ [ [ -72.375, 42.875 ], [ -72.5, 42.875 ], [ -72.5, 42.83333 ], [ -72.41667, 42.83333 ], [ -72.41667, 42.79167 ], [ -72.33333, 42.79167 ], [ -72.33333, 42.70833 ], [ -72.375, 42.70833 ], [ -72.375, 42.66667 ], [ -72.45833, 42.66667 ], [ -72.45833, 42.625 ], [ -72.45833, 42.58333 ], [ -72.5, 42.54167 ], [ -72.5, 42.5 ], [ -72.45833, 42.5 ], [ -72.45833, 42.41667 ], [ -72.41667, 42.41667 ], [ -72.375, 42.41667 ], [ -72.33333, 42.41667 ], [ -72.33333, 42.5 ], [ -72.29167, 42.5 ], [ -72.29167, 42.54167 ], [ -72.33333, 42.54167 ], [ -72.33333, 42.625 ], [ -72.29167, 42.625 ], [ -72.29167, 42.66667 ], [ -72.20833, 42.66667 ], [ -72.20833, 42.58333 ], [ -72.25, 42.58333 ], [ -72.25, 42.45833 ], [ -72.20833, 42.45833 ], [ -72.20833, 42.375 ], [ -72.08333, 42.375 ], [ -72.08333, 42.41667 ], [ -71.95833, 42.41667 ], [ -71.95833, 42.5 ], [ -71.91667, 42.54167 ], [ -71.91667, 42.58333 ], [ -72.0, 42.58333 ], [ -72.0, 42.66667 ], [ -72.04167, 42.66667 ], [ -72.04167, 42.75 ], [ -72.08333, 42.79167 ], [ -72.16667, 42.75 ], [ -72.25, 42.83333 ], [ -72.375, 42.83333 ], [ -72.375, 42.875 ] ] ], [ [ [ -73.08333, 42.375 ], [ -73.04167, 42.33333 ], [ -73.04167, 42.375 ], [ -73.08333, 42.375 ] ] ], [ [ [ -78.04167, 42.33333 ], [ -78.04167, 42.29167 ], [ -78.0, 42.33333 ], [ -78.04167, 42.33333 ] ] ], [ [ [ -77.75, 42.33333 ], [ -77.75, 42.29167 ], [ -77.70833, 42.29167 ], [ -77.75, 42.33333 ] ] ], [ [ [ -74.875, 42.33333 ], [ -74.83333, 42.29167 ], [ -74.83333, 42.33333 ], [ -74.875, 42.33333 ] ] ], [ [ [ -72.91667, 43.125 ], [ -72.91667, 43.04167 ], [ -73.0, 43.04167 ], [ -73.04167, 43.0 ], [ -73.04167, 42.70833 ], [ -73.0, 42.70833 ], [ -73.0, 42.625 ], [ -73.0, 42.41667 ], [ -73.0, 42.33333 ], [ -73.04167, 42.33333 ], [ -73.04167, 42.25 ], [ -73.0, 42.25 ], [ -73.0, 42.29167 ], [ -72.91667, 42.29167 ], [ -72.91667, 42.33333 ], [ -72.83333, 42.33333 ], [ -72.83333, 42.29167 ], [ -72.75, 42.33333 ], [ -72.75, 42.41667 ], [ -72.70833, 42.41667 ], [ -72.70833, 42.5 ], [ -72.75, 42.5 ], [ -72.75, 42.58333 ], [ -72.83333, 42.58333 ], [ -72.83333, 42.625 ], [ -72.75, 42.625 ], [ -72.75, 42.70833 ], [ -72.70833, 42.70833 ], [ -72.70833, 42.79167 ], [ -72.66667, 42.79167 ], [ -72.66667, 42.91667 ], [ -72.70833, 42.91667 ], [ -72.70833, 43.08333 ], [ -72.75, 43.04167 ], [ -72.83333, 43.04167 ], [ -72.83333, 43.125 ], [ -72.91667, 43.125 ] ], [ [ -72.83333, 42.875 ], [ -72.75, 42.875 ], [ -72.83333, 42.79167 ], [ -72.83333, 42.875 ] ] ], [ [ [ -78.125, 42.25 ], [ -78.125, 42.20833 ], [ -78.04167, 42.20833 ], [ -78.04167, 42.25 ], [ -78.125, 42.25 ] ] ], [ [ [ -75.08333, 42.66667 ], [ -75.125, 42.625 ], [ -75.125, 42.58333 ], [ -75.25, 42.58333 ], [ -75.25, 42.5 ], [ -75.20833, 42.5 ], [ -75.20833, 42.41667 ], [ -75.29167, 42.41667 ], [ -75.29167, 42.375 ], [ -75.29167, 42.33333 ], [ -75.29167, 42.29167 ], [ -75.25, 42.29167 ], [ -75.29167, 42.25 ], [ -75.29167, 42.16667 ], [ -75.20833, 42.16667 ], [ -75.16667, 42.125 ], [ -75.125, 42.16667 ], [ -75.0, 42.16667 ], [ -75.0, 42.20833 ], [ -74.91667, 42.20833 ], [ -74.91667, 42.33333 ], [ -74.875, 42.33333 ], [ -74.875, 42.375 ], [ -74.95833, 42.375 ], [ -74.95833, 42.58333 ], [ -75.0, 42.625 ], [ -75.04167, 42.66667 ], [ -75.08333, 42.66667 ] ], [ [ -75.08333, 42.5 ], [ -75.0, 42.54167 ], [ -75.0, 42.5 ], [ -75.08333, 42.5 ] ], [ [ -75.20833, 42.54167 ], [ -75.125, 42.54167 ], [ -75.125, 42.5 ], [ -75.20833, 42.5 ], [ -75.20833, 42.54167 ] ] ] ] } },
{ "type": "Feature", "properties": { "ID": 19 }, "geometry": { "type": "MultiPolygon", "coordinates": [ [ [ [ -79.83333, 43.33333 ], [ -79.83333, 43.29167 ], [ -79.79167, 43.33333 ], [ -79.83333, 43.33333 ] ] ], [ [ [ -81.83333, 42.79167 ], [ -81.83333, 42.75 ], [ -81.79167, 42.75 ], [ -81.79167, 42.79167 ], [ -81.83333, 42.79167 ] ] ], [ [ [ -81.625, 42.75 ], [ -81.625, 42.66667 ], [ -81.58333, 42.66667 ], [ -81.58333, 42.75 ], [ -81.625, 42.75 ] ] ], [ [ [ -81.79167, 42.70833 ], [ -81.79167, 42.66667 ], [ -81.75, 42.66667 ], [ -81.75, 42.70833 ], [ -81.79167, 42.70833 ] ] ], [ [ [ -81.70833, 42.70833 ], [ -81.70833, 42.66667 ], [ -81.66667, 42.66667 ], [ -81.66667, 42.70833 ], [ -81.70833, 42.70833 ] ] ], [ [ [ -81.54167, 42.75 ], [ -81.54167, 42.625 ], [ -81.45833, 42.625 ], [ -81.45833, 42.66667 ], [ -81.375, 42.66667 ], [ -81.375, 42.75 ], [ -81.41667, 42.75 ], [ -81.45833, 42.70833 ], [ -81.45833, 42.75 ], [ -81.54167, 42.75 ] ] ], [ [ [ -81.75, 42.66667 ], [ -81.75, 42.625 ], [ -81.70833, 42.625 ], [ -81.70833, 42.66667 ], [ -81.75, 42.66667 ] ] ], [ [ [ -81.66667, 42.66667 ], [ -81.66667, 42.58333 ], [ -81.625, 42.58333 ], [ -81.625, 42.66667 ], [ -81.66667, 42.66667 ] ] ], [ [ [ -82.54167, 42.625 ], [ -82.58333, 42.625 ], [ -82.58333, 42.54167 ], [ -82.54167, 42.54167 ], [ -82.54167, 42.625 ] ] ], [ [ [ -81.70833, 42.58333 ], [ -81.70833, 42.54167 ], [ -81.66667, 42.58333 ], [ -81.70833, 42.58333 ] ] ], [ [ [ -81.70833, 42.54167 ], [ -81.75, 42.5 ], [ -81.70833, 42.5 ], [ -81.70833, 42.54167 ] ] ], [ [ [ -76.08333, 42.54167 ], [ -76.08333, 42.5 ], [ -76.04167, 42.54167 ], [ -76.08333, 42.54167 ] ] ], [ [ [ -81.79167, 42.5 ], [ -81.79167, 42.45833 ], [ -81.75, 42.45833 ], [ -81.75, 42.5 ], [ -81.79167, 42.5 ] ] ], [ [ [ -76.125, 42.5 ], [ -76.125, 42.45833 ], [ -76.08333, 42.45833 ], [ -76.08333, 42.5 ], [ -76.125, 42.5 ] ] ], [ [ [ -81.875, 42.45833 ], [ -81.875, 42.41667 ], [ -81.79167, 42.41667 ], [ -81.79167, 42.45833 ], [ -81.875, 42.45833 ] ] ], [ [ [ -81.83333, 42.375 ], [ -81.91667, 42.375 ], [ -81.91667, 42.33333 ], [ -81.83333, 42.33333 ], [ -81.83333, 42.375 ] ] ], [ [ [ -76.20833, 42.5 ], [ -76.25, 42.5 ], [ -76.25, 42.41667 ], [ -76.33333, 42.41667 ], [ -76.375, 42.375 ], [ -76.375, 42.29167 ], [ -76.33333, 42.29167 ], [ -76.29167, 42.29167 ], [ -76.25, 42.29167 ], [ -76.25, 42.33333 ], [ -76.08333, 42.33333 ], [ -76.08333, 42.375 ], [ -76.125, 42.41667 ], [ -76.16667, 42.45833 ], [ -76.20833, 42.45833 ], [ -76.20833, 42.5 ] ] ], [ [ [ -81.91667, 42.33333 ], [ -82.0, 42.33333 ], [ -82.0, 42.29167 ], [ -81.91667, 42.29167 ], [ -81.91667, 42.33333 ] ] ], [ [ [ -79.16667, 42.25 ], [ -79.125, 42.25 ], [ -79.125, 42.375 ], [ -79.16667, 42.375 ], [ -79.16667, 42.25 ] ] ], [ [ [ -79.16667, 42.25 ], [ -79.25, 42.25 ], [ -79.25, 42.20833 ], [ -79.16667, 42.20833 ], [ -79.16667, 42.25 ] ] ], [ [ [ -75.95833, 42.16667 ], [ -75.95833, 42.25 ], [ -76.0, 42.25 ], [ -76.0, 42.16667 ], [ -75.95833, 42.16667 ] ] ], [ [ [ -79.16667, 42.20833 ], [ -79.16667, 42.16667 ], [ -79.08333, 42.16667 ], [ -79.08333, 42.20833 ], [ -79.16667, 42.20833 ] ] ], [ [ [ -76.08333, 42.0 ], [ -76.08333, 41.95833 ], [ -76.04167, 41.95833 ], [ -76.08333, 42.0 ] ] ], [ [ [ -79.25, 42.125 ], [ -79.25, 42.16667 ], [ -79.29167, 42.20833 ], [ -79.41667, 42.20833 ], [ -79.41667, 42.16667 ], [ -79.33333, 42.16667 ], [ -79.33333, 42.125 ], [ -79.5, 42.125 ], [ -79.5, 42.20833 ], [ -79.58333, 42.20833 ], [ -79.58333, 42.08333 ], [ -79.70833, 42.08333 ], [ -79.70833, 42.0 ], [ -79.75, 42.0 ], [ -79.75, 41.91667 ], [ -79.70833, 41.95833 ], [ -79.625, 41.95833 ], [ -79.625, 42.0 ], [ -79.66667, 42.04167 ], [ -79.54167, 42.04167 ], [ -79.58333, 42.0 ], [ -79.58333, 41.95833 ], [ -79.41667, 41.95833 ], [ -79.41667, 42.0 ], [ -79.33333, 42.0 ], [ -79.33333, 42.08333 ], [ -79.25, 42.125 ] ] ], [ [ [ -79.54167, 41.91667 ], [ -79.54167, 41.875 ], [ -79.45833, 41.875 ], [ -79.45833, 41.91667 ], [ -79.54167, 41.91667 ] ] ], [ [ [ -79.75, 41.91667 ], [ -79.83333, 41.83333 ], [ -79.75, 41.83333 ], [ -79.75, 41.91667 ] ] ], [ [ [ -70.70833, 41.54167 ], [ -70.70833, 41.5 ], [ -70.625, 41.5 ], [ -70.625, 41.54167 ], [ -70.70833, 41.54167 ] ] ], [ [ [ -76.20833, 41.54167 ], [ -76.20833, 41.45833 ], [ -76.16667, 41.45833 ], [ -76.16667, 41.54167 ], [ -76.20833, 41.54167 ] ] ], [ [ [ -76.08333, 41.5 ], [ -76.125, 41.45833 ], [ -76.08333, 41.45833 ], [ -76.08333, 41.5 ] ] ], [ [ [ -76.16667, 41.45833 ], [ -76.125, 41.41667 ], [ -76.125, 41.45833 ], [ -76.16667, 41.45833 ] ] ], [ [ [ -71.41667, 41.45833 ], [ -71.41667, 41.41667 ], [ -71.33333, 41.41667 ], [ -71.33333, 41.45833 ], [ -71.41667, 41.45833 ] ] ], [ [ [ -70.83333, 41.5 ], [ -70.83333, 41.45833 ], [ -70.95833, 41.45833 ], [ -70.91667, 41.41667 ], [ -70.75, 41.41667 ], [ -70.83333, 41.5 ] ] ], [ [ [ -76.33333, 41.375 ], [ -76.33333, 41.29167 ], [ -76.25, 41.29167 ], [ -76.25, 41.33333 ], [ -76.29167, 41.33333 ], [ -76.33333, 41.375 ] ] ], [ [ [ -70.875, 41.375 ], [ -70.79167, 41.29167 ], [ -70.79167, 41.375 ], [ -70.875, 41.375 ] ] ], [ [ [ -76.54167, 41.33333 ], [ -76.54167, 41.29167 ], [ -76.41667, 41.29167 ], [ -76.41667, 41.33333 ], [ -76.54167, 41.33333 ] ] ], [ [ [ -71.625, 41.20833 ], [ -71.625, 41.16667 ], [ -71.54167, 41.16667 ], [ -71.54167, 41.20833 ], [ -71.625, 41.20833 ] ] ], [ [ [ -72.0, 41.08333 ], [ -72.0, 41.04167 ], [ -72.08333, 41.04167 ], [ -72.08333, 41.0 ], [ -71.91667, 41.0 ], [ -71.91667, 41.04167 ], [ -71.875, 41.08333 ], [ -72.0, 41.08333 ] ] ], [ [ [ -78.29167, 40.75 ], [ -78.20833, 40.75 ], [ -78.20833, 40.79167 ], [ -78.29167, 40.79167 ], [ -78.29167, 40.75 ] ] ], [ [ [ -78.29167, 40.75 ], [ -78.375, 40.75 ], [ -78.375, 40.70833 ], [ -78.29167, 40.70833 ], [ -78.29167, 40.75 ] ] ], [ [ [ -78.375, 40.66667 ], [ -78.41667, 40.625 ], [ -78.375, 40.625 ], [ -78.375, 40.66667 ] ] ], [ [ [ -78.41667, 40.625 ], [ -78.5, 40.625 ], [ -78.5, 40.54167 ], [ -78.54167, 40.5 ], [ -78.58333, 40.5 ], [ -78.58333, 40.375 ], [ -78.625, 40.375 ], [ -78.625, 40.29167 ], [ -78.54167, 40.29167 ], [ -78.54167, 40.45833 ], [ -78.45833, 40.5 ], [ -78.45833, 40.58333 ], [ -78.41667, 40.58333 ], [ -78.41667, 40.625 ] ] ], [ [ [ -78.625, 40.29167 ], [ -78.75, 40.29167 ], [ -78.70833, 40.25 ], [ -78.70833, 40.20833 ], [ -78.625, 40.29167 ] ] ], [ [ [ -79.125, 40.25 ], [ -79.125, 40.20833 ], [ -79.08333, 40.20833 ], [ -79.08333, 40.25 ], [ -79.125, 40.25 ] ] ], [ [ [ -79.16667, 40.20833 ], [ -79.16667, 40.16667 ], [ -79.125, 40.20833 ], [ -79.16667, 40.20833 ] ] ], [ [ [ -79.16667, 40.16667 ], [ -79.29167, 40.04167 ], [ -79.20833, 40.04167 ], [ -79.16667, 40.08333 ], [ -79.16667, 40.16667 ] ] ], [ [ [ -78.70833, 40.20833 ], [ -78.79167, 40.16667 ], [ -78.79167, 40.08333 ], [ -78.83333, 40.08333 ], [ -78.83333, 40.0 ], [ -78.75, 40.04167 ], [ -78.75, 40.125 ], [ -78.70833, 40.125 ], [ -78.70833, 40.20833 ] ] ], [ [ [ -78.83333, 40.0 ], [ -78.875, 40.0 ], [ -78.875, 39.91667 ], [ -78.83333, 39.91667 ], [ -78.83333, 40.0 ] ] ], [ [ [ -78.95833, 39.79167 ], [ -78.95833, 39.70833 ], [ -78.91667, 39.70833 ], [ -78.91667, 39.79167 ], [ -78.95833, 39.79167 ] ] ], [ [ [ -78.41667, 38.54167 ], [ -78.45833, 38.54167 ], [ -78.45833, 38.45833 ], [ -78.41667, 38.45833 ], [ -78.41667, 38.54167 ] ] ] ] } },
{ "type": "Feature", "properties": { "ID": 20 }, "geometry": { "type": "MultiPolygon", "coordinates": [ [ [ [ -80.83333, 44.125 ], [ -80.83333, 44.08333 ], [ -80.75, 44.08333 ], [ -80.75, 44.125 ], [ -80.83333, 44.125 ] ] ], [ [ [ -79.41667, 44.29167 ], [ -79.25, 44.29167 ], [ -79.25, 44.33333 ], [ -79.16667, 44.33333 ], [ -79.16667, 44.5 ], [ -79.20833, 44.5 ], [ -79.20833, 44.58333 ], [ -79.41667, 44.58333 ], [ -79.45833, 44.54167 ], [ -79.45833, 44.45833 ], [ -79.58333, 44.45833 ], [ -79.625, 44.41667 ], [ -79.625, 44.375 ], [ -79.54167, 44.375 ], [ -79.54167, 44.08333 ], [ -79.41667, 44.08333 ], [ -79.41667, 44.0 ], [ -79.45833, 43.95833 ], [ -79.375, 43.95833 ], [ -79.375, 44.125 ], [ -79.41667, 44.16667 ], [ -79.45833, 44.16667 ], [ -79.45833, 44.25 ], [ -79.41667, 44.25 ], [ -79.41667, 44.29167 ] ] ], [ [ [ -81.04167, 43.91667 ], [ -81.04167, 44.0 ], [ -81.08333, 44.0 ], [ -81.08333, 43.91667 ], [ -81.04167, 43.91667 ] ] ], [ [ [ -80.79167, 43.875 ], [ -80.70833, 43.95833 ], [ -80.79167, 43.95833 ], [ -80.79167, 44.04167 ], [ -80.91667, 44.04167 ], [ -80.91667, 44.0 ], [ -80.83333, 44.0 ], [ -80.83333, 43.91667 ], [ -80.79167, 43.875 ] ] ], [ [ [ -79.625, 44.04167 ], [ -79.625, 44.0 ], [ -79.70833, 44.0 ], [ -79.70833, 43.91667 ], [ -79.625, 43.83333 ], [ -79.54167, 43.83333 ], [ -79.54167, 43.91667 ], [ -79.45833, 43.91667 ], [ -79.45833, 43.95833 ], [ -79.5, 43.95833 ], [ -79.5, 44.04167 ], [ -79.625, 44.04167 ] ] ], [ [ [ -80.91667, 43.70833 ], [ -80.83333, 43.75 ], [ -80.83333, 43.83333 ], [ -80.91667, 43.875 ], [ -80.91667, 44.0 ], [ -80.95833, 44.0 ], [ -80.95833, 43.91667 ], [ -81.04167, 43.91667 ], [ -81.0, 43.83333 ], [ -80.91667, 43.83333 ], [ -80.91667, 43.79167 ], [ -81.0, 43.79167 ], [ -81.08333, 43.70833 ], [ -80.95833, 43.70833 ], [ -80.95833, 43.66667 ], [ -80.91667, 43.66667 ], [ -80.91667, 43.70833 ] ] ], [ [ [ -80.29167, 43.75 ], [ -80.33333, 43.70833 ], [ -80.41667, 43.70833 ], [ -80.41667, 43.66667 ], [ -80.29167, 43.66667 ], [ -80.29167, 43.75 ] ] ], [ [ [ -80.70833, 43.625 ], [ -80.75, 43.66667 ], [ -80.83333, 43.66667 ], [ -80.83333, 43.625 ], [ -80.70833, 43.625 ] ] ], [ [ [ -80.70833, 43.625 ], [ -80.70833, 43.58333 ], [ -80.625, 43.58333 ], [ -80.625, 43.625 ], [ -80.70833, 43.625 ] ] ], [ [ [ -80.29167, 43.625 ], [ -80.375, 43.625 ], [ -80.375, 43.54167 ], [ -80.29167, 43.58333 ], [ -80.29167, 43.625 ] ] ], [ [ [ -80.54167, 43.58333 ], [ -80.54167, 43.5 ], [ -80.5, 43.5 ], [ -80.5, 43.58333 ], [ -80.54167, 43.58333 ] ] ], [ [ [ -80.91667, 43.66667 ], [ -80.95833, 43.625 ], [ -80.95833, 43.58333 ], [ -80.875, 43.58333 ], [ -80.875, 43.45833 ], [ -80.91667, 43.45833 ], [ -80.91667, 43.29167 ], [ -80.875, 43.29167 ], [ -80.79167, 43.375 ], [ -80.79167, 43.45833 ], [ -80.70833, 43.41667 ], [ -80.66667, 43.45833 ], [ -80.66667, 43.54167 ], [ -80.75, 43.54167 ], [ -80.75, 43.58333 ], [ -80.83333, 43.58333 ], [ -80.83333, 43.625 ], [ -80.91667, 43.66667 ] ] ], [ [ [ -80.0, 44.25 ], [ -80.08333, 44.25 ], [ -80.08333, 44.16667 ], [ -80.125, 44.16667 ], [ -80.20833, 44.20833 ], [ -80.20833, 44.125 ], [ -80.25, 44.125 ], [ -80.25, 43.79167 ], [ -80.29167, 43.75 ], [ -80.20833, 43.66667 ], [ -80.29167, 43.66667 ], [ -80.29167, 43.625 ], [ -80.25, 43.58333 ], [ -80.16667, 43.58333 ], [ -80.16667, 43.5 ], [ -80.20833, 43.5 ], [ -80.20833, 43.45833 ], [ -80.29167, 43.45833 ], [ -80.29167, 43.41667 ], [ -80.16667, 43.41667 ], [ -80.16667, 43.375 ], [ -80.25, 43.375 ], [ -80.25, 43.29167 ], [ -79.83333, 43.29167 ], [ -79.83333, 43.375 ], [ -79.79167, 43.375 ], [ -79.79167, 43.45833 ], [ -79.875, 43.5 ], [ -79.875, 43.54167 ], [ -79.79167, 43.54167 ], [ -79.79167, 43.625 ], [ -79.83333, 43.625 ], [ -79.875, 43.625 ], [ -79.91667, 43.625 ], [ -79.91667, 43.70833 ], [ -79.875, 43.70833 ], [ -79.875, 43.95833 ], [ -79.91667, 43.95833 ], [ -80.0, 44.04167 ], [ -80.0, 44.25 ] ], [ [ -80.16667, 43.95833 ], [ -80.08333, 43.95833 ], [ -80.08333, 43.91667 ], [ -80.16667, 43.91667 ], [ -80.16667, 43.95833 ] ] ], [ [ [ -81.75, 43.29167 ], [ -81.66667, 43.29167 ], [ -81.625, 43.25 ], [ -81.625, 43.41667 ], [ -81.70833, 43.41667 ], [ -81.70833, 43.33333 ], [ -81.75, 43.29167 ] ] ], [ [ [ -80.41667, 43.33333 ], [ -80.41667, 43.25 ], [ -80.33333, 43.25 ], [ -80.33333, 43.33333 ], [ -80.41667, 43.33333 ] ] ], [ [ [ -81.75, 43.29167 ], [ -81.83333, 43.29167 ], [ -81.83333, 43.25 ], [ -81.75, 43.25 ], [ -81.75, 43.29167 ] ] ], [ [ [ -80.66667, 43.29167 ], [ -80.66667, 43.16667 ], [ -80.625, 43.125 ], [ -80.54167, 43.125 ], [ -80.625, 43.20833 ], [ -80.625, 43.29167 ], [ -80.66667, 43.29167 ] ] ], [ [ [ -81.91667, 43.20833 ], [ -82.0, 43.20833 ], [ -82.0, 43.16667 ], [ -81.95833, 43.125 ], [ -81.91667, 43.125 ], [ -81.91667, 43.20833 ] ] ], [ [ [ -81.66667, 43.20833 ], [ -81.58333, 43.125 ], [ -81.58333, 43.20833 ], [ -81.66667, 43.20833 ] ] ], [ [ [ -82.0, 43.16667 ], [ -82.04167, 43.125 ], [ -82.0, 43.125 ], [ -82.0, 43.16667 ] ] ], [ [ [ -82.04167, 43.125 ], [ -82.08333, 43.08333 ], [ -82.04167, 43.08333 ], [ -82.04167, 43.125 ] ] ], [ [ [ -82.08333, 43.08333 ], [ -82.16667, 43.08333 ], [ -82.16667, 43.04167 ], [ -82.08333, 43.04167 ], [ -82.08333, 43.08333 ] ] ], [ [ [ -81.5, 43.0 ], [ -81.5, 43.08333 ], [ -81.54167, 43.08333 ], [ -81.54167, 43.0 ], [ -81.5, 43.0 ] ] ], [ [ [ -81.95833, 42.95833 ], [ -81.95833, 42.91667 ], [ -81.91667, 42.91667 ], [ -81.91667, 42.95833 ], [ -81.95833, 42.95833 ] ] ], [ [ [ -81.54167, 42.95833 ], [ -81.5, 42.91667 ], [ -81.5, 42.95833 ], [ -81.54167, 42.95833 ] ] ], [ [ [ -81.91667, 42.91667 ], [ -81.91667, 42.875 ], [ -81.875, 42.91667 ], [ -81.91667, 42.91667 ] ] ], [ [ [ -82.0, 42.875 ], [ -81.95833, 42.83333 ], [ -81.95833, 42.875 ], [ -82.0, 42.875 ] ] ], [ [ [ -81.54167, 42.75 ], [ -81.5, 42.79167 ], [ -81.375, 42.79167 ], [ -81.375, 42.875 ], [ -81.29167, 42.95833 ], [ -81.33333, 43.0 ], [ -81.5, 43.0 ], [ -81.5, 42.95833 ], [ -81.45833, 42.91667 ], [ -81.5, 42.91667 ], [ -81.5, 42.875 ], [ -81.66667, 42.875 ], [ -81.66667, 42.79167 ], [ -81.625, 42.79167 ], [ -81.625, 42.75 ], [ -81.58333, 42.75 ], [ -81.58333, 42.66667 ], [ -81.54167, 42.66667 ], [ -81.54167, 42.75 ] ] ], [ [ [ -75.95833, 42.75 ], [ -75.95833, 42.79167 ], [ -76.04167, 42.79167 ], [ -76.04167, 42.75 ], [ -75.95833, 42.75 ] ] ], [ [ [ -81.75, 43.16667 ], [ -81.83333, 43.125 ], [ -81.875, 43.08333 ], [ -81.91667, 43.125 ], [ -81.91667, 43.08333 ], [ -82.0, 43.08333 ], [ -82.0, 43.0 ], [ -81.91667, 43.0 ], [ -81.91667, 42.95833 ], [ -81.875, 42.91667 ], [ -81.83333, 42.91667 ], [ -81.83333, 42.79167 ], [ -81.79167, 42.79167 ], [ -81.79167, 42.70833 ], [ -81.66667, 42.70833 ], [ -81.66667, 42.79167 ], [ -81.75, 42.79167 ], [ -81.66667, 42.875 ], [ -81.66667, 42.91667 ], [ -81.58333, 42.91667 ], [ -81.58333, 43.04167 ], [ -81.66667, 43.125 ], [ -81.75, 43.125 ], [ -81.75, 43.16667 ] ] ], [ [ [ -81.95833, 42.83333 ], [ -81.95833, 42.70833 ], [ -81.91667, 42.70833 ], [ -81.91667, 42.79167 ], [ -81.875, 42.79167 ], [ -81.875, 42.83333 ], [ -81.95833, 42.83333 ] ] ], [ [ [ -81.875, 42.79167 ], [ -81.875, 42.70833 ], [ -81.83333, 42.70833 ], [ -81.83333, 42.79167 ], [ -81.875, 42.79167 ] ] ], [ [ [ -81.45833, 42.75 ], [ -81.45833, 42.70833 ], [ -81.41667, 42.75 ], [ -81.45833, 42.75 ] ] ], [ [ [ -76.04167, 42.75 ], [ -76.125, 42.75 ], [ -76.125, 42.70833 ], [ -76.04167, 42.70833 ], [ -76.04167, 42.75 ] ] ], [ [ [ -81.375, 42.79167 ], [ -81.375, 42.66667 ], [ -81.29167, 42.70833 ], [ -81.375, 42.79167 ] ] ], [ [ [ -75.95833, 42.75 ], [ -75.95833, 42.66667 ], [ -75.875, 42.66667 ], [ -75.875, 42.70833 ], [ -75.95833, 42.75 ] ] ], [ [ [ -76.08333, 42.66667 ], [ -76.08333, 42.625 ], [ -76.0, 42.58333 ], [ -76.0, 42.66667 ], [ -76.08333, 42.66667 ] ] ], [ [ [ -75.75, 42.66667 ], [ -75.75, 42.58333 ], [ -75.70833, 42.58333 ], [ -75.70833, 42.66667 ], [ -75.75, 42.66667 ] ] ], [ [ [ -76.20833, 42.5 ], [ -76.20833, 42.45833 ], [ -76.125, 42.45833 ], [ -76.125, 42.5 ], [ -76.20833, 42.5 ] ] ], [ [ [ -74.125, 42.29167 ], [ -74.125, 42.20833 ], [ -74.04167, 42.20833 ], [ -74.125, 42.29167 ] ] ], [ [ [ -74.20833, 42.16667 ], [ -74.20833, 42.20833 ], [ -74.29167, 42.20833 ], [ -74.29167, 42.16667 ], [ -74.20833, 42.16667 ] ] ], [ [ [ -74.54167, 42.08333 ], [ -74.45833, 42.08333 ], [ -74.45833, 42.125 ], [ -74.54167, 42.125 ], [ -74.54167, 42.08333 ] ] ], [ [ [ -74.45833, 41.95833 ], [ -74.33333, 41.95833 ], [ -74.33333, 42.04167 ], [ -74.54167, 42.04167 ], [ -74.54167, 42.08333 ], [ -74.625, 42.08333 ], [ -74.54167, 42.0 ], [ -74.54167, 41.95833 ], [ -74.5, 41.95833 ], [ -74.5, 41.91667 ], [ -74.45833, 41.95833 ] ] ], [ [ [ -74.54167, 41.91667 ], [ -74.54167, 41.875 ], [ -74.5, 41.91667 ], [ -74.54167, 41.91667 ] ] ] ] } },
{ "type": "Feature", "properties": { "ID": 21 }, "geometry": { "type": "MultiPolygon", "coordinates": [ [ [ [ -91.625, 46.70833 ], [ -91.5, 46.70833 ], [ -91.5, 46.75 ], [ -91.625, 46.75 ], [ -91.625, 46.70833 ] ] ], [ [ [ -91.70833, 46.66667 ], [ -91.70833, 46.70833 ], [ -91.79167, 46.70833 ], [ -91.79167, 46.66667 ], [ -91.95833, 46.66667 ], [ -92.04167, 46.70833 ], [ -92.125, 46.70833 ], [ -92.20833, 46.75 ], [ -92.20833, 46.625 ], [ -92.16667, 46.58333 ], [ -92.125, 46.54167 ], [ -92.08333, 46.54167 ], [ -92.0, 46.54167 ], [ -92.0, 46.58333 ], [ -91.875, 46.58333 ], [ -91.79167, 46.58333 ], [ -91.70833, 46.66667 ] ] ], [ [ [ -93.58333, 46.33333 ], [ -93.79167, 46.33333 ], [ -93.79167, 46.25 ], [ -93.66667, 46.125 ], [ -93.625, 46.125 ], [ -93.625, 46.16667 ], [ -93.54167, 46.16667 ], [ -93.58333, 46.20833 ], [ -93.58333, 46.33333 ] ] ] ] } },
{ "type": "Feature", "properties": { "ID": 22 }, "geometry": { "type": "MultiPolygon", "coordinates": [ [ [ [ -72.91667, 43.125 ], [ -73.04167, 43.125 ], [ -73.0, 43.08333 ], [ -73.0, 43.04167 ], [ -72.91667, 43.04167 ], [ -72.91667, 43.125 ] ] ], [ [ [ -73.04167, 43.0 ], [ -73.08333, 43.0 ], [ -73.08333, 42.83333 ], [ -73.125, 42.83333 ], [ -73.125, 42.79167 ], [ -73.04167, 42.79167 ], [ -73.04167, 43.0 ] ] ], [ [ [ -74.58333, 42.375 ], [ -74.58333, 42.33333 ], [ -74.54167, 42.33333 ], [ -74.54167, 42.375 ], [ -74.58333, 42.375 ] ] ], [ [ [ -74.54167, 42.33333 ], [ -74.5, 42.29167 ], [ -74.5, 42.25 ], [ -74.45833, 42.25 ], [ -74.45833, 42.33333 ], [ -74.54167, 42.33333 ] ] ], [ [ [ -74.66667, 42.125 ], [ -74.70833, 42.08333 ], [ -74.70833, 42.0 ], [ -74.75, 41.95833 ], [ -74.54167, 41.95833 ], [ -74.54167, 42.0 ], [ -74.625, 42.08333 ], [ -74.58333, 42.08333 ], [ -74.58333, 42.125 ], [ -74.66667, 42.125 ] ] ], [ [ [ -74.54167, 41.95833 ], [ -74.54167, 41.91667 ], [ -74.5, 41.91667 ], [ -74.5, 41.95833 ], [ -74.54167, 41.95833 ] ] ] ] } },
{ "type": "Feature", "properties": { "ID": 23 }, "geometry": { "type": "MultiPolygon", "coordinates": [ [ [ [ -93.16667, 46.125 ], [ -93.16667, 46.04167 ], [ -93.125, 46.04167 ], [ -93.125, 46.125 ], [ -93.16667, 46.125 ] ] ], [ [ [ -92.91667, 46.125 ], [ -92.91667, 46.08333 ], [ -92.83333, 46.04167 ], [ -92.83333, 46.125 ], [ -92.91667, 46.125 ] ] ], [ [ [ -92.79167, 46.125 ], [ -92.79167, 46.04167 ], [ -92.75, 46.04167 ], [ -92.75, 46.125 ], [ -92.79167, 46.125 ] ] ], [ [ [ -92.95833, 46.125 ], [ -93.08333, 46.125 ], [ -93.08333, 46.08333 ], [ -93.0, 46.08333 ], [ -93.0, 46.04167 ], [ -92.91667, 46.0 ], [ -92.91667, 46.08333 ], [ -92.95833, 46.125 ] ] ], [ [ [ -93.125, 45.95833 ], [ -93.25, 45.95833 ], [ -93.29167, 45.91667 ], [ -93.125, 45.91667 ], [ -93.125, 45.95833 ] ] ], [ [ [ -93.29167, 45.91667 ], [ -93.41667, 45.91667 ], [ -93.41667, 46.0 ], [ -93.45833, 46.0 ], [ -93.45833, 45.875 ], [ -93.29167, 45.875 ], [ -93.29167, 45.91667 ] ] ], [ [ [ -93.70833, 45.91667 ], [ -93.75, 45.83333 ], [ -93.66667, 45.83333 ], [ -93.66667, 45.91667 ], [ -93.70833, 45.91667 ] ] ], [ [ [ -93.58333, 45.875 ], [ -93.54167, 45.875 ], [ -93.54167, 45.79167 ], [ -93.5, 45.79167 ], [ -93.5, 46.0 ], [ -93.54167, 46.0 ], [ -93.54167, 45.91667 ], [ -93.58333, 45.875 ] ] ], [ [ [ -93.91667, 45.83333 ], [ -93.91667, 45.875 ], [ -94.0, 45.875 ], [ -94.0, 45.75 ], [ -93.95833, 45.75 ], [ -93.95833, 45.83333 ], [ -93.91667, 45.83333 ] ] ], [ [ [ -93.91667, 45.83333 ], [ -93.91667, 45.75 ], [ -93.83333, 45.75 ], [ -93.83333, 45.83333 ], [ -93.91667, 45.83333 ] ] ], [ [ [ -93.45833, 45.70833 ], [ -93.45833, 45.66667 ], [ -93.375, 45.66667 ], [ -93.375, 45.70833 ], [ -93.45833, 45.70833 ] ] ], [ [ [ -90.45833, 44.54167 ], [ -90.45833, 44.58333 ], [ -90.58333, 44.58333 ], [ -90.58333, 44.5 ], [ -90.54167, 44.54167 ], [ -90.45833, 44.54167 ] ] ] ] } },
{ "type": "Feature", "properties": { "ID": 24 }, "geometry": { "type": "MultiPolygon", "coordinates": [ [ [ [ -91.04167, 46.45833 ], [ -91.0, 46.45833 ], [ -91.0, 46.54167 ], [ -91.04167, 46.54167 ], [ -91.04167, 46.45833 ] ] ], [ [ [ -90.58333, 45.20833 ], [ -90.58333, 45.29167 ], [ -90.625, 45.29167 ], [ -90.625, 45.20833 ], [ -90.58333, 45.20833 ] ] ], [ [ [ -91.20833, 45.16667 ], [ -91.20833, 45.08333 ], [ -91.16667, 45.08333 ], [ -91.16667, 45.16667 ], [ -91.20833, 45.16667 ] ] ], [ [ [ -88.54167, 45.08333 ], [ -88.54167, 45.04167 ], [ -88.45833, 45.04167 ], [ -88.45833, 45.08333 ], [ -88.54167, 45.08333 ] ] ], [ [ [ -89.20833, 45.08333 ], [ -89.20833, 45.04167 ], [ -89.125, 45.04167 ], [ -89.125, 45.0 ], [ -89.04167, 45.0 ], [ -89.08333, 45.08333 ], [ -89.20833, 45.08333 ] ] ], [ [ [ -91.5, 45.0 ], [ -91.5, 44.95833 ], [ -91.41667, 44.95833 ], [ -91.41667, 45.0 ], [ -91.5, 45.0 ] ] ], [ [ [ -90.33333, 44.95833 ], [ -90.29167, 45.04167 ], [ -90.41667, 45.04167 ], [ -90.45833, 44.95833 ], [ -90.33333, 44.95833 ] ] ], [ [ [ -88.79167, 45.04167 ], [ -88.79167, 44.91667 ], [ -88.75, 44.91667 ], [ -88.75, 45.04167 ], [ -88.79167, 45.04167 ] ] ], [ [ [ -88.79167, 45.04167 ], [ -88.83333, 45.08333 ], [ -88.91667, 45.08333 ], [ -89.0, 45.04167 ], [ -89.0, 44.91667 ], [ -88.91667, 44.875 ], [ -88.91667, 44.95833 ], [ -88.83333, 44.95833 ], [ -88.83333, 45.04167 ], [ -88.79167, 45.04167 ] ] ], [ [ [ -88.70833, 44.95833 ], [ -88.70833, 44.875 ], [ -88.58333, 44.875 ], [ -88.625, 44.95833 ], [ -88.70833, 44.95833 ] ] ], [ [ [ -91.20833, 44.83333 ], [ -91.125, 44.75 ], [ -91.125, 44.83333 ], [ -91.20833, 44.83333 ] ] ], [ [ [ -90.33333, 44.41667 ], [ -90.33333, 44.375 ], [ -90.25, 44.375 ], [ -90.25, 44.41667 ], [ -90.33333, 44.41667 ] ] ], [ [ [ -90.83333, 44.41667 ], [ -90.875, 44.41667 ], [ -90.875, 44.33333 ], [ -90.83333, 44.33333 ], [ -90.83333, 44.41667 ] ] ], [ [ [ -90.45833, 44.375 ], [ -90.45833, 44.29167 ], [ -90.375, 44.29167 ], [ -90.375, 44.375 ], [ -90.45833, 44.375 ] ] ], [ [ [ -90.625, 44.95833 ], [ -90.66667, 44.91667 ], [ -90.625, 44.875 ], [ -90.66667, 44.79167 ], [ -90.79167, 44.79167 ], [ -90.79167, 44.875 ], [ -90.91667, 44.875 ], [ -90.875, 44.79167 ], [ -91.0, 44.79167 ], [ -91.0, 44.83333 ], [ -91.08333, 44.83333 ], [ -91.08333, 44.70833 ], [ -91.125, 44.70833 ], [ -91.125, 44.58333 ], [ -91.04167, 44.5 ], [ -90.83333, 44.5 ], [ -90.83333, 44.41667 ], [ -90.75, 44.41667 ], [ -90.79167, 44.375 ], [ -90.79167, 44.33333 ], [ -90.75, 44.29167 ], [ -90.70833, 44.29167 ], [ -90.70833, 44.25 ], [ -90.5, 44.25 ], [ -90.5, 44.29167 ], [ -90.58333, 44.29167 ], [ -90.58333, 44.33333 ], [ -90.5, 44.41667 ], [ -90.45833, 44.375 ], [ -90.45833, 44.5 ], [ -90.58333, 44.5 ], [ -90.54167, 44.58333 ], [ -90.45833, 44.54167 ], [ -90.29167, 44.54167 ], [ -90.20833, 44.58333 ], [ -90.16667, 44.66667 ], [ -90.20833, 44.75 ], [ -90.29167, 44.75 ], [ -90.29167, 44.83333 ], [ -90.33333, 44.875 ], [ -90.41667, 44.875 ], [ -90.45833, 44.83333 ], [ -90.45833, 44.91667 ], [ -90.54167, 44.91667 ], [ -90.54167, 44.83333 ], [ -90.58333, 44.83333 ], [ -90.58333, 44.95833 ], [ -90.625, 44.95833 ] ], [ [ -91.0, 44.79167 ], [ -90.95833, 44.70833 ], [ -91.04167, 44.70833 ], [ -91.04167, 44.79167 ], [ -91.0, 44.79167 ] ], [ [ -90.91667, 44.75 ], [ -90.875, 44.75 ], [ -90.875, 44.66667 ], [ -90.91667, 44.66667 ], [ -90.91667, 44.75 ] ], [ [ -90.66667, 44.45833 ], [ -90.625, 44.45833 ], [ -90.625, 44.375 ], [ -90.70833, 44.375 ], [ -90.66667, 44.45833 ] ] ] ] } },
{ "type": "Feature", "properties": { "ID": 25 }, "geometry": { "type": "MultiPolygon", "coordinates": [ [ [ [ -85.41667, 44.875 ], [ -85.25, 44.875 ], [ -85.25, 44.91667 ], [ -85.41667, 44.91667 ], [ -85.41667, 44.875 ] ] ], [ [ [ -84.70833, 44.41667 ], [ -84.66667, 44.41667 ], [ -84.66667, 44.54167 ], [ -84.79167, 44.54167 ], [ -84.79167, 44.45833 ], [ -84.70833, 44.45833 ], [ -84.70833, 44.41667 ] ] ], [ [ [ -73.33333, 44.54167 ], [ -73.375, 44.5 ], [ -73.375, 44.41667 ], [ -73.33333, 44.41667 ], [ -73.33333, 44.33333 ], [ -73.29167, 44.33333 ], [ -73.29167, 44.41667 ], [ -73.25, 44.41667 ], [ -73.25, 44.5 ], [ -73.33333, 44.54167 ] ] ], [ [ [ -84.75, 44.41667 ], [ -84.75, 44.33333 ], [ -84.70833, 44.33333 ], [ -84.70833, 44.41667 ], [ -84.75, 44.41667 ] ] ], [ [ [ -85.5, 44.20833 ], [ -85.41667, 44.20833 ], [ -85.41667, 44.25 ], [ -85.5, 44.25 ], [ -85.5, 44.20833 ] ] ], [ [ [ -79.41667, 44.25 ], [ -79.45833, 44.25 ], [ -79.45833, 44.16667 ], [ -79.41667, 44.16667 ], [ -79.41667, 44.25 ] ] ], [ [ [ -85.625, 44.20833 ], [ -85.625, 44.125 ], [ -85.54167, 44.125 ], [ -85.5, 44.20833 ], [ -85.54167, 44.20833 ], [ -85.58333, 44.20833 ], [ -85.625, 44.20833 ] ] ], [ [ [ -86.04167, 44.125 ], [ -86.125, 44.125 ], [ -86.125, 44.08333 ], [ -86.04167, 44.08333 ], [ -86.04167, 44.125 ] ] ], [ [ [ -85.33333, 44.04167 ], [ -85.33333, 44.125 ], [ -85.41667, 44.125 ], [ -85.33333, 44.04167 ] ] ], [ [ [ -86.45833, 44.125 ], [ -86.5, 44.08333 ], [ -86.41667, 44.0 ], [ -86.41667, 44.08333 ], [ -86.45833, 44.125 ] ] ], [ [ [ -85.5, 44.0 ], [ -85.41667, 44.0 ], [ -85.41667, 44.04167 ], [ -85.5, 44.04167 ], [ -85.5, 44.0 ] ] ], [ [ [ -87.75, 44.04167 ], [ -87.75, 43.95833 ], [ -87.70833, 43.95833 ], [ -87.70833, 44.04167 ], [ -87.75, 44.04167 ] ] ], [ [ [ -85.58333, 43.95833 ], [ -85.58333, 44.04167 ], [ -85.625, 44.04167 ], [ -85.625, 43.95833 ], [ -85.58333, 43.95833 ] ] ], [ [ [ -85.33333, 44.04167 ], [ -85.375, 43.95833 ], [ -85.29167, 43.95833 ], [ -85.29167, 44.04167 ], [ -85.33333, 44.04167 ] ] ], [ [ [ -88.375, 44.20833 ], [ -88.45833, 44.125 ], [ -88.45833, 43.95833 ], [ -88.375, 43.875 ], [ -88.29167, 43.91667 ], [ -88.29167, 44.0 ], [ -88.33333, 44.0 ], [ -88.33333, 44.125 ], [ -88.375, 44.20833 ] ] ], [ [ [ -86.41667, 43.91667 ], [ -86.41667, 43.79167 ], [ -86.375, 43.79167 ], [ -86.375, 43.91667 ], [ -86.41667, 43.91667 ] ] ], [ [ [ -86.125, 43.83333 ], [ -86.125, 43.79167 ], [ -86.08333, 43.83333 ], [ -86.125, 43.83333 ] ] ], [ [ [ -87.75, 43.70833 ], [ -87.70833, 43.70833 ], [ -87.70833, 43.79167 ], [ -87.75, 43.79167 ], [ -87.75, 43.70833 ] ] ], [ [ [ -79.625, 44.41667 ], [ -79.70833, 44.33333 ], [ -79.79167, 44.33333 ], [ -79.875, 44.375 ], [ -79.875, 44.33333 ], [ -80.0, 44.33333 ], [ -79.95833, 44.29167 ], [ -80.0, 44.25 ], [ -80.0, 44.04167 ], [ -79.91667, 43.95833 ], [ -79.875, 43.95833 ], [ -79.875, 43.70833 ], [ -79.91667, 43.70833 ], [ -79.91667, 43.625 ], [ -79.875, 43.625 ], [ -79.875, 43.66667 ], [ -79.79167, 43.75 ], [ -79.70833, 43.75 ], [ -79.625, 43.83333 ], [ -79.70833, 43.91667 ], [ -79.70833, 44.0 ], [ -79.625, 44.0 ], [ -79.625, 44.04167 ], [ -79.54167, 44.04167 ], [ -79.54167, 44.375 ], [ -79.625, 44.375 ], [ -79.625, 44.41667 ] ], [ [ -79.75, 44.25 ], [ -79.70833, 44.25 ], [ -79.70833, 44.16667 ], [ -79.75, 44.16667 ], [ -79.75, 44.25 ] ], [ [ -79.79167, 44.125 ], [ -79.75, 44.125 ], [ -79.75, 44.04167 ], [ -79.79167, 44.04167 ], [ -79.79167, 44.125 ] ] ], [ [ [ -88.16667, 43.66667 ], [ -88.20833, 43.66667 ], [ -88.20833, 43.58333 ], [ -88.16667, 43.58333 ], [ -88.16667, 43.66667 ] ] ], [ [ [ -73.58333, 43.54167 ], [ -73.54167, 43.54167 ], [ -73.54167, 43.625 ], [ -73.58333, 43.625 ], [ -73.58333, 43.54167 ] ] ], [ [ [ -83.16667, 43.58333 ], [ -83.16667, 43.54167 ], [ -83.08333, 43.54167 ], [ -83.08333, 43.58333 ], [ -83.16667, 43.58333 ] ] ], [ [ [ -79.79167, 43.54167 ], [ -79.875, 43.54167 ], [ -79.875, 43.5 ], [ -79.79167, 43.5 ], [ -79.79167, 43.54167 ] ] ], [ [ [ -73.625, 43.54167 ], [ -73.625, 43.5 ], [ -73.58333, 43.54167 ], [ -73.625, 43.54167 ] ] ], [ [ [ -80.33333, 43.5 ], [ -80.33333, 43.45833 ], [ -80.25, 43.45833 ], [ -80.25, 43.5 ], [ -80.33333, 43.5 ] ] ], [ [ [ -83.20833, 43.33333 ], [ -83.20833, 43.41667 ], [ -83.25, 43.41667 ], [ -83.25, 43.33333 ], [ -83.20833, 43.33333 ] ] ], [ [ [ -88.0, 43.25 ], [ -88.0, 43.29167 ], [ -87.91667, 43.375 ], [ -88.0, 43.375 ], [ -88.04167, 43.33333 ], [ -88.125, 43.375 ], [ -88.125, 43.29167 ], [ -88.04167, 43.29167 ], [ -88.04167, 43.25 ], [ -88.0, 43.25 ] ] ], [ [ [ -88.08333, 43.25 ], [ -88.04167, 43.20833 ], [ -88.04167, 43.25 ], [ -88.08333, 43.25 ] ] ], [ [ [ -88.0, 43.25 ], [ -88.0, 43.20833 ], [ -87.95833, 43.20833 ], [ -88.0, 43.25 ] ] ], [ [ [ -76.08333, 43.25 ], [ -76.08333, 43.20833 ], [ -76.0, 43.20833 ], [ -76.0, 43.16667 ], [ -75.75, 43.16667 ], [ -75.75, 43.20833 ], [ -75.79167, 43.25 ], [ -76.08333, 43.25 ] ] ], [ [ [ -81.91667, 43.20833 ], [ -81.91667, 43.125 ], [ -81.83333, 43.125 ], [ -81.83333, 43.16667 ], [ -81.875, 43.20833 ], [ -81.91667, 43.20833 ] ] ], [ [ [ -82.0, 43.125 ], [ -82.0, 43.08333 ], [ -81.95833, 43.125 ], [ -82.0, 43.125 ] ] ], [ [ [ -82.04167, 43.08333 ], [ -82.04167, 43.04167 ], [ -82.0, 43.08333 ], [ -82.04167, 43.08333 ] ] ], [ [ [ -82.125, 43.04167 ], [ -82.25, 43.04167 ], [ -82.25, 43.0 ], [ -82.16667, 43.0 ], [ -82.125, 42.95833 ], [ -82.125, 43.04167 ] ] ], [ [ [ -81.91667, 43.0 ], [ -81.95833, 42.95833 ], [ -81.91667, 42.95833 ], [ -81.91667, 43.0 ] ] ], [ [ [ -82.04167, 43.0 ], [ -82.125, 42.95833 ], [ -82.125, 42.91667 ], [ -82.04167, 42.91667 ], [ -82.04167, 43.0 ] ] ], [ [ [ -82.0, 42.95833 ], [ -82.0, 42.91667 ], [ -81.95833, 42.91667 ], [ -81.95833, 42.95833 ], [ -82.0, 42.95833 ] ] ], [ [ [ -81.91667, 42.95833 ], [ -81.91667, 42.91667 ], [ -81.875, 42.91667 ], [ -81.91667, 42.95833 ] ] ], [ [ [ -82.04167, 42.91667 ], [ -82.0, 42.875 ], [ -82.0, 42.91667 ], [ -82.04167, 42.91667 ] ] ], [ [ [ -81.95833, 42.91667 ], [ -81.95833, 42.875 ], [ -81.91667, 42.875 ], [ -81.91667, 42.91667 ], [ -81.95833, 42.91667 ] ] ], [ [ [ -76.375, 42.91667 ], [ -76.33333, 42.875 ], [ -76.33333, 42.83333 ], [ -76.25, 42.83333 ], [ -76.25, 42.875 ], [ -76.29167, 42.91667 ], [ -76.375, 42.91667 ] ] ], [ [ [ -81.875, 42.91667 ], [ -81.91667, 42.875 ], [ -81.91667, 42.83333 ], [ -81.83333, 42.83333 ], [ -81.83333, 42.91667 ], [ -81.875, 42.91667 ] ] ], [ [ [ -82.08333, 42.79167 ], [ -82.08333, 42.875 ], [ -82.125, 42.875 ], [ -82.125, 42.79167 ], [ -82.08333, 42.79167 ] ] ], [ [ [ -81.66667, 42.875 ], [ -81.75, 42.79167 ], [ -81.66667, 42.79167 ], [ -81.66667, 42.875 ] ] ], [ [ [ -74.875, 42.75 ], [ -74.875, 42.83333 ], [ -74.91667, 42.83333 ], [ -74.91667, 42.75 ], [ -74.875, 42.75 ] ] ], [ [ [ -82.08333, 42.79167 ], [ -82.08333, 42.70833 ], [ -82.0, 42.79167 ], [ -82.08333, 42.79167 ] ] ], [ [ [ -73.08333, 42.79167 ], [ -73.08333, 42.70833 ], [ -73.04167, 42.70833 ], [ -73.04167, 42.79167 ], [ -73.08333, 42.79167 ] ] ], [ [ [ -75.29167, 42.75 ], [ -75.375, 42.75 ], [ -75.375, 42.66667 ], [ -75.33333, 42.66667 ], [ -75.33333, 42.70833 ], [ -75.29167, 42.75 ] ] ], [ [ [ -77.79167, 42.58333 ], [ -77.79167, 42.625 ], [ -77.875, 42.625 ], [ -77.875, 42.58333 ], [ -77.79167, 42.58333 ] ] ], [ [ [ -75.54167, 42.625 ], [ -75.54167, 42.58333 ], [ -75.5, 42.58333 ], [ -75.5, 42.625 ], [ -75.54167, 42.625 ] ] ], [ [ [ -77.91667, 42.58333 ], [ -77.91667, 42.54167 ], [ -77.875, 42.54167 ], [ -77.875, 42.58333 ], [ -77.91667, 42.58333 ] ] ], [ [ [ -75.33333, 42.66667 ], [ -75.33333, 42.58333 ], [ -75.375, 42.54167 ], [ -75.25, 42.54167 ], [ -75.25, 42.58333 ], [ -75.29167, 42.58333 ], [ -75.29167, 42.66667 ], [ -75.33333, 42.66667 ] ] ], [ [ [ -76.125, 42.54167 ], [ -76.125, 42.5 ], [ -76.08333, 42.5 ], [ -76.08333, 42.54167 ], [ -76.125, 42.54167 ] ] ], [ [ [ -75.33333, 42.5 ], [ -75.33333, 42.45833 ], [ -75.29167, 42.45833 ], [ -75.29167, 42.5 ], [ -75.33333, 42.5 ] ] ], [ [ [ -75.375, 42.54167 ], [ -75.41667, 42.54167 ], [ -75.41667, 42.41667 ], [ -75.375, 42.41667 ], [ -75.375, 42.54167 ] ] ], [ [ [ -76.33333, 42.45833 ], [ -76.33333, 42.41667 ], [ -76.29167, 42.45833 ], [ -76.33333, 42.45833 ] ] ], [ [ [ -76.16667, 42.45833 ], [ -76.125, 42.41667 ], [ -76.125, 42.45833 ], [ -76.16667, 42.45833 ] ] ], [ [ [ -71.95833, 42.45833 ], [ -71.95833, 42.41667 ], [ -71.875, 42.41667 ], [ -71.875, 42.45833 ], [ -71.95833, 42.45833 ] ] ], [ [ [ -73.0, 42.625 ], [ -73.04167, 42.58333 ], [ -73.08333, 42.58333 ], [ -73.125, 42.54167 ], [ -73.125, 42.5 ], [ -73.04167, 42.5 ], [ -73.08333, 42.45833 ], [ -73.08333, 42.375 ], [ -73.0, 42.375 ], [ -73.0, 42.41667 ], [ -73.0, 42.625 ] ] ], [ [ [ -73.125, 42.45833 ], [ -73.16667, 42.45833 ], [ -73.16667, 42.33333 ], [ -73.125, 42.33333 ], [ -73.125, 42.45833 ] ] ], [ [ [ -75.41667, 42.41667 ], [ -75.45833, 42.41667 ], [ -75.45833, 42.33333 ], [ -75.41667, 42.33333 ], [ -75.41667, 42.41667 ] ] ], [ [ [ -71.95833, 42.41667 ], [ -72.0, 42.41667 ], [ -72.0, 42.33333 ], [ -71.95833, 42.33333 ], [ -71.95833, 42.41667 ] ] ], [ [ [ -75.375, 42.375 ], [ -75.375, 42.33333 ], [ -75.29167, 42.33333 ], [ -75.29167, 42.375 ], [ -75.375, 42.375 ] ] ], [ [ [ -75.45833, 42.33333 ], [ -75.5, 42.29167 ], [ -75.45833, 42.29167 ], [ -75.45833, 42.33333 ] ] ], [ [ [ -75.45833, 42.29167 ], [ -75.45833, 42.25 ], [ -75.41667, 42.29167 ], [ -75.45833, 42.29167 ] ] ], [ [ [ -73.0, 42.25 ], [ -72.95833, 42.20833 ], [ -72.95833, 42.25 ], [ -73.0, 42.25 ] ] ], [ [ [ -79.375, 42.16667 ], [ -79.375, 42.125 ], [ -79.33333, 42.125 ], [ -79.33333, 42.16667 ], [ -79.375, 42.16667 ] ] ], [ [ [ -75.33333, 42.08333 ], [ -75.25, 42.08333 ], [ -75.25, 42.125 ], [ -75.33333, 42.125 ], [ -75.33333, 42.08333 ] ] ], [ [ [ -72.95833, 42.20833 ], [ -72.95833, 42.125 ], [ -73.0, 42.08333 ], [ -72.91667, 42.08333 ], [ -72.91667, 42.20833 ], [ -72.95833, 42.20833 ] ] ], [ [ [ -73.04167, 42.125 ], [ -73.08333, 42.08333 ], [ -73.08333, 42.04167 ], [ -73.0, 42.04167 ], [ -73.0, 42.08333 ], [ -73.04167, 42.125 ] ] ], [ [ [ -72.20833, 42.08333 ], [ -72.16667, 42.04167 ], [ -72.16667, 42.08333 ], [ -72.20833, 42.08333 ] ] ], [ [ [ -72.16667, 42.04167 ], [ -72.16667, 41.95833 ], [ -72.08333, 41.95833 ], [ -72.08333, 42.0 ], [ -72.125, 42.04167 ], [ -72.16667, 42.04167 ] ] ], [ [ [ -75.33333, 42.08333 ], [ -75.5, 42.08333 ], [ -75.5, 42.04167 ], [ -75.41667, 42.04167 ], [ -75.29167, 41.91667 ], [ -75.29167, 42.0 ], [ -75.33333, 42.0 ], [ -75.33333, 42.08333 ] ] ], [ [ [ -75.875, 41.95833 ], [ -75.875, 41.91667 ], [ -75.83333, 41.95833 ], [ -75.875, 41.95833 ] ] ], [ [ [ -75.25, 41.95833 ], [ -75.25, 41.875 ], [ -75.20833, 41.875 ], [ -75.20833, 41.95833 ], [ -75.25, 41.95833 ] ] ], [ [ [ -75.29167, 41.875 ], [ -75.29167, 41.83333 ], [ -75.25, 41.83333 ], [ -75.25, 41.875 ], [ -75.29167, 41.875 ] ] ], [ [ [ -74.875, 41.83333 ], [ -74.875, 41.79167 ], [ -74.83333, 41.79167 ], [ -74.83333, 41.83333 ], [ -74.875, 41.83333 ] ] ], [ [ [ -74.79167, 41.79167 ], [ -74.75, 41.75 ], [ -74.75, 41.79167 ], [ -74.79167, 41.79167 ] ] ], [ [ [ -74.875, 41.70833 ], [ -74.875, 41.625 ], [ -74.83333, 41.625 ], [ -74.83333, 41.70833 ], [ -74.875, 41.70833 ] ] ], [ [ [ -75.41667, 41.625 ], [ -75.41667, 41.58333 ], [ -75.375, 41.58333 ], [ -75.375, 41.625 ], [ -75.41667, 41.625 ] ] ], [ [ [ -75.66667, 42.45833 ], [ -75.66667, 42.41667 ], [ -75.75, 42.41667 ], [ -75.79167, 42.375 ], [ -75.83333, 42.33333 ], [ -75.79167, 42.33333 ], [ -75.79167, 42.20833 ], [ -75.75, 42.16667 ], [ -75.70833, 42.16667 ], [ -75.70833, 42.08333 ], [ -75.75, 42.08333 ], [ -75.79167, 42.0 ], [ -75.75, 42.0 ], [ -75.75, 41.875 ], [ -75.79167, 41.83333 ], [ -75.95833, 41.83333 ], [ -75.95833, 41.79167 ], [ -75.91667, 41.79167 ], [ -75.91667, 41.75 ], [ -75.83333, 41.75 ], [ -75.83333, 41.70833 ], [ -75.70833, 41.70833 ], [ -75.70833, 41.625 ], [ -75.75, 41.58333 ], [ -75.70833, 41.54167 ], [ -75.70833, 41.45833 ], [ -75.66667, 41.45833 ], [ -75.66667, 41.5 ], [ -75.58333, 41.5 ], [ -75.58333, 41.54167 ], [ -75.54167, 41.58333 ], [ -75.58333, 41.58333 ], [ -75.58333, 41.79167 ], [ -75.70833, 41.79167 ], [ -75.70833, 41.91667 ], [ -75.54167, 41.91667 ], [ -75.54167, 42.0 ], [ -75.58333, 42.0 ], [ -75.58333, 42.125 ], [ -75.5, 42.20833 ], [ -75.45833, 42.25 ], [ -75.5, 42.25 ], [ -75.5, 42.29167 ], [ -75.58333, 42.29167 ], [ -75.625, 42.25 ], [ -75.66667, 42.29167 ], [ -75.66667, 42.33333 ], [ -75.625, 42.375 ], [ -75.54167, 42.375 ], [ -75.54167, 42.45833 ], [ -75.66667, 42.45833 ] ], [ [ -75.66667, 42.29167 ], [ -75.66667, 42.20833 ], [ -75.70833, 42.20833 ], [ -75.70833, 42.29167 ], [ -75.66667, 42.29167 ] ], [ [ -75.70833, 42.08333 ], [ -75.66667, 42.08333 ], [ -75.66667, 42.0 ], [ -75.70833, 42.0 ], [ -75.70833, 42.08333 ] ] ], [ [ [ -75.5, 41.5 ], [ -75.54167, 41.45833 ], [ -75.5, 41.45833 ], [ -75.5, 41.5 ] ] ], [ [ [ -75.45833, 41.54167 ], [ -75.45833, 41.41667 ], [ -75.375, 41.41667 ], [ -75.375, 41.45833 ], [ -75.41667, 41.45833 ], [ -75.41667, 41.54167 ], [ -75.45833, 41.54167 ] ] ], [ [ [ -75.54167, 41.45833 ], [ -75.625, 41.375 ], [ -75.54167, 41.375 ], [ -75.54167, 41.45833 ] ] ], [ [ [ -75.29167, 41.375 ], [ -75.29167, 41.33333 ], [ -75.25, 41.375 ], [ -75.29167, 41.375 ] ] ] ] } },
{ "type": "Feature", "properties": { "ID": 26 }, "geometry": { "type": "MultiPolygon", "coordinates": [ [ [ [ -75.33333, 42.83333 ], [ -75.41667, 42.83333 ], [ -75.41667, 42.75 ], [ -75.29167, 42.75 ], [ -75.29167, 42.79167 ], [ -75.33333, 42.83333 ] ] ], [ [ [ -74.91667, 42.75 ], [ -74.91667, 42.66667 ], [ -74.875, 42.66667 ], [ -74.875, 42.75 ], [ -74.91667, 42.75 ] ] ], [ [ [ -75.75, 42.70833 ], [ -75.75, 42.66667 ], [ -75.70833, 42.66667 ], [ -75.75, 42.70833 ] ] ], [ [ [ -77.58333, 42.70833 ], [ -77.58333, 42.66667 ], [ -77.5, 42.66667 ], [ -77.45833, 42.70833 ], [ -77.58333, 42.70833 ] ] ], [ [ [ -74.95833, 42.66667 ], [ -74.95833, 42.625 ], [ -74.91667, 42.625 ], [ -74.91667, 42.66667 ], [ -74.95833, 42.66667 ] ] ], [ [ [ -75.75, 42.66667 ], [ -75.83333, 42.66667 ], [ -75.83333, 42.58333 ], [ -75.75, 42.58333 ], [ -75.75, 42.66667 ] ] ], [ [ [ -75.20833, 42.66667 ], [ -75.25, 42.66667 ], [ -75.25, 42.58333 ], [ -75.125, 42.58333 ], [ -75.125, 42.625 ], [ -75.20833, 42.625 ], [ -75.20833, 42.66667 ] ] ], [ [ [ -75.54167, 42.625 ], [ -75.58333, 42.58333 ], [ -75.54167, 42.58333 ], [ -75.54167, 42.625 ] ] ], [ [ [ -75.0, 42.625 ], [ -74.95833, 42.58333 ], [ -74.95833, 42.625 ], [ -75.0, 42.625 ] ] ], [ [ [ -74.83333, 42.58333 ], [ -74.83333, 42.54167 ], [ -74.79167, 42.54167 ], [ -74.83333, 42.58333 ] ] ], [ [ [ -75.0, 42.54167 ], [ -75.08333, 42.54167 ], [ -75.08333, 42.5 ], [ -75.0, 42.5 ], [ -75.0, 42.54167 ] ] ], [ [ [ -76.04167, 42.54167 ], [ -76.04167, 42.45833 ], [ -76.0, 42.45833 ], [ -76.0, 42.54167 ], [ -76.04167, 42.54167 ] ] ], [ [ [ -71.95833, 42.5 ], [ -71.95833, 42.45833 ], [ -71.875, 42.45833 ], [ -71.875, 42.5 ], [ -71.95833, 42.5 ] ] ], [ [ [ -77.66667, 42.45833 ], [ -77.66667, 42.41667 ], [ -77.625, 42.41667 ], [ -77.625, 42.45833 ], [ -77.66667, 42.45833 ] ] ], [ [ [ -75.25, 42.5 ], [ -75.29167, 42.45833 ], [ -75.29167, 42.41667 ], [ -75.20833, 42.41667 ], [ -75.20833, 42.5 ], [ -75.25, 42.5 ] ] ], [ [ [ -75.70833, 42.66667 ], [ -75.70833, 42.58333 ], [ -75.75, 42.58333 ], [ -75.75, 42.54167 ], [ -75.83333, 42.54167 ], [ -75.83333, 42.45833 ], [ -75.79167, 42.45833 ], [ -75.79167, 42.375 ], [ -75.75, 42.41667 ], [ -75.66667, 42.41667 ], [ -75.66667, 42.45833 ], [ -75.58333, 42.45833 ], [ -75.54167, 42.5 ], [ -75.54167, 42.54167 ], [ -75.58333, 42.58333 ], [ -75.66667, 42.58333 ], [ -75.66667, 42.66667 ], [ -75.70833, 42.66667 ] ] ], [ [ [ -75.375, 42.54167 ], [ -75.375, 42.375 ], [ -75.29167, 42.375 ], [ -75.29167, 42.41667 ], [ -75.33333, 42.41667 ], [ -75.33333, 42.5 ], [ -75.25, 42.5 ], [ -75.25, 42.54167 ], [ -75.375, 42.54167 ] ] ], [ [ [ -77.625, 42.5 ], [ -77.625, 42.45833 ], [ -77.54167, 42.45833 ], [ -77.54167, 42.375 ], [ -77.5, 42.375 ], [ -77.5, 42.5 ], [ -77.625, 42.5 ] ] ], [ [ [ -76.08333, 42.45833 ], [ -76.08333, 42.375 ], [ -76.04167, 42.375 ], [ -76.04167, 42.45833 ], [ -76.08333, 42.45833 ] ] ], [ [ [ -74.54167, 42.375 ], [ -74.54167, 42.45833 ], [ -74.58333, 42.45833 ], [ -74.58333, 42.375 ], [ -74.54167, 42.375 ] ] ], [ [ [ -77.625, 42.41667 ], [ -77.625, 42.375 ], [ -77.58333, 42.375 ], [ -77.625, 42.41667 ] ] ], [ [ [ -76.75, 42.41667 ], [ -76.79167, 42.375 ], [ -76.75, 42.375 ], [ -76.75, 42.41667 ] ] ], [ [ [ -75.875, 42.45833 ], [ -75.875, 42.33333 ], [ -75.83333, 42.33333 ], [ -75.83333, 42.45833 ], [ -75.875, 42.45833 ] ] ], [ [ [ -77.08333, 42.375 ], [ -77.08333, 42.33333 ], [ -77.04167, 42.33333 ], [ -77.04167, 42.375 ], [ -77.08333, 42.375 ] ] ], [ [ [ -75.95833, 42.375 ], [ -75.95833, 42.33333 ], [ -75.91667, 42.375 ], [ -75.95833, 42.375 ] ] ], [ [ [ -73.04167, 42.375 ], [ -73.04167, 42.33333 ], [ -73.0, 42.33333 ], [ -73.0, 42.375 ], [ -73.04167, 42.375 ] ] ], [ [ [ -75.41667, 42.70833 ], [ -75.45833, 42.66667 ], [ -75.5, 42.625 ], [ -75.5, 42.5 ], [ -75.54167, 42.45833 ], [ -75.54167, 42.375 ], [ -75.625, 42.375 ], [ -75.66667, 42.33333 ], [ -75.66667, 42.29167 ], [ -75.625, 42.25 ], [ -75.58333, 42.29167 ], [ -75.5, 42.29167 ], [ -75.45833, 42.33333 ], [ -75.45833, 42.41667 ], [ -75.41667, 42.41667 ], [ -75.41667, 42.54167 ], [ -75.375, 42.54167 ], [ -75.33333, 42.58333 ], [ -75.33333, 42.66667 ], [ -75.375, 42.66667 ], [ -75.41667, 42.70833 ] ] ], [ [ [ -77.45833, 42.33333 ], [ -77.54167, 42.33333 ], [ -77.54167, 42.25 ], [ -77.5, 42.20833 ], [ -77.45833, 42.20833 ], [ -77.41667, 42.20833 ], [ -77.375, 42.20833 ], [ -77.375, 42.29167 ], [ -77.45833, 42.29167 ], [ -77.45833, 42.33333 ] ] ], [ [ [ -75.66667, 42.29167 ], [ -75.70833, 42.29167 ], [ -75.70833, 42.20833 ], [ -75.66667, 42.20833 ], [ -75.66667, 42.29167 ] ] ], [ [ [ -77.58333, 42.25 ], [ -77.58333, 42.20833 ], [ -77.54167, 42.20833 ], [ -77.54167, 42.25 ], [ -77.58333, 42.25 ] ] ], [ [ [ -77.04167, 42.33333 ], [ -77.04167, 42.25 ], [ -77.08333, 42.20833 ], [ -77.0, 42.20833 ], [ -77.0, 42.29167 ], [ -76.95833, 42.33333 ], [ -77.04167, 42.33333 ] ] ], [ [ [ -72.95833, 42.25 ], [ -72.95833, 42.20833 ], [ -72.91667, 42.20833 ], [ -72.91667, 42.25 ], [ -72.95833, 42.25 ] ] ], [ [ [ -75.75, 42.16667 ], [ -75.75, 42.08333 ], [ -75.70833, 42.08333 ], [ -75.70833, 42.16667 ], [ -75.75, 42.16667 ] ] ], [ [ [ -73.08333, 42.375 ], [ -73.125, 42.33333 ], [ -73.20833, 42.33333 ], [ -73.20833, 42.25 ], [ -73.20833, 42.20833 ], [ -73.16667, 42.16667 ], [ -73.16667, 42.08333 ], [ -73.125, 42.04167 ], [ -73.08333, 42.125 ], [ -73.04167, 42.125 ], [ -73.0, 42.08333 ], [ -72.95833, 42.125 ], [ -73.0, 42.16667 ], [ -73.0, 42.25 ], [ -73.04167, 42.25 ], [ -73.04167, 42.33333 ], [ -73.08333, 42.375 ] ] ], [ [ [ -75.70833, 42.08333 ], [ -75.70833, 42.0 ], [ -75.66667, 42.0 ], [ -75.66667, 42.08333 ], [ -75.70833, 42.08333 ] ] ], [ [ [ -74.54167, 41.95833 ], [ -74.58333, 41.95833 ], [ -74.58333, 41.875 ], [ -74.54167, 41.875 ], [ -74.54167, 41.95833 ] ] ], [ [ [ -73.25, 41.95833 ], [ -73.25, 41.875 ], [ -73.20833, 41.875 ], [ -73.20833, 41.95833 ], [ -73.25, 41.95833 ] ] ], [ [ [ -75.91667, 42.04167 ], [ -76.0, 42.04167 ], [ -76.0, 41.95833 ], [ -76.16667, 41.95833 ], [ -76.20833, 42.0 ], [ -76.20833, 41.91667 ], [ -75.95833, 41.91667 ], [ -75.95833, 41.83333 ], [ -75.79167, 41.83333 ], [ -75.75, 41.875 ], [ -75.75, 41.95833 ], [ -75.83333, 41.95833 ], [ -75.875, 41.91667 ], [ -75.875, 42.0 ], [ -75.91667, 42.04167 ] ] ], [ [ [ -77.91667, 41.75 ], [ -77.95833, 41.75 ], [ -77.95833, 41.66667 ], [ -77.91667, 41.66667 ], [ -77.91667, 41.75 ] ] ], [ [ [ -77.83333, 41.70833 ], [ -77.875, 41.66667 ], [ -77.875, 41.625 ], [ -77.79167, 41.625 ], [ -77.79167, 41.70833 ], [ -77.83333, 41.70833 ] ] ], [ [ [ -76.625, 41.66667 ], [ -76.75, 41.66667 ], [ -76.70833, 41.625 ], [ -76.70833, 41.58333 ], [ -76.5, 41.58333 ], [ -76.45833, 41.625 ], [ -76.45833, 41.66667 ], [ -76.54167, 41.66667 ], [ -76.54167, 41.625 ], [ -76.625, 41.625 ], [ -76.625, 41.66667 ] ] ], [ [ [ -78.875, 41.58333 ], [ -78.875, 41.54167 ], [ -78.83333, 41.58333 ], [ -78.875, 41.58333 ] ] ], [ [ [ -77.875, 42.58333 ], [ -77.875, 42.54167 ], [ -78.0, 42.54167 ], [ -78.04167, 42.5 ], [ -78.04167, 42.41667 ], [ -78.08333, 42.375 ], [ -78.08333, 42.33333 ], [ -78.0, 42.33333 ], [ -78.04167, 42.29167 ], [ -78.04167, 42.25 ], [ -78.0, 42.20833 ], [ -78.125, 42.20833 ], [ -78.125, 42.25 ], [ -78.08333, 42.25 ], [ -78.08333, 42.29167 ], [ -78.125, 42.33333 ], [ -78.25, 42.33333 ], [ -78.25, 42.41667 ], [ -78.375, 42.41667 ], [ -78.375, 42.375 ], [ -78.45833, 42.375 ], [ -78.5, 42.41667 ], [ -78.5, 42.45833 ], [ -78.625, 42.45833 ], [ -78.625, 42.375 ], [ -78.70833, 42.33333 ], [ -78.91667, 42.33333 ], [ -78.95833, 42.29167 ], [ -79.0, 42.29167 ], [ -79.0, 42.20833 ], [ -78.91667, 42.16667 ], [ -78.91667, 42.125 ], [ -79.0, 42.125 ], [ -79.0, 42.16667 ], [ -79.04167, 42.16667 ], [ -79.08333, 42.125 ], [ -79.08333, 42.04167 ], [ -79.125, 42.04167 ], [ -79.08333, 42.0 ], [ -79.08333, 41.875 ], [ -79.04167, 41.875 ], [ -79.04167, 41.79167 ], [ -78.91667, 41.66667 ], [ -78.91667, 41.58333 ], [ -78.875, 41.58333 ], [ -78.875, 41.66667 ], [ -78.83333, 41.66667 ], [ -78.83333, 41.58333 ], [ -78.75, 41.58333 ], [ -78.75, 41.5 ], [ -78.70833, 41.5 ], [ -78.625, 41.58333 ], [ -78.625, 41.54167 ], [ -78.54167, 41.54167 ], [ -78.54167, 41.5 ], [ -78.41667, 41.5 ], [ -78.41667, 41.66667 ], [ -78.375, 41.66667 ], [ -78.375, 41.58333 ], [ -78.33333, 41.58333 ], [ -78.33333, 41.625 ], [ -78.25, 41.625 ], [ -78.20833, 41.625 ], [ -78.125, 41.625 ], [ -78.125, 41.66667 ], [ -78.04167, 41.75 ], [ -78.20833, 41.75 ], [ -78.20833, 41.70833 ], [ -78.29167, 41.70833 ], [ -78.29167, 41.79167 ], [ -78.33333, 41.79167 ], [ -78.33333, 41.875 ], [ -78.41667, 41.875 ], [ -78.41667, 41.91667 ], [ -78.5, 41.91667 ], [ -78.5, 41.95833 ], [ -78.41667, 41.95833 ], [ -78.41667, 42.0 ], [ -78.375, 42.04167 ], [ -78.5, 42.04167 ], [ -78.5, 42.08333 ], [ -78.54167, 42.125 ], [ -78.41667, 42.125 ], [ -78.41667, 42.08333 ], [ -78.33333, 42.08333 ], [ -78.33333, 42.04167 ], [ -78.29167, 42.04167 ], [ -78.33333, 42.0 ], [ -78.375, 41.95833 ], [ -78.375, 41.91667 ], [ -78.29167, 41.91667 ], [ -78.29167, 41.83333 ], [ -78.25, 41.79167 ], [ -78.20833, 41.83333 ], [ -78.125, 41.83333 ], [ -78.125, 41.875 ], [ -78.08333, 41.91667 ], [ -77.95833, 41.91667 ], [ -77.95833, 41.83333 ], [ -77.91667, 41.79167 ], [ -77.91667, 41.75 ], [ -77.83333, 41.70833 ], [ -77.79167, 41.75 ], [ -77.79167, 41.83333 ], [ -77.66667, 41.83333 ], [ -77.66667, 41.91667 ], [ -77.70833, 41.95833 ], [ -77.58333, 41.95833 ], [ -77.58333, 42.04167 ], [ -77.5, 42.08333 ], [ -77.5, 42.125 ], [ -77.45833, 42.16667 ], [ -77.5, 42.20833 ], [ -77.54167, 42.20833 ], [ -77.54167, 42.16667 ], [ -77.625, 42.16667 ], [ -77.625, 42.25 ], [ -77.66667, 42.29167 ], [ -77.75, 42.29167 ], [ -77.75, 42.41667 ], [ -77.83333, 42.41667 ], [ -77.79167, 42.45833 ], [ -77.79167, 42.58333 ], [ -77.875, 42.58333 ] ], [ [ -78.66667, 42.33333 ], [ -78.625, 42.33333 ], [ -78.625, 42.25 ], [ -78.66667, 42.25 ], [ -78.66667, 42.33333 ] ], [ [ -78.41667, 42.20833 ], [ -78.33333, 42.20833 ], [ -78.33333, 42.16667 ], [ -78.41667, 42.16667 ], [ -78.41667, 42.20833 ] ], [ [ -78.0, 42.20833 ], [ -77.95833, 42.16667 ], [ -77.91667, 42.16667 ], [ -77.91667, 42.08333 ], [ -78.0, 42.08333 ], [ -78.0, 42.20833 ] ], [ [ -78.29167, 42.04167 ], [ -78.29167, 42.125 ], [ -78.25, 42.125 ], [ -78.25, 42.04167 ], [ -78.29167, 42.04167 ] ], [ [ -78.95833, 41.875 ], [ -78.95833, 42.04167 ], [ -78.91667, 42.04167 ], [ -78.91667, 41.91667 ], [ -78.95833, 41.875 ] ], [ [ -78.45833, 41.875 ], [ -78.41667, 41.875 ], [ -78.41667, 41.83333 ], [ -78.375, 41.83333 ], [ -78.375, 41.75 ], [ -78.45833, 41.79167 ], [ -78.45833, 41.875 ] ], [ [ -77.875, 41.875 ], [ -77.79167, 41.875 ], [ -77.79167, 41.83333 ], [ -77.875, 41.83333 ], [ -77.875, 41.875 ] ], [ [ -78.45833, 41.79167 ], [ -78.5, 41.75 ], [ -78.5, 41.625 ], [ -78.58333, 41.66667 ], [ -78.58333, 41.83333 ], [ -78.54167, 41.79167 ], [ -78.45833, 41.79167 ] ] ], [ [ [ -76.75, 41.54167 ], [ -76.875, 41.54167 ], [ -76.875, 41.5 ], [ -76.75, 41.5 ], [ -76.75, 41.54167 ] ] ], [ [ [ -76.08333, 41.54167 ], [ -76.08333, 41.45833 ], [ -76.04167, 41.45833 ], [ -76.04167, 41.54167 ], [ -76.08333, 41.54167 ] ] ], [ [ [ -78.58333, 41.5 ], [ -78.58333, 41.45833 ], [ -78.54167, 41.5 ], [ -78.58333, 41.5 ] ] ], [ [ [ -76.125, 41.45833 ], [ -76.125, 41.41667 ], [ -76.08333, 41.45833 ], [ -76.125, 41.45833 ] ] ], [ [ [ -76.375, 41.33333 ], [ -76.33333, 41.33333 ], [ -76.33333, 41.375 ], [ -76.29167, 41.33333 ], [ -76.125, 41.33333 ], [ -76.125, 41.41667 ], [ -76.16667, 41.45833 ], [ -76.20833, 41.45833 ], [ -76.20833, 41.54167 ], [ -76.33333, 41.54167 ], [ -76.33333, 41.5 ], [ -76.54167, 41.5 ], [ -76.54167, 41.45833 ], [ -76.625, 41.45833 ], [ -76.625, 41.41667 ], [ -76.58333, 41.375 ], [ -76.5, 41.375 ], [ -76.5, 41.33333 ], [ -76.41667, 41.33333 ], [ -76.41667, 41.29167 ], [ -76.375, 41.29167 ], [ -76.375, 41.33333 ] ] ], [ [ [ -74.91667, 42.58333 ], [ -74.95833, 42.54167 ], [ -74.95833, 42.375 ], [ -74.875, 42.375 ], [ -74.875, 42.33333 ], [ -74.83333, 42.33333 ], [ -74.83333, 42.29167 ], [ -74.91667, 42.29167 ], [ -74.91667, 42.20833 ], [ -75.0, 42.20833 ], [ -75.0, 42.16667 ], [ -75.125, 42.16667 ], [ -75.16667, 42.125 ], [ -75.20833, 42.16667 ], [ -75.29167, 42.16667 ], [ -75.29167, 42.25 ], [ -75.25, 42.29167 ], [ -75.41667, 42.29167 ], [ -75.45833, 42.25 ], [ -75.5, 42.20833 ], [ -75.58333, 42.125 ], [ -75.58333, 42.0 ], [ -75.54167, 42.0 ], [ -75.54167, 41.91667 ], [ -75.70833, 41.91667 ], [ -75.70833, 41.79167 ], [ -75.58333, 41.79167 ], [ -75.58333, 41.58333 ], [ -75.5, 41.58333 ], [ -75.5, 41.45833 ], [ -75.54167, 41.45833 ], [ -75.54167, 41.375 ], [ -75.625, 41.375 ], [ -75.625, 41.29167 ], [ -75.70833, 41.29167 ], [ -75.75, 41.25 ], [ -75.79167, 41.20833 ], [ -75.79167, 41.16667 ], [ -75.875, 41.16667 ], [ -75.875, 41.125 ], [ -75.75, 41.125 ], [ -75.70833, 41.04167 ], [ -75.66667, 41.0 ], [ -75.625, 41.04167 ], [ -75.54167, 41.04167 ], [ -75.54167, 41.0 ], [ -75.41667, 41.0 ], [ -75.375, 41.04167 ], [ -75.375, 41.125 ], [ -75.25, 41.25 ], [ -75.16667, 41.25 ], [ -75.16667, 41.29167 ], [ -75.125, 41.33333 ], [ -75.16667, 41.375 ], [ -75.25, 41.375 ], [ -75.29167, 41.33333 ], [ -75.29167, 41.29167 ], [ -75.33333, 41.33333 ], [ -75.41667, 41.33333 ], [ -75.45833, 41.375 ], [ -75.45833, 41.54167 ], [ -75.41667, 41.54167 ], [ -75.41667, 41.625 ], [ -75.375, 41.625 ], [ -75.375, 41.66667 ], [ -75.33333, 41.66667 ], [ -75.33333, 41.75 ], [ -75.25, 41.75 ], [ -75.25, 41.83333 ], [ -75.29167, 41.79167 ], [ -75.29167, 41.91667 ], [ -75.41667, 42.04167 ], [ -75.5, 42.04167 ], [ -75.5, 42.08333 ], [ -75.33333, 42.08333 ], [ -75.33333, 42.0 ], [ -75.29167, 42.0 ], [ -75.29167, 41.95833 ], [ -75.25, 41.95833 ], [ -75.20833, 42.0 ], [ -75.20833, 41.875 ], [ -75.04167, 41.875 ], [ -75.04167, 41.83333 ], [ -74.95833, 41.83333 ], [ -74.91667, 41.79167 ], [ -74.91667, 41.83333 ], [ -74.83333, 41.83333 ], [ -74.83333, 41.79167 ], [ -74.75, 41.79167 ], [ -74.70833, 41.79167 ], [ -74.66667, 41.79167 ], [ -74.66667, 41.83333 ], [ -74.58333, 41.83333 ], [ -74.58333, 41.875 ], [ -74.66667, 41.95833 ], [ -74.75, 41.95833 ], [ -74.70833, 42.0 ], [ -74.70833, 42.08333 ], [ -74.66667, 42.125 ], [ -74.58333, 42.125 ], [ -74.58333, 42.08333 ], [ -74.54167, 42.08333 ], [ -74.54167, 42.16667 ], [ -74.625, 42.16667 ], [ -74.625, 42.25 ], [ -74.70833, 42.25 ], [ -74.66667, 42.29167 ], [ -74.66667, 42.33333 ], [ -74.75, 42.33333 ], [ -74.75, 42.45833 ], [ -74.79167, 42.5 ], [ -74.83333, 42.54167 ], [ -74.875, 42.58333 ], [ -74.91667, 42.58333 ] ], [ [ -74.83333, 42.375 ], [ -74.875, 42.375 ], [ -74.875, 42.41667 ], [ -74.83333, 42.375 ] ], [ [ -75.33333, 42.08333 ], [ -75.33333, 42.125 ], [ -75.25, 42.125 ], [ -75.25, 42.08333 ], [ -75.33333, 42.08333 ] ] ] ] } },
{ "type": "Feature", "properties": { "ID": 27 }, "geometry": { "type": "MultiPolygon", "coordinates": [ [ [ [ -93.625, 44.95833 ], [ -93.625, 44.875 ], [ -93.54167, 44.95833 ], [ -93.625, 44.95833 ] ] ], [ [ [ -84.75, 44.41667 ], [ -84.79167, 44.41667 ], [ -84.79167, 44.33333 ], [ -84.75, 44.33333 ], [ -84.75, 44.41667 ] ] ], [ [ [ -90.95833, 44.33333 ], [ -91.04167, 44.33333 ], [ -91.04167, 44.29167 ], [ -90.95833, 44.29167 ], [ -90.95833, 44.33333 ] ] ], [ [ [ -90.91667, 44.33333 ], [ -90.91667, 44.29167 ], [ -90.83333, 44.29167 ], [ -90.83333, 44.33333 ], [ -90.91667, 44.33333 ] ] ], [ [ [ -90.45833, 44.125 ], [ -90.45833, 44.08333 ], [ -90.375, 44.08333 ], [ -90.375, 44.125 ], [ -90.45833, 44.125 ] ] ], [ [ [ -90.75, 44.29167 ], [ -90.79167, 44.20833 ], [ -90.79167, 44.125 ], [ -90.75, 44.125 ], [ -90.75, 44.20833 ], [ -90.70833, 44.20833 ], [ -90.70833, 44.125 ], [ -90.625, 44.125 ], [ -90.625, 44.04167 ], [ -90.54167, 44.04167 ], [ -90.45833, 44.125 ], [ -90.45833, 44.20833 ], [ -90.5, 44.25 ], [ -90.70833, 44.25 ], [ -90.70833, 44.29167 ], [ -90.75, 44.29167 ] ] ], [ [ [ -90.95833, 44.08333 ], [ -90.95833, 44.0 ], [ -90.91667, 44.0 ], [ -90.91667, 44.08333 ], [ -90.95833, 44.08333 ] ] ], [ [ [ -86.04167, 43.875 ], [ -86.125, 43.95833 ], [ -86.125, 43.83333 ], [ -86.08333, 43.83333 ], [ -86.04167, 43.875 ] ] ], [ [ [ -85.29167, 43.83333 ], [ -85.29167, 43.79167 ], [ -85.20833, 43.79167 ], [ -85.20833, 43.83333 ], [ -85.29167, 43.83333 ] ] ], [ [ [ -86.0, 44.16667 ], [ -86.0, 44.08333 ], [ -86.04167, 44.08333 ], [ -86.04167, 43.95833 ], [ -86.0, 43.95833 ], [ -86.0, 43.875 ], [ -86.04167, 43.875 ], [ -86.04167, 43.79167 ], [ -85.95833, 43.79167 ], [ -85.91667, 43.75 ], [ -85.91667, 43.70833 ], [ -85.79167, 43.70833 ], [ -85.79167, 43.79167 ], [ -85.75, 43.79167 ], [ -85.75, 43.875 ], [ -85.70833, 43.875 ], [ -85.66667, 43.95833 ], [ -85.79167, 43.95833 ], [ -85.75, 44.0 ], [ -85.75, 44.16667 ], [ -86.0, 44.16667 ] ] ], [ [ [ -90.83333, 43.75 ], [ -90.83333, 43.66667 ], [ -90.79167, 43.66667 ], [ -90.79167, 43.75 ], [ -90.83333, 43.75 ] ] ], [ [ [ -86.125, 43.75 ], [ -86.125, 43.66667 ], [ -86.08333, 43.66667 ], [ -86.08333, 43.75 ], [ -86.125, 43.75 ] ] ], [ [ [ -73.45833, 43.66667 ], [ -73.45833, 43.75 ], [ -73.5, 43.75 ], [ -73.5, 43.66667 ], [ -73.45833, 43.66667 ] ] ], [ [ [ -90.70833, 43.66667 ], [ -90.79167, 43.58333 ], [ -90.70833, 43.58333 ], [ -90.70833, 43.66667 ] ] ], [ [ [ -88.125, 43.375 ], [ -88.125, 43.41667 ], [ -88.20833, 43.41667 ], [ -88.20833, 43.375 ], [ -88.125, 43.375 ] ] ], [ [ [ -88.25, 43.33333 ], [ -88.25, 43.41667 ], [ -88.29167, 43.41667 ], [ -88.29167, 43.33333 ], [ -88.25, 43.33333 ] ] ], [ [ [ -88.25, 43.33333 ], [ -88.25, 43.25 ], [ -88.16667, 43.25 ], [ -88.25, 43.33333 ] ] ], [ [ [ -88.33333, 43.29167 ], [ -88.41667, 43.29167 ], [ -88.41667, 43.25 ], [ -88.33333, 43.25 ], [ -88.33333, 43.29167 ] ] ], [ [ [ -88.375, 43.20833 ], [ -88.375, 43.16667 ], [ -88.25, 43.16667 ], [ -88.25, 43.20833 ], [ -88.375, 43.20833 ] ] ], [ [ [ -72.33333, 42.79167 ], [ -72.375, 42.79167 ], [ -72.375, 42.70833 ], [ -72.33333, 42.70833 ], [ -72.33333, 42.79167 ] ] ], [ [ [ -72.29167, 42.625 ], [ -72.33333, 42.625 ], [ -72.33333, 42.54167 ], [ -72.29167, 42.54167 ], [ -72.29167, 42.625 ] ] ], [ [ [ -72.29167, 42.54167 ], [ -72.29167, 42.45833 ], [ -72.25, 42.45833 ], [ -72.25, 42.54167 ], [ -72.29167, 42.54167 ] ] ] ] } },
{ "type": "Feature", "properties": { "ID": 28 }, "geometry": { "type": "MultiPolygon", "coordinates": [ [ [ [ -90.125, 43.33333 ], [ -90.125, 43.41667 ], [ -90.16667, 43.41667 ], [ -90.16667, 43.33333 ], [ -90.125, 43.33333 ] ] ], [ [ [ -72.29167, 42.625 ], [ -72.29167, 42.54167 ], [ -72.25, 42.54167 ], [ -72.25, 42.58333 ], [ -72.20833, 42.58333 ], [ -72.20833, 42.625 ], [ -72.29167, 42.625 ] ] ] ] } },
{ "type": "Feature", "properties": { "ID": 29 }, "geometry": { "type": "MultiPolygon", "coordinates": [ [ [ [ -79.83333, 43.375 ], [ -79.83333, 43.33333 ], [ -79.79167, 43.33333 ], [ -79.79167, 43.375 ], [ -79.83333, 43.375 ] ] ], [ [ [ -82.79167, 43.16667 ], [ -82.79167, 43.125 ], [ -82.75, 43.16667 ], [ -82.79167, 43.16667 ] ] ], [ [ [ -82.625, 43.16667 ], [ -82.625, 43.08333 ], [ -82.58333, 43.08333 ], [ -82.58333, 43.16667 ], [ -82.625, 43.16667 ] ] ], [ [ [ -82.83333, 43.04167 ], [ -82.83333, 43.0 ], [ -82.75, 43.0 ], [ -82.75, 43.04167 ], [ -82.83333, 43.04167 ] ] ], [ [ [ -82.125, 43.04167 ], [ -82.125, 42.95833 ], [ -82.04167, 43.0 ], [ -82.04167, 43.04167 ], [ -82.125, 43.04167 ] ] ], [ [ [ -82.25, 43.0 ], [ -82.33333, 43.0 ], [ -82.33333, 42.95833 ], [ -82.25, 42.95833 ], [ -82.25, 43.0 ] ] ], [ [ [ -82.0, 42.95833 ], [ -82.04167, 42.91667 ], [ -82.0, 42.91667 ], [ -82.0, 42.95833 ] ] ], [ [ [ -82.0, 42.91667 ], [ -82.0, 42.875 ], [ -81.95833, 42.875 ], [ -81.95833, 42.91667 ], [ -82.0, 42.91667 ] ] ], [ [ [ -81.95833, 42.875 ], [ -81.95833, 42.83333 ], [ -81.91667, 42.83333 ], [ -81.91667, 42.875 ], [ -81.95833, 42.875 ] ] ], [ [ [ -81.875, 42.83333 ], [ -81.875, 42.79167 ], [ -81.83333, 42.79167 ], [ -81.83333, 42.83333 ], [ -81.875, 42.83333 ] ] ], [ [ [ -81.66667, 42.79167 ], [ -81.66667, 42.66667 ], [ -81.625, 42.66667 ], [ -81.625, 42.79167 ], [ -81.66667, 42.79167 ] ] ], [ [ [ -81.75, 42.70833 ], [ -81.75, 42.66667 ], [ -81.70833, 42.66667 ], [ -81.70833, 42.70833 ], [ -81.75, 42.70833 ] ] ], [ [ [ -81.79167, 42.66667 ], [ -81.79167, 42.625 ], [ -81.75, 42.625 ], [ -81.75, 42.66667 ], [ -81.79167, 42.66667 ] ] ], [ [ [ -81.625, 42.66667 ], [ -81.625, 42.625 ], [ -81.54167, 42.625 ], [ -81.54167, 42.66667 ], [ -81.625, 42.66667 ] ] ], [ [ [ -81.75, 42.625 ], [ -81.75, 42.58333 ], [ -81.70833, 42.58333 ], [ -81.70833, 42.625 ], [ -81.75, 42.625 ] ] ], [ [ [ -81.79167, 42.58333 ], [ -81.79167, 42.5 ], [ -81.75, 42.5 ], [ -81.75, 42.58333 ], [ -81.79167, 42.58333 ] ] ], [ [ [ -76.75, 42.83333 ], [ -76.75, 42.66667 ], [ -76.66667, 42.66667 ], [ -76.66667, 42.54167 ], [ -76.58333, 42.54167 ], [ -76.5, 42.45833 ], [ -76.5, 42.54167 ], [ -76.54167, 42.58333 ], [ -76.625, 42.58333 ], [ -76.625, 42.70833 ], [ -76.66667, 42.70833 ], [ -76.66667, 42.79167 ], [ -76.75, 42.83333 ] ] ], [ [ [ -82.41667, 42.54167 ], [ -82.41667, 42.45833 ], [ -82.375, 42.45833 ], [ -82.375, 42.54167 ], [ -82.41667, 42.54167 ] ] ], [ [ [ -81.75, 42.5 ], [ -81.75, 42.45833 ], [ -81.70833, 42.5 ], [ -81.75, 42.5 ] ] ], [ [ [ -82.375, 42.45833 ], [ -82.375, 42.375 ], [ -82.33333, 42.375 ], [ -82.33333, 42.45833 ], [ -82.375, 42.45833 ] ] ], [ [ [ -82.16667, 43.0 ], [ -82.20833, 43.0 ], [ -82.20833, 42.875 ], [ -82.375, 42.875 ], [ -82.375, 42.83333 ], [ -82.45833, 42.875 ], [ -82.54167, 42.875 ], [ -82.58333, 42.83333 ], [ -82.58333, 42.79167 ], [ -82.70833, 42.79167 ], [ -82.75, 42.75 ], [ -82.75, 42.70833 ], [ -82.625, 42.70833 ], [ -82.625, 42.625 ], [ -82.54167, 42.625 ], [ -82.54167, 42.54167 ], [ -82.41667, 42.54167 ], [ -82.41667, 42.58333 ], [ -82.29167, 42.58333 ], [ -82.29167, 42.54167 ], [ -82.33333, 42.54167 ], [ -82.33333, 42.45833 ], [ -82.29167, 42.45833 ], [ -82.29167, 42.33333 ], [ -82.375, 42.25 ], [ -82.29167, 42.20833 ], [ -82.20833, 42.20833 ], [ -82.20833, 42.25 ], [ -82.125, 42.25 ], [ -82.125, 42.29167 ], [ -82.0, 42.29167 ], [ -82.0, 42.33333 ], [ -81.91667, 42.33333 ], [ -81.91667, 42.375 ], [ -81.83333, 42.375 ], [ -81.875, 42.41667 ], [ -81.875, 42.45833 ], [ -81.79167, 42.45833 ], [ -81.79167, 42.5 ], [ -81.83333, 42.54167 ], [ -81.875, 42.58333 ], [ -81.79167, 42.58333 ], [ -81.79167, 42.625 ], [ -81.875, 42.625 ], [ -81.875, 42.66667 ], [ -81.79167, 42.66667 ], [ -81.79167, 42.75 ], [ -81.83333, 42.75 ], [ -81.83333, 42.70833 ], [ -81.875, 42.70833 ], [ -81.875, 42.79167 ], [ -81.91667, 42.79167 ], [ -81.91667, 42.70833 ], [ -81.95833, 42.70833 ], [ -81.95833, 42.83333 ], [ -82.0, 42.875 ], [ -82.04167, 42.91667 ], [ -82.125, 42.91667 ], [ -82.125, 42.95833 ], [ -82.16667, 43.0 ] ], [ [ -82.08333, 42.79167 ], [ -82.125, 42.79167 ], [ -82.125, 42.875 ], [ -82.08333, 42.875 ], [ -82.08333, 42.79167 ] ], [ [ -82.375, 42.83333 ], [ -82.29167, 42.83333 ], [ -82.29167, 42.79167 ], [ -82.375, 42.79167 ], [ -82.375, 42.83333 ] ], [ [ -82.08333, 42.79167 ], [ -82.0, 42.79167 ], [ -82.08333, 42.70833 ], [ -82.08333, 42.79167 ] ], [ [ -82.41667, 42.70833 ], [ -82.41667, 42.66667 ], [ -82.33333, 42.66667 ], [ -82.33333, 42.625 ], [ -82.45833, 42.625 ], [ -82.45833, 42.70833 ], [ -82.41667, 42.70833 ] ] ], [ [ [ -79.45833, 42.20833 ], [ -79.41667, 42.16667 ], [ -79.41667, 42.20833 ], [ -79.45833, 42.20833 ] ] ], [ [ [ -79.41667, 42.16667 ], [ -79.375, 42.125 ], [ -79.375, 42.16667 ], [ -79.41667, 42.16667 ] ] ], [ [ [ -80.5, 41.875 ], [ -80.45833, 41.91667 ], [ -80.5, 41.91667 ], [ -80.5, 41.95833 ], [ -80.625, 41.95833 ], [ -80.625, 41.91667 ], [ -80.75, 41.91667 ], [ -80.75, 41.875 ], [ -80.875, 41.875 ], [ -80.875, 41.83333 ], [ -81.04167, 41.83333 ], [ -81.04167, 41.79167 ], [ -81.16667, 41.79167 ], [ -81.20833, 41.75 ], [ -81.20833, 41.70833 ], [ -81.125, 41.70833 ], [ -81.125, 41.625 ], [ -81.20833, 41.66667 ], [ -81.25, 41.625 ], [ -81.25, 41.58333 ], [ -81.08333, 41.58333 ], [ -81.04167, 41.625 ], [ -80.95833, 41.625 ], [ -80.875, 41.66667 ], [ -80.83333, 41.66667 ], [ -80.79167, 41.625 ], [ -80.70833, 41.625 ], [ -80.70833, 41.66667 ], [ -80.54167, 41.66667 ], [ -80.54167, 41.75 ], [ -80.45833, 41.75 ], [ -80.45833, 41.83333 ], [ -80.5, 41.875 ] ], [ [ -80.91667, 41.75 ], [ -80.91667, 41.79167 ], [ -80.83333, 41.79167 ], [ -80.83333, 41.75 ], [ -80.91667, 41.75 ] ] ], [ [ [ -81.20833, 41.70833 ], [ -81.25, 41.66667 ], [ -81.20833, 41.66667 ], [ -81.20833, 41.70833 ] ] ], [ [ [ -80.125, 41.625 ], [ -80.125, 41.70833 ], [ -80.16667, 41.70833 ], [ -80.16667, 41.625 ], [ -80.125, 41.625 ] ] ], [ [ [ -81.25, 41.66667 ], [ -81.33333, 41.66667 ], [ -81.33333, 41.625 ], [ -81.25, 41.625 ], [ -81.25, 41.66667 ] ] ], [ [ [ -80.54167, 41.66667 ], [ -80.54167, 41.58333 ], [ -80.5, 41.54167 ], [ -80.45833, 41.54167 ], [ -80.45833, 41.625 ], [ -80.41667, 41.66667 ], [ -80.54167, 41.66667 ] ] ], [ [ [ -72.66667, 41.375 ], [ -72.66667, 41.33333 ], [ -72.58333, 41.33333 ], [ -72.58333, 41.375 ], [ -72.66667, 41.375 ] ] ], [ [ [ -74.04167, 41.25 ], [ -74.0, 41.25 ], [ -74.0, 41.33333 ], [ -74.04167, 41.33333 ], [ -74.04167, 41.25 ] ] ], [ [ [ -74.04167, 41.25 ], [ -74.125, 41.25 ], [ -74.125, 41.20833 ], [ -74.04167, 41.20833 ], [ -74.04167, 41.25 ] ] ], [ [ [ -76.29167, 40.83333 ], [ -76.375, 40.83333 ], [ -76.375, 40.79167 ], [ -76.29167, 40.79167 ], [ -76.29167, 40.83333 ] ] ], [ [ [ -76.29167, 40.79167 ], [ -76.25, 40.75 ], [ -76.25, 40.79167 ], [ -76.29167, 40.79167 ] ] ], [ [ [ -76.0, 40.79167 ], [ -76.04167, 40.75 ], [ -76.0, 40.75 ], [ -76.0, 40.79167 ] ] ], [ [ [ -76.04167, 40.75 ], [ -76.08333, 40.75 ], [ -76.08333, 40.66667 ], [ -76.04167, 40.66667 ], [ -76.04167, 40.75 ] ] ], [ [ [ -76.20833, 40.58333 ], [ -76.20833, 40.54167 ], [ -76.08333, 40.54167 ], [ -76.08333, 40.58333 ], [ -76.20833, 40.58333 ] ] ], [ [ [ -76.70833, 40.5 ], [ -76.75, 40.5 ], [ -76.75, 40.41667 ], [ -76.70833, 40.41667 ], [ -76.70833, 40.5 ] ] ], [ [ [ -79.125, 40.25 ], [ -79.16667, 40.20833 ], [ -79.125, 40.20833 ], [ -79.125, 40.25 ] ] ], [ [ [ -79.08333, 40.25 ], [ -79.08333, 40.20833 ], [ -79.04167, 40.25 ], [ -79.08333, 40.25 ] ] ], [ [ [ -78.33333, 38.66667 ], [ -78.33333, 38.625 ], [ -78.29167, 38.66667 ], [ -78.33333, 38.66667 ] ] ], [ [ [ -78.375, 38.58333 ], [ -78.41667, 38.54167 ], [ -78.375, 38.54167 ], [ -78.375, 38.58333 ] ] ], [ [ [ -78.41667, 38.5 ], [ -78.41667, 38.45833 ], [ -78.375, 38.5 ], [ -78.41667, 38.5 ] ] ] ] } },
{ "type": "Feature", "properties": { "ID": 30 }, "geometry": { "type": "MultiPolygon", "coordinates": [ [ [ [ -83.20833, 43.45833 ], [ -83.20833, 43.33333 ], [ -83.16667, 43.33333 ], [ -83.16667, 43.45833 ], [ -83.20833, 43.45833 ] ] ], [ [ [ -75.54167, 42.58333 ], [ -75.54167, 42.5 ], [ -75.5, 42.5 ], [ -75.5, 42.58333 ], [ -75.54167, 42.58333 ] ] ], [ [ [ -77.0, 42.54167 ], [ -77.0, 42.58333 ], [ -77.08333, 42.58333 ], [ -77.125, 42.54167 ], [ -77.125, 42.5 ], [ -77.04167, 42.5 ], [ -77.0, 42.54167 ] ] ], [ [ [ -72.75, 42.625 ], [ -72.75, 42.5 ], [ -72.70833, 42.5 ], [ -72.66667, 42.45833 ], [ -72.66667, 42.54167 ], [ -72.70833, 42.54167 ], [ -72.70833, 42.625 ], [ -72.75, 42.625 ] ] ], [ [ [ -77.79167, 42.45833 ], [ -77.75, 42.45833 ], [ -77.75, 42.54167 ], [ -77.79167, 42.54167 ], [ -77.79167, 42.45833 ] ] ], [ [ [ -72.5, 42.5 ], [ -72.5, 42.41667 ], [ -72.45833, 42.41667 ], [ -72.45833, 42.5 ], [ -72.5, 42.5 ] ] ], [ [ [ -77.125, 42.5 ], [ -77.20833, 42.41667 ], [ -77.16667, 42.375 ], [ -77.08333, 42.375 ], [ -77.04167, 42.375 ], [ -77.04167, 42.45833 ], [ -77.125, 42.45833 ], [ -77.125, 42.5 ] ] ], [ [ [ -76.875, 42.45833 ], [ -76.91667, 42.41667 ], [ -76.91667, 42.375 ], [ -76.83333, 42.375 ], [ -76.83333, 42.41667 ], [ -76.75, 42.41667 ], [ -76.75, 42.45833 ], [ -76.875, 42.45833 ] ] ], [ [ [ -72.75, 42.41667 ], [ -72.75, 42.375 ], [ -72.66667, 42.375 ], [ -72.66667, 42.41667 ], [ -72.75, 42.41667 ] ] ], [ [ [ -76.04167, 42.375 ], [ -76.04167, 42.33333 ], [ -75.95833, 42.33333 ], [ -75.95833, 42.375 ], [ -76.04167, 42.375 ] ] ], [ [ [ -77.75, 42.41667 ], [ -77.75, 42.33333 ], [ -77.70833, 42.29167 ], [ -77.58333, 42.29167 ], [ -77.58333, 42.375 ], [ -77.625, 42.375 ], [ -77.625, 42.41667 ], [ -77.66667, 42.41667 ], [ -77.66667, 42.375 ], [ -77.75, 42.41667 ] ] ], [ [ [ -72.08333, 42.41667 ], [ -72.08333, 42.29167 ], [ -72.04167, 42.29167 ], [ -72.04167, 42.41667 ], [ -72.08333, 42.41667 ] ] ], [ [ [ -75.91667, 42.375 ], [ -75.91667, 42.29167 ], [ -75.875, 42.29167 ], [ -75.875, 42.375 ], [ -75.91667, 42.375 ] ] ], [ [ [ -77.45833, 42.33333 ], [ -77.45833, 42.29167 ], [ -77.375, 42.29167 ], [ -77.375, 42.33333 ], [ -77.45833, 42.33333 ] ] ], [ [ [ -75.41667, 42.41667 ], [ -75.41667, 42.33333 ], [ -75.45833, 42.33333 ], [ -75.45833, 42.29167 ], [ -75.29167, 42.29167 ], [ -75.29167, 42.33333 ], [ -75.375, 42.33333 ], [ -75.375, 42.41667 ], [ -75.41667, 42.41667 ] ] ], [ [ [ -78.16667, 42.45833 ], [ -78.16667, 42.33333 ], [ -78.125, 42.33333 ], [ -78.08333, 42.29167 ], [ -78.08333, 42.25 ], [ -78.04167, 42.25 ], [ -78.04167, 42.33333 ], [ -78.08333, 42.33333 ], [ -78.08333, 42.375 ], [ -78.04167, 42.41667 ], [ -78.04167, 42.45833 ], [ -78.16667, 42.45833 ] ] ], [ [ [ -76.95833, 42.33333 ], [ -76.95833, 42.25 ], [ -76.91667, 42.25 ], [ -76.91667, 42.33333 ], [ -76.95833, 42.33333 ] ] ], [ [ [ -72.91667, 42.33333 ], [ -72.91667, 42.25 ], [ -72.875, 42.25 ], [ -72.83333, 42.29167 ], [ -72.83333, 42.33333 ], [ -72.91667, 42.33333 ] ] ], [ [ [ -77.58333, 42.29167 ], [ -77.58333, 42.25 ], [ -77.54167, 42.25 ], [ -77.58333, 42.29167 ] ] ], [ [ [ -75.5, 42.29167 ], [ -75.5, 42.25 ], [ -75.45833, 42.25 ], [ -75.45833, 42.29167 ], [ -75.5, 42.29167 ] ] ], [ [ [ -73.0, 42.29167 ], [ -73.0, 42.25 ], [ -72.95833, 42.25 ], [ -73.0, 42.29167 ] ] ], [ [ [ -72.29167, 42.5 ], [ -72.33333, 42.5 ], [ -72.33333, 42.41667 ], [ -72.375, 42.41667 ], [ -72.41667, 42.41667 ], [ -72.45833, 42.41667 ], [ -72.45833, 42.33333 ], [ -72.375, 42.33333 ], [ -72.375, 42.25 ], [ -72.33333, 42.25 ], [ -72.29167, 42.29167 ], [ -72.29167, 42.20833 ], [ -72.20833, 42.20833 ], [ -72.20833, 42.25 ], [ -72.125, 42.20833 ], [ -72.125, 42.375 ], [ -72.20833, 42.375 ], [ -72.20833, 42.45833 ], [ -72.29167, 42.45833 ], [ -72.29167, 42.5 ] ] ], [ [ [ -75.875, 42.29167 ], [ -75.875, 42.20833 ], [ -75.79167, 42.20833 ], [ -75.79167, 42.29167 ], [ -75.875, 42.29167 ] ] ], [ [ [ -78.04167, 42.25 ], [ -78.04167, 42.20833 ], [ -78.0, 42.20833 ], [ -78.04167, 42.25 ] ] ], [ [ [ -77.625, 42.25 ], [ -77.58333, 42.20833 ], [ -77.58333, 42.25 ], [ -77.625, 42.25 ] ] ], [ [ [ -75.91667, 42.29167 ], [ -75.95833, 42.29167 ], [ -75.95833, 42.16667 ], [ -75.91667, 42.16667 ], [ -75.91667, 42.29167 ] ] ], [ [ [ -79.08333, 42.20833 ], [ -79.08333, 42.16667 ], [ -79.04167, 42.16667 ], [ -79.08333, 42.20833 ] ] ], [ [ [ -72.91667, 42.20833 ], [ -72.91667, 42.125 ], [ -72.83333, 42.125 ], [ -72.83333, 42.16667 ], [ -72.875, 42.20833 ], [ -72.91667, 42.20833 ] ] ], [ [ [ -72.125, 42.20833 ], [ -72.04167, 42.125 ], [ -72.0, 42.16667 ], [ -72.0, 42.25 ], [ -72.08333, 42.25 ], [ -72.125, 42.20833 ] ] ], [ [ [ -79.0, 42.16667 ], [ -79.0, 42.125 ], [ -78.91667, 42.125 ], [ -78.91667, 42.16667 ], [ -79.0, 42.16667 ] ] ], [ [ [ -75.95833, 42.16667 ], [ -76.04167, 42.16667 ], [ -76.04167, 42.125 ], [ -75.95833, 42.125 ], [ -75.95833, 42.16667 ] ] ], [ [ [ -72.16667, 42.125 ], [ -72.16667, 42.08333 ], [ -72.125, 42.08333 ], [ -72.16667, 42.125 ] ] ], [ [ [ -78.41667, 42.08333 ], [ -78.41667, 42.04167 ], [ -78.33333, 42.04167 ], [ -78.33333, 42.08333 ], [ -78.41667, 42.08333 ] ] ], [ [ [ -72.125, 42.08333 ], [ -72.125, 42.04167 ], [ -72.08333, 42.04167 ], [ -72.125, 42.08333 ] ] ], [ [ [ -78.33333, 42.04167 ], [ -78.33333, 42.0 ], [ -78.29167, 42.04167 ], [ -78.33333, 42.04167 ] ] ], [ [ [ -75.79167, 42.0 ], [ -75.79167, 42.16667 ], [ -75.91667, 42.04167 ], [ -75.875, 42.0 ], [ -75.875, 41.95833 ], [ -75.75, 41.95833 ], [ -75.75, 42.0 ], [ -75.79167, 42.0 ] ] ], [ [ [ -76.0, 41.95833 ], [ -76.04167, 42.04167 ], [ -76.08333, 42.04167 ], [ -76.08333, 42.0 ], [ -76.04167, 41.95833 ], [ -76.0, 41.95833 ] ] ], [ [ [ -72.08333, 42.04167 ], [ -72.08333, 41.95833 ], [ -72.04167, 41.95833 ], [ -72.04167, 42.04167 ], [ -72.08333, 42.04167 ] ] ], [ [ [ -75.20833, 42.0 ], [ -75.25, 41.95833 ], [ -75.20833, 41.95833 ], [ -75.20833, 42.0 ] ] ], [ [ [ -76.25, 41.95833 ], [ -76.20833, 42.0 ], [ -76.16667, 41.95833 ], [ -76.08333, 41.95833 ], [ -76.08333, 42.0 ], [ -76.125, 42.04167 ], [ -76.33333, 42.04167 ], [ -76.375, 42.0 ], [ -76.375, 41.91667 ], [ -76.29167, 41.95833 ], [ -76.29167, 41.875 ], [ -76.25, 41.875 ], [ -76.25, 41.79167 ], [ -76.20833, 41.75 ], [ -76.20833, 41.66667 ], [ -76.33333, 41.66667 ], [ -76.33333, 41.70833 ], [ -76.41667, 41.70833 ], [ -76.45833, 41.66667 ], [ -76.45833, 41.625 ], [ -76.375, 41.625 ], [ -76.33333, 41.58333 ], [ -76.33333, 41.54167 ], [ -76.20833, 41.54167 ], [ -76.16667, 41.54167 ], [ -76.16667, 41.45833 ], [ -76.125, 41.45833 ], [ -76.08333, 41.5 ], [ -76.08333, 41.54167 ], [ -76.08333, 41.70833 ], [ -76.0, 41.66667 ], [ -76.0, 41.54167 ], [ -76.04167, 41.54167 ], [ -76.04167, 41.45833 ], [ -76.08333, 41.45833 ], [ -76.125, 41.41667 ], [ -76.125, 41.33333 ], [ -76.25, 41.33333 ], [ -76.25, 41.29167 ], [ -76.33333, 41.25 ], [ -76.33333, 41.20833 ], [ -76.25, 41.20833 ], [ -76.25, 41.25 ], [ -76.16667, 41.25 ], [ -76.16667, 41.20833 ], [ -76.08333, 41.20833 ], [ -76.08333, 41.08333 ], [ -76.04167, 41.08333 ], [ -76.04167, 41.04167 ], [ -76.08333, 41.04167 ], [ -76.125, 41.0 ], [ -76.20833, 40.91667 ], [ -76.20833, 40.875 ], [ -76.16667, 40.875 ], [ -76.16667, 40.79167 ], [ -76.25, 40.79167 ], [ -76.25, 40.75 ], [ -76.04167, 40.75 ], [ -76.0, 40.79167 ], [ -76.0, 40.83333 ], [ -75.95833, 40.79167 ], [ -75.83333, 40.79167 ], [ -75.79167, 40.83333 ], [ -75.79167, 40.875 ], [ -75.625, 40.875 ], [ -75.625, 40.91667 ], [ -75.54167, 40.91667 ], [ -75.54167, 40.95833 ], [ -75.41667, 40.95833 ], [ -75.41667, 41.0 ], [ -75.54167, 41.0 ], [ -75.54167, 41.04167 ], [ -75.625, 41.04167 ], [ -75.66667, 41.0 ], [ -75.70833, 41.04167 ], [ -75.75, 41.125 ], [ -75.875, 41.125 ], [ -75.875, 41.16667 ], [ -75.79167, 41.16667 ], [ -75.79167, 41.20833 ], [ -75.91667, 41.20833 ], [ -75.91667, 41.16667 ], [ -76.04167, 41.16667 ], [ -75.91667, 41.29167 ], [ -75.875, 41.33333 ], [ -75.79167, 41.33333 ], [ -75.70833, 41.41667 ], [ -75.70833, 41.58333 ], [ -75.75, 41.58333 ], [ -75.70833, 41.625 ], [ -75.70833, 41.70833 ], [ -75.79167, 41.66667 ], [ -75.83333, 41.70833 ], [ -75.83333, 41.75 ], [ -75.91667, 41.70833 ], [ -75.91667, 41.79167 ], [ -75.95833, 41.79167 ], [ -75.95833, 41.83333 ], [ -75.95833, 41.875 ], [ -75.95833, 41.91667 ], [ -76.04167, 41.91667 ], [ -76.04167, 41.83333 ], [ -76.08333, 41.83333 ], [ -76.08333, 41.91667 ], [ -76.25, 41.91667 ], [ -76.25, 41.95833 ] ], [ [ -76.16667, 41.70833 ], [ -76.125, 41.70833 ], [ -76.125, 41.625 ], [ -76.16667, 41.625 ], [ -76.16667, 41.70833 ] ], [ [ -75.79167, 41.66667 ], [ -75.79167, 41.58333 ], [ -75.83333, 41.58333 ], [ -75.83333, 41.66667 ], [ -75.79167, 41.66667 ] ], [ [ -75.95833, 41.58333 ], [ -75.91667, 41.58333 ], [ -75.91667, 41.5 ], [ -75.95833, 41.5 ], [ -75.95833, 41.58333 ] ] ], [ [ [ -79.45833, 41.91667 ], [ -79.45833, 41.95833 ], [ -79.54167, 41.95833 ], [ -79.54167, 41.91667 ], [ -79.45833, 41.91667 ] ] ], [ [ [ -78.91667, 42.04167 ], [ -78.95833, 42.04167 ], [ -78.95833, 41.875 ], [ -78.91667, 41.91667 ], [ -78.91667, 42.04167 ] ] ], [ [ [ -75.29167, 41.95833 ], [ -75.29167, 41.875 ], [ -75.25, 41.875 ], [ -75.25, 41.95833 ], [ -75.29167, 41.95833 ] ] ], [ [ [ -78.41667, 41.91667 ], [ -78.41667, 41.875 ], [ -78.33333, 41.875 ], [ -78.33333, 41.91667 ], [ -78.41667, 41.91667 ] ] ], [ [ [ -78.45833, 41.875 ], [ -78.41667, 41.83333 ], [ -78.41667, 41.875 ], [ -78.45833, 41.875 ] ] ], [ [ [ -76.375, 41.875 ], [ -76.375, 41.79167 ], [ -76.33333, 41.79167 ], [ -76.33333, 41.875 ], [ -76.375, 41.875 ] ] ], [ [ [ -75.29167, 41.83333 ], [ -75.29167, 41.79167 ], [ -75.25, 41.83333 ], [ -75.29167, 41.83333 ] ] ], [ [ [ -74.58333, 41.83333 ], [ -74.66667, 41.83333 ], [ -74.66667, 41.79167 ], [ -74.58333, 41.79167 ], [ -74.58333, 41.83333 ] ] ], [ [ [ -76.33333, 41.79167 ], [ -76.25, 41.70833 ], [ -76.25, 41.79167 ], [ -76.33333, 41.79167 ] ] ], [ [ [ -76.54167, 41.66667 ], [ -76.54167, 41.70833 ], [ -76.66667, 41.70833 ], [ -76.625, 41.66667 ], [ -76.625, 41.625 ], [ -76.54167, 41.66667 ] ] ], [ [ [ -80.29167, 41.66667 ], [ -80.29167, 41.625 ], [ -80.20833, 41.625 ], [ -80.20833, 41.66667 ], [ -80.29167, 41.66667 ] ] ], [ [ [ -80.125, 41.625 ], [ -80.04167, 41.625 ], [ -80.04167, 41.66667 ], [ -80.125, 41.66667 ], [ -80.125, 41.625 ] ] ], [ [ [ -78.25, 41.625 ], [ -78.25, 41.58333 ], [ -78.20833, 41.625 ], [ -78.25, 41.625 ] ] ], [ [ [ -78.33333, 41.625 ], [ -78.33333, 41.58333 ], [ -78.41667, 41.58333 ], [ -78.41667, 41.54167 ], [ -78.33333, 41.54167 ], [ -78.33333, 41.5 ], [ -78.29167, 41.5 ], [ -78.29167, 41.54167 ], [ -78.25, 41.58333 ], [ -78.33333, 41.625 ] ] ], [ [ [ -76.5, 41.58333 ], [ -76.5, 41.5 ], [ -76.41667, 41.54167 ], [ -76.41667, 41.58333 ], [ -76.5, 41.58333 ] ] ], [ [ [ -75.54167, 41.58333 ], [ -75.58333, 41.54167 ], [ -75.58333, 41.5 ], [ -75.5, 41.5 ], [ -75.5, 41.58333 ], [ -75.54167, 41.58333 ] ] ], [ [ [ -79.25, 42.125 ], [ -79.33333, 42.08333 ], [ -79.33333, 42.0 ], [ -79.41667, 42.0 ], [ -79.41667, 41.95833 ], [ -79.375, 41.91667 ], [ -79.45833, 41.91667 ], [ -79.45833, 41.875 ], [ -79.54167, 41.875 ], [ -79.54167, 41.91667 ], [ -79.58333, 41.95833 ], [ -79.625, 41.95833 ], [ -79.66667, 41.91667 ], [ -79.66667, 41.875 ], [ -79.75, 41.875 ], [ -79.75, 41.83333 ], [ -79.83333, 41.83333 ], [ -79.83333, 41.79167 ], [ -79.79167, 41.75 ], [ -79.79167, 41.70833 ], [ -79.70833, 41.70833 ], [ -79.66667, 41.66667 ], [ -79.66667, 41.625 ], [ -79.54167, 41.625 ], [ -79.54167, 41.58333 ], [ -79.58333, 41.54167 ], [ -79.58333, 41.41667 ], [ -79.54167, 41.41667 ], [ -79.54167, 41.33333 ], [ -79.5, 41.33333 ], [ -79.5, 41.45833 ], [ -79.45833, 41.5 ], [ -79.41667, 41.45833 ], [ -79.25, 41.45833 ], [ -79.25, 41.54167 ], [ -79.20833, 41.58333 ], [ -79.125, 41.58333 ], [ -79.125, 41.45833 ], [ -79.08333, 41.45833 ], [ -79.08333, 41.54167 ], [ -78.875, 41.54167 ], [ -78.875, 41.58333 ], [ -78.91667, 41.58333 ], [ -78.91667, 41.66667 ], [ -79.04167, 41.79167 ], [ -79.04167, 41.875 ], [ -79.08333, 41.875 ], [ -79.08333, 42.0 ], [ -79.125, 42.04167 ], [ -79.20833, 42.04167 ], [ -79.20833, 42.08333 ], [ -79.25, 42.125 ] ], [ [ -79.66667, 41.75 ], [ -79.70833, 41.75 ], [ -79.70833, 41.83333 ], [ -79.66667, 41.83333 ], [ -79.66667, 41.75 ] ], [ [ -79.66667, 41.75 ], [ -79.625, 41.75 ], [ -79.625, 41.66667 ], [ -79.66667, 41.66667 ], [ -79.66667, 41.75 ] ] ], [ [ [ -78.41667, 41.5 ], [ -78.5, 41.5 ], [ -78.5, 41.33333 ], [ -78.41667, 41.41667 ], [ -78.41667, 41.45833 ], [ -78.41667, 41.5 ] ] ], [ [ [ -76.70833, 41.58333 ], [ -76.70833, 41.5 ], [ -76.79167, 41.5 ], [ -76.79167, 41.45833 ], [ -76.66667, 41.45833 ], [ -76.66667, 41.41667 ], [ -76.70833, 41.375 ], [ -76.58333, 41.375 ], [ -76.625, 41.41667 ], [ -76.625, 41.5 ], [ -76.66667, 41.5 ], [ -76.66667, 41.58333 ], [ -76.70833, 41.58333 ] ] ], [ [ [ -78.58333, 41.41667 ], [ -78.58333, 41.29167 ], [ -78.54167, 41.29167 ], [ -78.54167, 41.41667 ], [ -78.58333, 41.41667 ] ] ], [ [ [ -78.25, 41.33333 ], [ -78.25, 41.29167 ], [ -78.16667, 41.29167 ], [ -78.16667, 41.33333 ], [ -78.25, 41.33333 ] ] ], [ [ [ -75.625, 41.375 ], [ -75.70833, 41.29167 ], [ -75.625, 41.29167 ], [ -75.625, 41.375 ] ] ], [ [ [ -76.375, 41.33333 ], [ -76.375, 41.29167 ], [ -76.5, 41.29167 ], [ -76.5, 41.25 ], [ -76.33333, 41.25 ], [ -76.33333, 41.33333 ], [ -76.375, 41.33333 ] ] ], [ [ [ -74.75, 41.20833 ], [ -74.70833, 41.20833 ], [ -74.70833, 41.29167 ], [ -74.75, 41.29167 ], [ -74.75, 41.20833 ] ] ], [ [ [ -74.79167, 41.20833 ], [ -74.79167, 41.16667 ], [ -74.75, 41.20833 ], [ -74.79167, 41.20833 ] ] ], [ [ [ -74.41667, 41.20833 ], [ -74.45833, 41.20833 ], [ -74.45833, 41.125 ], [ -74.5, 41.125 ], [ -74.5, 41.08333 ], [ -74.41667, 41.08333 ], [ -74.41667, 41.20833 ] ] ], [ [ [ -75.25, 41.875 ], [ -75.25, 41.83333 ], [ -75.25, 41.75 ], [ -75.33333, 41.75 ], [ -75.33333, 41.66667 ], [ -75.375, 41.66667 ], [ -75.375, 41.58333 ], [ -75.41667, 41.58333 ], [ -75.41667, 41.45833 ], [ -75.375, 41.45833 ], [ -75.375, 41.41667 ], [ -75.45833, 41.41667 ], [ -75.45833, 41.375 ], [ -75.41667, 41.33333 ], [ -75.33333, 41.33333 ], [ -75.29167, 41.29167 ], [ -75.29167, 41.375 ], [ -75.25, 41.375 ], [ -75.20833, 41.375 ], [ -75.16667, 41.375 ], [ -75.125, 41.33333 ], [ -75.16667, 41.29167 ], [ -75.16667, 41.25 ], [ -75.25, 41.25 ], [ -75.375, 41.125 ], [ -75.375, 41.04167 ], [ -75.41667, 41.0 ], [ -75.33333, 41.0 ], [ -75.33333, 41.04167 ], [ -75.25, 41.04167 ], [ -75.16667, 41.125 ], [ -74.95833, 41.125 ], [ -74.91667, 41.16667 ], [ -74.91667, 41.25 ], [ -74.875, 41.25 ], [ -74.875, 41.33333 ], [ -74.79167, 41.33333 ], [ -74.79167, 41.41667 ], [ -74.70833, 41.45833 ], [ -74.625, 41.45833 ], [ -74.625, 41.54167 ], [ -74.66667, 41.58333 ], [ -74.625, 41.625 ], [ -74.75, 41.625 ], [ -74.79167, 41.58333 ], [ -74.79167, 41.66667 ], [ -74.70833, 41.66667 ], [ -74.70833, 41.70833 ], [ -74.75, 41.75 ], [ -74.79167, 41.79167 ], [ -74.875, 41.79167 ], [ -74.875, 41.83333 ], [ -74.91667, 41.83333 ], [ -74.91667, 41.79167 ], [ -74.95833, 41.83333 ], [ -75.04167, 41.83333 ], [ -75.04167, 41.875 ], [ -75.25, 41.875 ] ], [ [ -74.875, 41.70833 ], [ -74.79167, 41.70833 ], [ -74.79167, 41.66667 ], [ -74.83333, 41.625 ], [ -74.875, 41.625 ], [ -74.875, 41.70833 ] ], [ [ -75.08333, 41.625 ], [ -75.0, 41.54167 ], [ -75.125, 41.54167 ], [ -75.125, 41.58333 ], [ -75.08333, 41.625 ] ] ], [ [ [ -74.5, 41.08333 ], [ -74.58333, 41.08333 ], [ -74.625, 41.04167 ], [ -74.625, 41.0 ], [ -74.54167, 41.0 ], [ -74.54167, 41.04167 ], [ -74.5, 41.08333 ] ] ], [ [ [ -77.25, 41.0 ], [ -77.25, 40.95833 ], [ -77.16667, 40.95833 ], [ -77.16667, 41.0 ], [ -77.25, 41.0 ] ] ], [ [ [ -78.75, 40.625 ], [ -78.75, 40.58333 ], [ -78.66667, 40.58333 ], [ -78.66667, 40.625 ], [ -78.75, 40.625 ] ] ], [ [ [ -78.41667, 40.625 ], [ -78.41667, 40.58333 ], [ -78.375, 40.625 ], [ -78.41667, 40.625 ] ] ], [ [ [ -78.54167, 40.5 ], [ -78.54167, 40.58333 ], [ -78.58333, 40.58333 ], [ -78.58333, 40.5 ], [ -78.54167, 40.5 ] ] ] ] } },
{ "type": "Feature", "properties": { "ID": 31 }, "geometry": { "type": "MultiPolygon", "coordinates": [ [ [ [ -79.25, 39.20833 ], [ -79.29167, 39.20833 ], [ -79.29167, 39.125 ], [ -79.25, 39.125 ], [ -79.25, 39.20833 ] ] ], [ [ [ -79.29167, 39.125 ], [ -79.41667, 39.0 ], [ -79.375, 38.95833 ], [ -79.33333, 38.95833 ], [ -79.29167, 39.0 ], [ -79.29167, 39.125 ] ] ], [ [ [ -79.375, 38.95833 ], [ -79.45833, 38.95833 ], [ -79.45833, 38.875 ], [ -79.375, 38.91667 ], [ -79.375, 38.95833 ] ] ], [ [ [ -79.54167, 38.79167 ], [ -79.625, 38.70833 ], [ -79.625, 38.66667 ], [ -79.54167, 38.66667 ], [ -79.54167, 38.70833 ], [ -79.45833, 38.79167 ], [ -79.54167, 38.79167 ] ] ], [ [ [ -79.75, 38.66667 ], [ -79.79167, 38.625 ], [ -79.79167, 38.58333 ], [ -79.66667, 38.58333 ], [ -79.625, 38.54167 ], [ -79.625, 38.66667 ], [ -79.75, 38.66667 ] ] ], [ [ [ -79.66667, 38.5 ], [ -79.75, 38.5 ], [ -79.75, 38.375 ], [ -79.66667, 38.41667 ], [ -79.66667, 38.5 ] ] ], [ [ [ -79.83333, 38.75 ], [ -79.875, 38.70833 ], [ -79.95833, 38.625 ], [ -79.95833, 38.54167 ], [ -80.0, 38.54167 ], [ -80.0, 38.375 ], [ -79.95833, 38.375 ], [ -79.875, 38.45833 ], [ -79.875, 38.54167 ], [ -79.83333, 38.54167 ], [ -79.83333, 38.66667 ], [ -79.79167, 38.66667 ], [ -79.79167, 38.75 ], [ -79.83333, 38.75 ] ] ], [ [ [ -80.33333, 38.16667 ], [ -80.25, 38.25 ], [ -80.16667, 38.25 ], [ -80.16667, 38.29167 ], [ -80.125, 38.33333 ], [ -80.125, 38.5 ], [ -80.20833, 38.5 ], [ -80.20833, 38.41667 ], [ -80.25, 38.41667 ], [ -80.25, 38.33333 ], [ -80.29167, 38.33333 ], [ -80.33333, 38.29167 ], [ -80.375, 38.25 ], [ -80.375, 38.20833 ], [ -80.33333, 38.16667 ] ] ], [ [ [ -81.625, 36.625 ], [ -81.45833, 36.625 ], [ -81.45833, 36.70833 ], [ -81.58333, 36.70833 ], [ -81.625, 36.66667 ], [ -81.625, 36.625 ] ] ], [ [ [ -81.70833, 36.58333 ], [ -81.70833, 36.54167 ], [ -81.625, 36.54167 ], [ -81.625, 36.58333 ], [ -81.70833, 36.58333 ] ] ], [ [ [ -81.58333, 36.41667 ], [ -81.58333, 36.375 ], [ -81.54167, 36.375 ], [ -81.58333, 36.41667 ] ] ], [ [ [ -81.625, 36.375 ], [ -81.70833, 36.375 ], [ -81.75, 36.33333 ], [ -81.75, 36.29167 ], [ -81.70833, 36.25 ], [ -81.66667, 36.25 ], [ -81.625, 36.29167 ], [ -81.625, 36.375 ] ] ], [ [ [ -81.83333, 36.20833 ], [ -81.91667, 36.20833 ], [ -81.91667, 36.08333 ], [ -81.79167, 36.08333 ], [ -81.79167, 36.16667 ], [ -81.83333, 36.20833 ] ] ], [ [ [ -82.16667, 36.16667 ], [ -82.16667, 36.08333 ], [ -82.08333, 36.08333 ], [ -82.08333, 36.04167 ], [ -82.04167, 36.04167 ], [ -82.0, 36.08333 ], [ -82.04167, 36.125 ], [ -82.125, 36.125 ], [ -82.125, 36.16667 ], [ -82.16667, 36.16667 ] ] ], [ [ [ -82.25, 35.875 ], [ -82.29167, 35.875 ], [ -82.29167, 35.79167 ], [ -82.25, 35.79167 ], [ -82.25, 35.875 ] ] ], [ [ [ -82.375, 35.83333 ], [ -82.375, 35.70833 ], [ -82.25, 35.70833 ], [ -82.25, 35.75 ], [ -82.29167, 35.79167 ], [ -82.33333, 35.83333 ], [ -82.375, 35.83333 ] ] ], [ [ [ -83.20833, 35.75 ], [ -83.29167, 35.75 ], [ -83.29167, 35.66667 ], [ -83.45833, 35.66667 ], [ -83.5, 35.625 ], [ -83.5, 35.58333 ], [ -83.625, 35.58333 ], [ -83.625, 35.54167 ], [ -83.45833, 35.54167 ], [ -83.45833, 35.58333 ], [ -83.375, 35.58333 ], [ -83.375, 35.625 ], [ -83.29167, 35.625 ], [ -83.25, 35.58333 ], [ -83.20833, 35.625 ], [ -83.20833, 35.5 ], [ -83.16667, 35.45833 ], [ -83.08333, 35.45833 ], [ -83.08333, 35.5 ], [ -83.16667, 35.58333 ], [ -83.16667, 35.66667 ], [ -83.20833, 35.70833 ], [ -83.20833, 35.75 ] ] ], [ [ [ -82.75, 35.41667 ], [ -82.79167, 35.375 ], [ -82.75, 35.375 ], [ -82.75, 35.41667 ] ] ], [ [ [ -82.875, 35.375 ], [ -82.95833, 35.375 ], [ -82.95833, 35.41667 ], [ -83.08333, 35.41667 ], [ -83.08333, 35.33333 ], [ -83.0, 35.33333 ], [ -83.0, 35.29167 ], [ -82.83333, 35.29167 ], [ -82.83333, 35.33333 ], [ -82.79167, 35.375 ], [ -82.83333, 35.375 ], [ -82.875, 35.41667 ], [ -82.875, 35.375 ] ] ] ] } },
{ "type": "Feature", "properties": { "ID": 32 }, "geometry": { "type": "MultiPolygon", "coordinates": [ [ [ [ -86.16667, 43.95833 ], [ -86.16667, 44.0 ], [ -86.25, 44.0 ], [ -86.25, 43.95833 ], [ -86.16667, 43.95833 ] ] ], [ [ [ -91.25, 43.70833 ], [ -91.25, 43.625 ], [ -91.20833, 43.625 ], [ -91.20833, 43.70833 ], [ -91.25, 43.70833 ] ] ], [ [ [ -83.29167, 43.45833 ], [ -83.29167, 43.5 ], [ -83.45833, 43.5 ], [ -83.45833, 43.375 ], [ -83.41667, 43.33333 ], [ -83.375, 43.29167 ], [ -83.33333, 43.25 ], [ -83.29167, 43.25 ], [ -83.29167, 43.375 ], [ -83.25, 43.375 ], [ -83.25, 43.45833 ], [ -83.29167, 43.45833 ] ] ], [ [ [ -88.04167, 43.25 ], [ -88.04167, 43.20833 ], [ -88.0, 43.20833 ], [ -88.0, 43.25 ], [ -88.04167, 43.25 ] ] ], [ [ [ -88.08333, 43.25 ], [ -88.125, 43.25 ], [ -88.125, 43.16667 ], [ -88.20833, 43.125 ], [ -88.16667, 43.125 ], [ -88.16667, 43.04167 ], [ -88.04167, 43.04167 ], [ -88.04167, 43.08333 ], [ -87.95833, 43.08333 ], [ -87.95833, 43.125 ], [ -87.91667, 43.16667 ], [ -88.04167, 43.16667 ], [ -88.04167, 43.20833 ], [ -88.08333, 43.25 ] ] ], [ [ [ -89.45833, 43.125 ], [ -89.375, 43.04167 ], [ -89.375, 43.125 ], [ -89.45833, 43.125 ] ] ], [ [ [ -88.25, 43.08333 ], [ -88.375, 43.08333 ], [ -88.375, 43.04167 ], [ -88.25, 43.04167 ], [ -88.25, 43.08333 ] ] ], [ [ [ -88.16667, 43.0 ], [ -88.16667, 43.04167 ], [ -88.20833, 43.0 ], [ -88.29167, 43.0 ], [ -88.29167, 42.91667 ], [ -88.16667, 42.91667 ], [ -88.16667, 42.83333 ], [ -88.04167, 42.83333 ], [ -88.04167, 42.875 ], [ -88.125, 42.875 ], [ -88.125, 42.91667 ], [ -88.04167, 42.91667 ], [ -88.04167, 43.0 ], [ -88.125, 42.95833 ], [ -88.16667, 43.0 ] ] ], [ [ [ -87.91667, 43.0 ], [ -87.95833, 42.95833 ], [ -87.95833, 42.91667 ], [ -87.875, 42.91667 ], [ -87.875, 43.0 ], [ -87.91667, 43.0 ] ] ], [ [ [ -88.54167, 42.58333 ], [ -88.54167, 42.54167 ], [ -88.41667, 42.54167 ], [ -88.41667, 42.58333 ], [ -88.54167, 42.58333 ] ] ] ] } },
{ "type": "Feature", "properties": { "ID": 33 }, "geometry": { "type": "MultiPolygon", "coordinates": [ [ [ [ -72.375, 41.16667 ], [ -72.41667, 41.125 ], [ -72.41667, 40.95833 ], [ -72.375, 40.95833 ], [ -72.375, 41.04167 ], [ -72.33333, 41.08333 ], [ -72.25, 41.08333 ], [ -72.25, 41.16667 ], [ -72.375, 41.16667 ] ] ], [ [ [ -73.16667, 41.0 ], [ -73.20833, 40.95833 ], [ -73.20833, 40.91667 ], [ -73.125, 40.91667 ], [ -73.125, 40.95833 ], [ -73.04167, 40.95833 ], [ -73.04167, 41.0 ], [ -73.16667, 41.0 ] ] ], [ [ [ -73.5, 40.95833 ], [ -73.5, 40.91667 ], [ -73.58333, 40.91667 ], [ -73.58333, 40.875 ], [ -73.45833, 40.875 ], [ -73.45833, 40.91667 ], [ -73.375, 40.91667 ], [ -73.375, 40.95833 ], [ -73.5, 40.95833 ] ] ], [ [ [ -73.66667, 40.83333 ], [ -73.625, 40.83333 ], [ -73.625, 40.91667 ], [ -73.66667, 40.91667 ], [ -73.66667, 40.83333 ] ] ], [ [ [ -73.66667, 40.83333 ], [ -73.79167, 40.83333 ], [ -73.79167, 40.79167 ], [ -73.66667, 40.79167 ], [ -73.66667, 40.83333 ] ] ], [ [ [ -74.08333, 40.58333 ], [ -74.08333, 40.54167 ], [ -74.0, 40.54167 ], [ -74.0, 40.58333 ], [ -74.08333, 40.58333 ] ] ], [ [ [ -73.91667, 40.625 ], [ -73.95833, 40.58333 ], [ -73.95833, 40.54167 ], [ -73.83333, 40.54167 ], [ -73.91667, 40.625 ] ] ], [ [ [ -74.04167, 40.5 ], [ -73.95833, 40.41667 ], [ -73.95833, 40.5 ], [ -74.04167, 40.5 ] ] ], [ [ [ -74.08333, 40.0 ], [ -74.08333, 39.91667 ], [ -74.125, 39.91667 ], [ -74.125, 39.79167 ], [ -74.16667, 39.79167 ], [ -74.16667, 39.70833 ], [ -74.08333, 39.70833 ], [ -74.08333, 39.875 ], [ -74.04167, 39.875 ], [ -74.04167, 40.0 ], [ -74.08333, 40.0 ] ] ], [ [ [ -76.375, 39.29167 ], [ -76.375, 39.20833 ], [ -76.33333, 39.20833 ], [ -76.33333, 39.29167 ], [ -76.375, 39.29167 ] ] ] ] } },
{ "type": "Feature", "properties": { "ID": 34 }, "geometry": { "type": "MultiPolygon", "coordinates": [ [ [ [ -74.91667, 41.25 ], [ -74.875, 41.20833 ], [ -74.875, 41.25 ], [ -74.91667, 41.25 ] ] ], [ [ [ -74.875, 41.20833 ], [ -74.875, 41.125 ], [ -74.79167, 41.125 ], [ -74.79167, 41.16667 ], [ -74.875, 41.20833 ] ] ], [ [ [ -75.08333, 41.04167 ], [ -75.08333, 41.0 ], [ -75.0, 41.0 ], [ -75.0, 41.04167 ], [ -75.08333, 41.04167 ] ] ], [ [ [ -74.45833, 41.04167 ], [ -74.45833, 40.95833 ], [ -74.41667, 40.95833 ], [ -74.41667, 41.04167 ], [ -74.45833, 41.04167 ] ] ], [ [ [ -74.54167, 41.0 ], [ -74.66667, 41.0 ], [ -74.625, 40.95833 ], [ -74.54167, 40.95833 ], [ -74.54167, 41.0 ] ] ], [ [ [ -75.16667, 41.125 ], [ -75.25, 41.04167 ], [ -75.33333, 41.04167 ], [ -75.33333, 41.0 ], [ -75.41667, 41.0 ], [ -75.41667, 40.95833 ], [ -75.54167, 40.95833 ], [ -75.54167, 40.91667 ], [ -75.625, 40.91667 ], [ -75.625, 40.875 ], [ -75.79167, 40.875 ], [ -75.79167, 40.83333 ], [ -75.54167, 40.83333 ], [ -75.54167, 40.79167 ], [ -75.29167, 40.79167 ], [ -75.29167, 40.875 ], [ -75.16667, 40.875 ], [ -75.16667, 40.91667 ], [ -75.08333, 41.0 ], [ -75.16667, 41.0 ], [ -75.16667, 40.95833 ], [ -75.25, 40.95833 ], [ -75.25, 41.0 ], [ -75.20833, 41.04167 ], [ -75.08333, 41.04167 ], [ -75.08333, 41.08333 ], [ -75.04167, 41.125 ], [ -75.16667, 41.125 ] ], [ [ -75.25, 40.95833 ], [ -75.25, 40.91667 ], [ -75.33333, 40.91667 ], [ -75.33333, 40.95833 ], [ -75.25, 40.95833 ] ] ], [ [ [ -76.0, 40.83333 ], [ -76.0, 40.75 ], [ -75.875, 40.75 ], [ -75.875, 40.66667 ], [ -75.79167, 40.70833 ], [ -75.70833, 40.70833 ], [ -75.70833, 40.75 ], [ -75.79167, 40.83333 ], [ -75.83333, 40.79167 ], [ -75.95833, 40.79167 ], [ -76.0, 40.83333 ] ] ], [ [ [ -78.41667, 38.54167 ], [ -78.41667, 38.5 ], [ -78.375, 38.5 ], [ -78.375, 38.54167 ], [ -78.41667, 38.54167 ] ] ], [ [ [ -81.625, 36.66667 ], [ -81.66667, 36.625 ], [ -81.625, 36.625 ], [ -81.625, 36.66667 ] ] ], [ [ [ -81.625, 36.375 ], [ -81.58333, 36.33333 ], [ -81.58333, 36.375 ], [ -81.625, 36.375 ] ] ], [ [ [ -81.91667, 36.0 ], [ -81.91667, 35.91667 ], [ -81.875, 35.91667 ], [ -81.875, 36.0 ], [ -81.91667, 36.0 ] ] ] ] } },
{ "type": "Feature", "properties": { "ID": 37 }, "geometry": { "type": "MultiPolygon", "coordinates": [ [ [ [ -79.70833, 39.0 ], [ -79.70833, 38.91667 ], [ -79.66667, 38.91667 ], [ -79.66667, 39.0 ], [ -79.70833, 39.0 ] ] ], [ [ [ -79.375, 38.95833 ], [ -79.375, 38.91667 ], [ -79.33333, 38.95833 ], [ -79.375, 38.95833 ] ] ], [ [ [ -79.45833, 38.79167 ], [ -79.5, 38.83333 ], [ -79.54167, 38.79167 ], [ -79.45833, 38.79167 ] ] ], [ [ [ -79.79167, 38.66667 ], [ -79.79167, 38.625 ], [ -79.75, 38.66667 ], [ -79.79167, 38.66667 ] ] ], [ [ [ -79.08333, 38.66667 ], [ -79.125, 38.625 ], [ -79.08333, 38.625 ], [ -79.08333, 38.66667 ] ] ], [ [ [ -79.66667, 38.58333 ], [ -79.70833, 38.58333 ], [ -79.70833, 38.5 ], [ -79.66667, 38.5 ], [ -79.66667, 38.58333 ] ] ], [ [ [ -79.125, 38.54167 ], [ -79.20833, 38.54167 ], [ -79.33333, 38.41667 ], [ -79.29167, 38.375 ], [ -79.20833, 38.375 ], [ -79.20833, 38.45833 ], [ -79.16667, 38.45833 ], [ -79.125, 38.5 ], [ -79.125, 38.54167 ] ] ], [ [ [ -81.58333, 36.41667 ], [ -81.625, 36.375 ], [ -81.58333, 36.375 ], [ -81.58333, 36.41667 ] ] ], [ [ [ -81.58333, 36.375 ], [ -81.58333, 36.33333 ], [ -81.54167, 36.375 ], [ -81.58333, 36.375 ] ] ], [ [ [ -81.91667, 36.08333 ], [ -81.91667, 36.125 ], [ -82.0, 36.125 ], [ -82.0, 36.08333 ], [ -81.91667, 36.08333 ] ] ], [ [ [ -82.25, 35.875 ], [ -82.25, 35.70833 ], [ -82.20833, 35.70833 ], [ -82.20833, 35.875 ], [ -82.25, 35.875 ] ] ], [ [ [ -83.70833, 35.58333 ], [ -83.70833, 35.54167 ], [ -83.625, 35.54167 ], [ -83.625, 35.58333 ], [ -83.70833, 35.58333 ] ] ], [ [ [ -83.45833, 35.54167 ], [ -83.54167, 35.54167 ], [ -83.54167, 35.5 ], [ -83.45833, 35.5 ], [ -83.45833, 35.54167 ] ] ], [ [ [ -83.20833, 35.16667 ], [ -83.20833, 35.08333 ], [ -83.16667, 35.08333 ], [ -83.16667, 35.16667 ], [ -83.20833, 35.16667 ] ] ], [ [ [ -83.5, 35.0 ], [ -83.45833, 35.0 ], [ -83.45833, 35.08333 ], [ -83.5, 35.08333 ], [ -83.5, 35.0 ] ] ] ] } },
{ "type": "Feature", "properties": { "ID": 38 }, "geometry": { "type": "MultiPolygon", "coordinates": [ [ [ [ -75.16667, 41.0 ], [ -75.125, 41.0 ], [ -75.125, 41.04167 ], [ -75.16667, 41.04167 ], [ -75.16667, 41.0 ] ] ] ] } },
{ "type": "Feature", "properties": { "ID": 40 }, "geometry": { "type": "MultiPolygon", "coordinates": [ [ [ [ -73.95833, 41.20833 ], [ -73.91667, 41.16667 ], [ -73.91667, 41.0 ], [ -73.875, 41.0 ], [ -73.875, 41.16667 ], [ -73.83333, 41.20833 ], [ -73.95833, 41.20833 ] ] ] ] } },
{ "type": "Feature", "properties": { "ID": 43 }, "geometry": { "type": "MultiPolygon", "coordinates": [ [ [ [ -76.0, 39.5 ], [ -76.0, 39.45833 ], [ -75.95833, 39.45833 ], [ -75.95833, 39.5 ], [ -76.0, 39.5 ] ] ] ] } }
]
}
