{
"type": "FeatureCollection",
"name": "Astragalus_crassicarpus",
"crs": { "type": "name", "properties": { "name": "urn:ogc:def:crs:OGC:1.3:CRS84" } },
"features": [
{ "type": "Feature", "properties": { "ID": 1 }, "geometry": { "type": "MultiPolygon", "coordinates": [ [ [ [ -116.875, 49.625 ], [ -116.7916667, 49.5416667 ], [ -116.7916667, 49.625 ], [ -116.875, 49.625 ] ] ] ] } },
{ "type": "Feature", "properties": { "ID": 2 }, "geometry": { "type": "MultiPolygon", "coordinates": [ [ [ [ -100.4166667, 51.7916667 ], [ -100.75, 52.0 ], [ -100.7916667, 51.5833333 ], [ -100.7916667, 51.5416667 ], [ -101.0833333, 51.4166667 ], [ -101.0, 51.25 ], [ -100.375, 51.3333333 ], [ -100.4166667, 51.7916667 ] ] ], [ [ [ -103.2083333, 51.5416667 ], [ -103.2083333, 51.25 ], [ -102.7916667, 51.25 ], [ -102.7916667, 51.5 ], [ -102.875, 51.5416667 ], [ -102.9166667, 51.5416667 ], [ -103.2083333, 51.5416667 ] ] ], [ [ [ -99.875, 50.0416667 ], [ -99.875, 49.9583333 ], [ -99.8333333, 49.9583333 ], [ -99.7916667, 50.0416667 ], [ -99.875, 50.0416667 ] ] ], [ [ [ -99.75, 49.9583333 ], [ -99.75, 49.875 ], [ -99.6666667, 49.875 ], [ -99.6666667, 49.9583333 ], [ -99.75, 49.9583333 ] ] ], [ [ [ -99.8333333, 49.9583333 ], [ -99.875, 49.9166667 ], [ -99.875, 49.875 ], [ -99.7916667, 49.875 ], [ -99.7916667, 49.9583333 ], [ -99.8333333, 49.9583333 ] ] ], [ [ [ -97.1666667, 49.9583333 ], [ -97.2083333, 49.9166667 ], [ -97.125, 49.9583333 ], [ -97.1666667, 49.9583333 ] ] ], [ [ [ -99.625, 49.875 ], [ -99.625, 49.8333333 ], [ -99.5833333, 49.7916667 ], [ -99.5416667, 49.7916667 ], [ -99.5416667, 49.875 ], [ -99.625, 49.875 ] ] ], [ [ [ -97.8333333, 49.5416667 ], [ -97.8333333, 49.5 ], [ -97.7916667, 49.5 ], [ -97.7916667, 49.5416667 ], [ -97.8333333, 49.5416667 ] ] ], [ [ [ -99.625, 49.5 ], [ -99.625, 49.4583333 ], [ -99.5833333, 49.4583333 ], [ -99.5833333, 49.5 ], [ -99.625, 49.5 ] ] ], [ [ [ -98.7083333, 50.1666667 ], [ -99.125, 50.25 ], [ -99.5833333, 50.8333333 ], [ -99.6666667, 50.3333333 ], [ -99.75, 50.2916667 ], [ -99.7916667, 50.0416667 ], [ -99.75, 50.0416667 ], [ -99.7083333, 50.0416667 ], [ -99.625, 50.0416667 ], [ -99.3333333, 50.1666667 ], [ -99.0833333, 49.9166667 ], [ -98.5, 49.9583333 ], [ -98.2916667, 49.7083333 ], [ -98.2916667, 49.4583333 ], [ -98.1666667, 49.5 ], [ -98.1666667, 49.5833333 ], [ -98.1666667, 49.625 ], [ -98.125, 49.625 ], [ -98.0833333, 49.625 ], [ -98.0833333, 49.5833333 ], [ -97.8333333, 49.5416667 ], [ -97.7916667, 49.5833333 ], [ -97.7916667, 49.625 ], [ -97.9166667, 49.8333333 ], [ -97.7083333, 50.0416667 ], [ -97.8333333, 50.125 ], [ -98.7083333, 50.1666667 ] ] ], [ [ [ -99.5, 49.5 ], [ -99.5, 49.4166667 ], [ -99.4166667, 49.4583333 ], [ -99.4583333, 49.4583333 ], [ -99.5, 49.5 ] ] ], [ [ [ -99.5833333, 49.375 ], [ -99.5833333, 49.3333333 ], [ -99.5416667, 49.3333333 ], [ -99.5833333, 49.375 ] ] ], [ [ [ -99.5416667, 49.3333333 ], [ -99.5416667, 49.2916667 ], [ -99.5, 49.2916667 ], [ -99.5416667, 49.3333333 ] ] ], [ [ [ -99.5, 49.2916667 ], [ -99.5, 49.25 ], [ -99.4583333, 49.25 ], [ -99.5, 49.2916667 ] ] ] ] } },
{ "type": "Feature", "properties": { "ID": 5 }, "geometry": { "type": "MultiPolygon", "coordinates": [ [ [ [ -100.4166667, 50.2916667 ], [ -100.25, 50.0416667 ], [ -100.0, 50.0 ], [ -99.9583333, 50.0 ], [ -99.875, 49.9583333 ], [ -99.875, 50.0416667 ], [ -99.7916667, 50.0416667 ], [ -99.75, 50.2916667 ], [ -100.0416667, 50.2083333 ], [ -100.4166667, 50.2916667 ] ] ], [ [ [ -99.875, 49.9583333 ], [ -99.875, 49.9166667 ], [ -99.8333333, 49.9583333 ], [ -99.875, 49.9583333 ] ] ], [ [ [ -99.625, 49.8333333 ], [ -99.625, 49.7916667 ], [ -99.5833333, 49.7916667 ], [ -99.625, 49.8333333 ] ] ], [ [ [ -99.6666667, 49.5 ], [ -99.625, 49.4583333 ], [ -99.625, 49.5 ], [ -99.6666667, 49.5 ] ] ], [ [ [ -97.75, 49.4166667 ], [ -97.75, 49.375 ], [ -97.7083333, 49.375 ], [ -97.7083333, 49.4166667 ], [ -97.75, 49.4166667 ] ] ], [ [ [ -96.9583333, 49.1666667 ], [ -96.9583333, 49.125 ], [ -96.9166667, 49.125 ], [ -96.9166667, 49.1666667 ], [ -96.9583333, 49.1666667 ] ] ], [ [ [ -97.2083333, 49.9166667 ], [ -97.7083333, 50.0416667 ], [ -97.9166667, 49.8333333 ], [ -97.7916667, 49.625 ], [ -97.7916667, 49.5 ], [ -97.7083333, 49.5 ], [ -97.7083333, 49.4583333 ], [ -97.6666667, 49.4166667 ], [ -97.625, 49.375 ], [ -97.5833333, 49.375 ], [ -97.1666667, 49.2083333 ], [ -97.1666667, 49.2916667 ], [ -97.125, 49.25 ], [ -97.0833333, 49.25 ], [ -96.9583333, 49.1666667 ], [ -96.9583333, 49.2083333 ], [ -96.875, 49.2083333 ], [ -96.875, 49.125 ], [ -96.7916667, 49.0833333 ], [ -96.7083333, 49.0416667 ], [ -96.7083333, 49.125 ], [ -96.75, 49.1666667 ], [ -96.7083333, 49.1666667 ], [ -96.7083333, 49.2083333 ], [ -96.625, 49.2083333 ], [ -96.625, 49.125 ], [ -96.5833333, 49.125 ], [ -96.5416667, 49.25 ], [ -96.5416667, 49.0833333 ], [ -96.5, 49.0833333 ], [ -96.4583333, 49.2083333 ], [ -96.5, 49.4166667 ], [ -96.8333333, 49.5 ], [ -96.75, 49.5833333 ], [ -96.75, 49.7083333 ], [ -97.125, 49.9583333 ], [ -97.2083333, 49.9166667 ] ], [ [ -97.0833333, 49.3333333 ], [ -96.9583333, 49.3333333 ], [ -96.9583333, 49.25 ], [ -97.0416667, 49.25 ], [ -97.0416667, 49.2916667 ], [ -97.0833333, 49.3333333 ] ] ], [ [ [ -96.625, 49.0416667 ], [ -96.625, 49.0 ], [ -96.5833333, 49.0 ], [ -96.5833333, 49.0416667 ], [ -96.625, 49.0416667 ] ] ], [ [ [ -100.0416667, 49.1666667 ], [ -100.5, 49.0833333 ], [ -100.3333333, 48.8333333 ], [ -100.0833333, 48.8333333 ], [ -100.0833333, 48.7916667 ], [ -100.0416667, 48.7916667 ], [ -100.0416667, 48.8333333 ], [ -99.9583333, 48.8333333 ], [ -99.9583333, 48.75 ], [ -99.75, 49.0 ], [ -99.75, 49.125 ], [ -99.7916667, 49.125 ], [ -99.7916667, 49.1666667 ], [ -100.0416667, 49.1666667 ] ] ], [ [ [ -98.1666667, 48.3333333 ], [ -98.0833333, 48.375 ], [ -98.0833333, 48.3333333 ], [ -98.0, 48.4166667 ], [ -98.0, 48.4583333 ], [ -98.0, 48.5 ], [ -98.0, 48.5833333 ], [ -97.9583333, 48.5833333 ], [ -97.9583333, 48.7916667 ], [ -98.0, 48.7916667 ], [ -98.0, 48.875 ], [ -98.0416667, 48.9583333 ], [ -98.125, 49.0833333 ], [ -98.2916667, 49.3333333 ], [ -98.2916667, 49.4166667 ], [ -98.2916667, 49.7083333 ], [ -98.5, 49.9583333 ], [ -99.0833333, 49.9166667 ], [ -99.3333333, 50.1666667 ], [ -99.625, 50.0416667 ], [ -99.7083333, 50.0416667 ], [ -99.75, 50.0416667 ], [ -99.7916667, 50.0416667 ], [ -99.8333333, 49.9583333 ], [ -99.7916667, 49.9583333 ], [ -99.7916667, 49.9166667 ], [ -99.75, 49.9166667 ], [ -99.75, 49.9583333 ], [ -99.6666667, 49.9583333 ], [ -99.6666667, 49.875 ], [ -99.5416667, 49.875 ], [ -99.5416667, 49.7916667 ], [ -99.4583333, 49.7916667 ], [ -99.4166667, 49.75 ], [ -99.3333333, 49.4583333 ], [ -99.4166667, 49.4583333 ], [ -99.5, 49.4166667 ], [ -99.5, 49.4583333 ], [ -99.625, 49.4583333 ], [ -99.5833333, 49.4166667 ], [ -99.5833333, 49.375 ], [ -99.5416667, 49.3333333 ], [ -99.5, 49.2916667 ], [ -99.4583333, 49.25 ], [ -99.3333333, 49.25 ], [ -98.9583333, 48.9583333 ], [ -98.75, 48.625 ], [ -98.3333333, 48.4583333 ], [ -98.3333333, 48.375 ], [ -98.2916667, 48.3333333 ], [ -98.2083333, 48.3333333 ], [ -98.2083333, 48.2916667 ], [ -98.1666667, 48.2916667 ], [ -98.1666667, 48.3333333 ] ] ], [ [ [ -105.5, 39.3333333 ], [ -105.5833333, 39.25 ], [ -105.5, 39.25 ], [ -105.5, 39.3333333 ] ] ], [ [ [ -105.5, 39.25 ], [ -105.5, 39.2083333 ], [ -105.4583333, 39.2083333 ], [ -105.4583333, 39.25 ], [ -105.5, 39.25 ] ] ], [ [ [ -105.0, 38.875 ], [ -105.1666667, 38.8333333 ], [ -105.1666667, 38.75 ], [ -104.9583333, 38.75 ], [ -104.9583333, 38.7916667 ], [ -105.0, 38.7916667 ], [ -105.0, 38.875 ] ] ], [ [ [ -106.0, 40.7083333 ], [ -105.9583333, 40.625 ], [ -106.0, 40.2916667 ], [ -105.75, 40.2916667 ], [ -105.75, 40.0416667 ], [ -105.7916667, 39.9166667 ], [ -105.8333333, 39.9166667 ], [ -105.875, 39.875 ], [ -105.9166667, 39.9583333 ], [ -105.9583333, 40.0 ], [ -106.0, 40.0 ], [ -106.0416667, 39.875 ], [ -106.1666667, 39.5416667 ], [ -106.0416667, 38.9166667 ], [ -105.9583333, 38.6666667 ], [ -105.9166667, 39.0833333 ], [ -105.9166667, 39.375 ], [ -105.5833333, 39.5 ], [ -105.5833333, 39.625 ], [ -105.75, 39.6666667 ], [ -105.5833333, 40.0 ], [ -105.5833333, 40.4583333 ], [ -105.875, 40.5416667 ], [ -106.0, 40.7083333 ] ] ], [ [ [ -105.875, 38.625 ], [ -105.625, 38.5416667 ], [ -105.5833333, 39.0 ], [ -105.9166667, 39.0833333 ], [ -105.7083333, 38.9166667 ], [ -105.875, 38.625 ] ] ], [ [ [ -105.25, 38.0833333 ], [ -105.25, 38.0416667 ], [ -105.2083333, 38.0 ], [ -105.1666667, 38.0 ], [ -105.125, 37.9583333 ], [ -105.125, 38.0416667 ], [ -105.1666667, 38.0833333 ], [ -105.25, 38.0833333 ] ] ], [ [ [ -105.6666667, 37.9583333 ], [ -105.6666667, 37.9166667 ], [ -105.625, 37.9166667 ], [ -105.6666667, 37.9583333 ] ] ], [ [ [ -105.125, 37.9583333 ], [ -105.125, 37.9166667 ], [ -105.0416667, 37.9166667 ], [ -105.0416667, 37.9583333 ], [ -105.125, 37.9583333 ] ] ], [ [ [ -105.4583333, 37.9166667 ], [ -105.5, 37.8333333 ], [ -105.4583333, 37.7916667 ], [ -105.4166667, 37.6666667 ], [ -105.4583333, 37.9166667 ] ] ], [ [ [ -105.2083333, 37.625 ], [ -105.1666667, 37.5833333 ], [ -105.1666667, 37.625 ], [ -105.2083333, 37.625 ] ] ], [ [ [ -105.2083333, 37.4583333 ], [ -105.2083333, 37.4166667 ], [ -105.1666667, 37.4166667 ], [ -105.2083333, 37.4583333 ] ] ] ] } },
{ "type": "Feature", "properties": { "ID": 7 }, "geometry": { "type": "MultiPolygon", "coordinates": [ [ [ [ -100.1666667, 48.8333333 ], [ -100.1666667, 48.7916667 ], [ -100.125, 48.7916667 ], [ -100.125, 48.8333333 ], [ -100.1666667, 48.8333333 ] ] ], [ [ [ -100.0416667, 48.8333333 ], [ -100.0416667, 48.75 ], [ -100.0, 48.75 ], [ -99.9583333, 48.7916667 ], [ -99.9583333, 48.8333333 ], [ -100.0416667, 48.8333333 ] ] ], [ [ [ -100.4166667, 48.7916667 ], [ -100.4166667, 48.75 ], [ -100.375, 48.75 ], [ -100.4166667, 48.7916667 ] ] ], [ [ [ -100.2916667, 48.8333333 ], [ -100.3333333, 48.75 ], [ -100.25, 48.75 ], [ -100.25, 48.8333333 ], [ -100.2916667, 48.8333333 ] ] ], [ [ [ -100.1666667, 48.7916667 ], [ -100.2083333, 48.75 ], [ -100.1666667, 48.75 ], [ -100.1666667, 48.7916667 ] ] ], [ [ [ -100.125, 48.7916667 ], [ -100.125, 48.75 ], [ -100.0833333, 48.75 ], [ -100.0833333, 48.7916667 ], [ -100.125, 48.7916667 ] ] ], [ [ [ -100.1666667, 48.75 ], [ -100.1666667, 48.7083333 ], [ -100.125, 48.75 ], [ -100.1666667, 48.75 ] ] ], [ [ [ -100.25, 48.75 ], [ -100.2916667, 48.6666667 ], [ -100.1666667, 48.7083333 ], [ -100.2083333, 48.75 ], [ -100.25, 48.75 ] ] ], [ [ [ -114.25, 48.125 ], [ -114.1666667, 47.7083333 ], [ -114.0, 47.7083333 ], [ -114.0416667, 48.125 ], [ -114.25, 48.125 ] ] ], [ [ [ -112.8333333, 51.3333333 ], [ -113.4583333, 51.3333333 ], [ -113.5833333, 51.5833333 ], [ -113.9583333, 51.8333333 ], [ -115.083333299999978, 51.875 ], [ -115.2083333, 51.7083333 ], [ -115.125, 50.9583333 ], [ -114.75, 50.5416667 ], [ -114.625, 49.9166667 ], [ -114.4166667, 49.5416667 ], [ -114.4166667, 49.3333333 ], [ -113.7916667, 48.875 ], [ -114.0833333, 48.375 ], [ -113.8333333, 48.3333333 ], [ -113.4583333, 47.9583333 ], [ -113.0416667, 47.875 ], [ -113.0416667, 47.6666667 ], [ -112.2083333, 46.9583333 ], [ -111.625, 46.5416667 ], [ -111.0833333, 46.25 ], [ -110.75, 45.625 ], [ -110.0416667, 45.5416667 ], [ -110.375, 45.75 ], [ -110.0833333, 46.0 ], [ -109.25, 46.2083333 ], [ -109.125, 46.375 ], [ -109.0416667, 47.1666667 ], [ -108.7083333, 47.2916667 ], [ -108.0416667, 47.25 ], [ -108.0, 47.25 ], [ -107.5, 47.25 ], [ -107.375, 47.4166667 ], [ -106.7916667, 47.3333333 ], [ -106.9166667, 47.75 ], [ -106.5, 48.0 ], [ -106.125, 47.7083333 ], [ -105.7916667, 47.9166667 ], [ -105.8333333, 48.375 ], [ -105.7916667, 48.9166667 ], [ -105.5, 49.0416667 ], [ -105.0833333, 49.0416667 ], [ -105.0, 48.75 ], [ -104.7916667, 48.5833333 ], [ -104.1666667, 48.375 ], [ -102.5, 48.375 ], [ -102.4583333, 48.375 ], [ -102.2083333, 48.4583333 ], [ -102.2083333, 48.7916667 ], [ -100.9583333, 48.9583333 ], [ -100.5833333, 48.7916667 ], [ -100.4166667, 48.7916667 ], [ -100.4166667, 48.8333333 ], [ -100.3333333, 48.8333333 ], [ -100.5, 49.0833333 ], [ -100.0416667, 49.1666667 ], [ -99.8333333, 49.1666667 ], [ -99.8333333, 49.2083333 ], [ -99.5833333, 49.2916667 ], [ -99.5416667, 49.2916667 ], [ -99.5416667, 49.3333333 ], [ -99.5833333, 49.3333333 ], [ -99.5833333, 49.4166667 ], [ -99.625, 49.4583333 ], [ -99.6666667, 49.5 ], [ -99.5833333, 49.5 ], [ -99.5833333, 49.4583333 ], [ -99.5, 49.4583333 ], [ -99.5, 49.5 ], [ -99.4583333, 49.4583333 ], [ -99.3333333, 49.4583333 ], [ -99.4166667, 49.75 ], [ -99.4583333, 49.7916667 ], [ -99.625, 49.7916667 ], [ -99.625, 49.875 ], [ -99.6666667, 49.875 ], [ -99.7083333, 49.875 ], [ -99.75, 49.875 ], [ -99.75, 49.9166667 ], [ -99.7916667, 49.9166667 ], [ -99.7916667, 49.875 ], [ -99.875, 49.875 ], [ -99.875, 49.9583333 ], [ -99.9583333, 50.0 ], [ -100.0, 50.0 ], [ -100.25, 50.0416667 ], [ -100.4166667, 50.2916667 ], [ -100.4583333, 50.3333333 ], [ -100.9583333, 50.5 ], [ -101.2916667, 50.8333333 ], [ -101.625, 50.875 ], [ -102.0416667, 51.125 ], [ -102.3333333, 51.125 ], [ -102.7916667, 51.5 ], [ -102.7916667, 51.25 ], [ -103.2083333, 51.25 ], [ -103.2083333, 51.5416667 ], [ -103.7083333, 51.375 ], [ -104.4166667, 51.7083333 ], [ -104.75, 51.5833333 ], [ -105.0, 51.3333333 ], [ -105.0, 50.9166667 ], [ -105.625, 51.1666667 ], [ -105.75, 51.0416667 ], [ -106.375, 50.9583333 ], [ -106.7916667, 51.2083333 ], [ -106.875, 51.4166667 ], [ -107.3333333, 51.4583333 ], [ -107.4583333, 51.3333333 ], [ -107.9583333, 51.25 ], [ -109.0, 51.2083333 ], [ -109.1666667, 51.375 ], [ -109.625, 51.5416667 ], [ -109.625, 51.2083333 ], [ -109.3333333, 51.0 ], [ -109.6666667, 51.0416667 ], [ -109.7916667, 51.2083333 ], [ -110.125, 51.25 ], [ -110.8333333, 51.2083333 ], [ -111.5416667, 50.9166667 ], [ -112.125, 50.875 ], [ -112.3333333, 51.2916667 ], [ -112.8333333, 51.3333333 ] ], [ [ -110.125, 49.3333333 ], [ -109.6666667, 49.25 ], [ -109.4166667, 49.0 ], [ -110.125, 49.0 ], [ -110.125, 49.3333333 ] ] ] ] } },
{ "type": "Feature", "properties": { "ID": 11 }, "geometry": { "type": "MultiPolygon", "coordinates": [ [ [ [ -97.7916667, 49.5833333 ], [ -97.8333333, 49.5416667 ], [ -97.7916667, 49.5416667 ], [ -97.7916667, 49.5833333 ] ] ], [ [ [ -97.7083333, 49.4583333 ], [ -97.7083333, 49.4166667 ], [ -97.6666667, 49.4166667 ], [ -97.7083333, 49.4583333 ] ] ], [ [ [ -97.6666667, 49.4166667 ], [ -97.6666667, 49.375 ], [ -97.625, 49.375 ], [ -97.6666667, 49.4166667 ] ] ], [ [ [ -97.7083333, 49.375 ], [ -97.7083333, 49.2916667 ], [ -97.6666667, 49.375 ], [ -97.7083333, 49.375 ] ] ], [ [ [ -97.0, 48.9166667 ], [ -97.0, 48.8333333 ], [ -96.9583333, 48.8333333 ], [ -96.9583333, 48.9166667 ], [ -97.0, 48.9166667 ] ] ], [ [ [ -100.125, 48.8333333 ], [ -100.125, 48.7916667 ], [ -100.0833333, 48.7916667 ], [ -100.0833333, 48.8333333 ], [ -100.125, 48.8333333 ] ] ], [ [ [ -100.25, 48.8333333 ], [ -100.25, 48.75 ], [ -100.2083333, 48.75 ], [ -100.1666667, 48.7916667 ], [ -100.1666667, 48.8333333 ], [ -100.25, 48.8333333 ] ] ], [ [ [ -100.1666667, 48.7916667 ], [ -100.1666667, 48.75 ], [ -100.125, 48.75 ], [ -100.125, 48.7916667 ], [ -100.1666667, 48.7916667 ] ] ], [ [ [ -96.9583333, 48.8333333 ], [ -96.9583333, 48.7083333 ], [ -96.9166667, 48.8333333 ], [ -96.9583333, 48.8333333 ] ] ], [ [ [ -100.2083333, 48.75 ], [ -100.1666667, 48.7083333 ], [ -100.1666667, 48.75 ], [ -100.2083333, 48.75 ] ] ], [ [ [ -96.25, 48.375 ], [ -96.25, 48.3333333 ], [ -96.2083333, 48.3333333 ], [ -96.25, 48.375 ] ] ], [ [ [ -96.1666667, 48.3333333 ], [ -96.125, 48.2916667 ], [ -96.125, 48.3333333 ], [ -96.1666667, 48.3333333 ] ] ], [ [ [ -106.7083333, 40.375 ], [ -106.7916667, 40.3333333 ], [ -106.6666667, 40.125 ], [ -106.625, 40.25 ], [ -106.7083333, 40.2916667 ], [ -106.7083333, 40.375 ] ] ], [ [ [ -105.9583333, 40.625 ], [ -106.125, 40.4583333 ], [ -106.4166667, 40.375 ], [ -106.2916667, 40.2916667 ], [ -106.2083333, 40.125 ], [ -105.875, 40.2083333 ], [ -105.75, 40.0416667 ], [ -105.75, 40.2916667 ], [ -106.0, 40.2916667 ], [ -105.9583333, 40.625 ] ] ], [ [ [ -105.6666667, 37.9166667 ], [ -105.625, 37.875 ], [ -105.625, 37.9166667 ], [ -105.6666667, 37.9166667 ] ] ], [ [ [ -105.5833333, 37.8333333 ], [ -105.4583333, 37.7916667 ], [ -105.5, 37.8333333 ], [ -105.5833333, 37.8333333 ] ] ], [ [ [ -97.8333333, 49.5416667 ], [ -98.0833333, 49.5833333 ], [ -98.0833333, 49.625 ], [ -98.1666667, 49.625 ], [ -98.1666667, 49.5 ], [ -98.2916667, 49.4583333 ], [ -98.2916667, 49.3333333 ], [ -98.125, 49.0833333 ], [ -98.0416667, 48.9583333 ], [ -98.0, 48.875 ], [ -98.0, 48.8333333 ], [ -97.9166667, 48.7916667 ], [ -97.9583333, 48.7916667 ], [ -97.9583333, 48.7083333 ], [ -97.9166667, 48.5833333 ], [ -98.0, 48.5833333 ], [ -98.0, 48.5416667 ], [ -98.0, 48.5 ], [ -98.0, 48.4166667 ], [ -98.0833333, 48.3333333 ], [ -98.0833333, 48.2916667 ], [ -98.1666667, 48.2916667 ], [ -98.1666667, 48.25 ], [ -98.2083333, 48.25 ], [ -98.2083333, 48.3333333 ], [ -98.25, 48.3333333 ], [ -98.3333333, 48.2916667 ], [ -98.3333333, 48.4583333 ], [ -98.75, 48.625 ], [ -98.9583333, 48.9583333 ], [ -99.3333333, 49.25 ], [ -99.5, 49.25 ], [ -99.5, 49.2916667 ], [ -99.5833333, 49.2916667 ], [ -99.8333333, 49.2083333 ], [ -99.8333333, 49.1666667 ], [ -99.7916667, 49.1666667 ], [ -99.7916667, 49.125 ], [ -99.75, 49.125 ], [ -99.75, 49.0833333 ], [ -99.75, 49.0 ], [ -99.9583333, 48.75 ], [ -99.9583333, 48.7916667 ], [ -100.0, 48.75 ], [ -100.0416667, 48.75 ], [ -100.0416667, 48.7916667 ], [ -100.0833333, 48.7916667 ], [ -100.0833333, 48.75 ], [ -100.125, 48.75 ], [ -100.1666667, 48.7083333 ], [ -100.2916667, 48.6666667 ], [ -100.25, 48.75 ], [ -100.3333333, 48.75 ], [ -100.2916667, 48.8333333 ], [ -100.4166667, 48.8333333 ], [ -100.4166667, 48.7916667 ], [ -100.5833333, 48.7916667 ], [ -100.9583333, 48.9583333 ], [ -102.2083333, 48.7916667 ], [ -102.2083333, 48.4583333 ], [ -102.4583333, 48.375 ], [ -102.5, 48.375 ], [ -104.1666667, 48.375 ], [ -104.7916667, 48.5833333 ], [ -105.0, 48.75 ], [ -105.0833333, 49.0416667 ], [ -105.5, 49.0416667 ], [ -105.7916667, 48.9166667 ], [ -105.8333333, 48.375 ], [ -105.7916667, 47.9166667 ], [ -106.125, 47.7083333 ], [ -106.5, 48.0 ], [ -106.9166667, 47.75 ], [ -106.7916667, 47.3333333 ], [ -107.375, 47.4166667 ], [ -107.5, 47.25 ], [ -108.0, 47.25 ], [ -108.0416667, 47.25 ], [ -108.7083333, 47.2916667 ], [ -109.0416667, 47.1666667 ], [ -109.125, 46.375 ], [ -109.25, 46.2083333 ], [ -110.0833333, 46.0 ], [ -110.375, 45.75 ], [ -110.0416667, 45.5416667 ], [ -110.0, 45.5416667 ], [ -109.9166667, 45.3333333 ], [ -109.75, 45.375 ], [ -109.75, 45.3333333 ], [ -109.5, 45.25 ], [ -109.5, 45.2083333 ], [ -109.375, 45.2083333 ], [ -109.375, 45.125 ], [ -109.3333333, 45.0833333 ], [ -109.2916667, 45.125 ], [ -109.2916667, 45.0416667 ], [ -109.2916667, 44.9166667 ], [ -109.3333333, 44.9166667 ], [ -109.375, 44.4166667 ], [ -109.0, 44.2916667 ], [ -109.0833333, 44.0 ], [ -108.875, 44.0 ], [ -108.7916667, 43.9583333 ], [ -108.625, 44.5416667 ], [ -108.875, 44.875 ], [ -108.8333333, 45.0833333 ], [ -108.3333333, 45.0 ], [ -107.7083333, 44.5833333 ], [ -107.7083333, 44.375 ], [ -107.3333333, 43.9166667 ], [ -108.0833333, 43.5833333 ], [ -108.125, 43.4166667 ], [ -107.75, 43.375 ], [ -107.5, 43.125 ], [ -107.75, 42.8333333 ], [ -107.375, 42.8333333 ], [ -107.4166667, 42.5416667 ], [ -107.75, 42.3333333 ], [ -107.0833333, 42.2083333 ], [ -107.375, 42.0833333 ], [ -107.5833333, 41.7916667 ], [ -107.6666667, 41.4583333 ], [ -107.5416667, 41.2083333 ], [ -107.0, 40.9583333 ], [ -106.7916667, 40.875 ], [ -106.6666667, 40.5833333 ], [ -106.6666667, 40.5416667 ], [ -106.5833333, 40.4583333 ], [ -106.5416667, 40.9166667 ], [ -106.4166667, 40.9583333 ], [ -106.0, 40.7083333 ], [ -105.875, 40.5416667 ], [ -105.5833333, 40.4583333 ], [ -105.5833333, 40.0 ], [ -105.75, 39.6666667 ], [ -105.5833333, 39.625 ], [ -105.5833333, 39.5833333 ], [ -105.5833333, 39.5416667 ], [ -105.5833333, 39.5 ], [ -105.9166667, 39.375 ], [ -105.9166667, 39.0833333 ], [ -105.5833333, 39.0 ], [ -105.625, 38.5416667 ], [ -105.875, 38.625 ], [ -105.9166667, 38.625 ], [ -105.9583333, 38.6666667 ], [ -106.0416667, 38.9166667 ], [ -106.1666667, 38.9166667 ], [ -106.1666667, 38.5 ], [ -105.9583333, 38.4583333 ], [ -105.9583333, 38.4166667 ], [ -105.875, 38.4166667 ], [ -105.875, 38.375 ], [ -105.8333333, 38.375 ], [ -105.6666667, 38.2916667 ], [ -105.6666667, 38.2083333 ], [ -105.625, 38.1666667 ], [ -105.5833333, 38.1666667 ], [ -105.5833333, 38.0833333 ], [ -105.5416667, 38.0416667 ], [ -105.5, 38.0416667 ], [ -105.5, 37.9583333 ], [ -105.4583333, 37.9166667 ], [ -105.4166667, 37.6666667 ], [ -105.2083333, 37.6666667 ], [ -105.2083333, 37.625 ], [ -105.125, 37.625 ], [ -105.1666667, 37.5833333 ], [ -105.125, 37.5 ], [ -105.125, 37.4166667 ], [ -105.0833333, 37.2916667 ], [ -105.0833333, 37.0833333 ], [ -105.125, 37.0833333 ], [ -105.125, 37.0 ], [ -105.1666667, 37.0 ], [ -105.1666667, 36.875 ], [ -105.1666667, 36.8333333 ], [ -105.0833333, 36.5 ], [ -105.125, 36.4166667 ], [ -105.4583333, 36.0833333 ], [ -105.5, 35.75 ], [ -105.5416667, 35.75 ], [ -105.7083333, 35.8333333 ], [ -105.875, 36.1666667 ], [ -106.0833333, 36.1666667 ], [ -106.2083333, 36.2916667 ], [ -106.125, 36.0416667 ], [ -106.0, 35.9166667 ], [ -106.0, 35.625 ], [ -105.875, 35.4583333 ], [ -105.625, 35.4166667 ], [ -105.625, 35.0833333 ], [ -105.25, 34.6666667 ], [ -105.0833333, 34.625 ], [ -105.125, 34.5833333 ], [ -104.9583333, 34.4583333 ], [ -104.875, 34.375 ], [ -104.4583333, 34.7083333 ], [ -104.2916667, 34.9166667 ], [ -103.9583333, 35.0833333 ], [ -104.0833333, 35.25 ], [ -103.5833333, 35.25 ], [ -103.5, 35.7083333 ], [ -103.2083333, 36.0 ], [ -103.2083333, 36.2916667 ], [ -102.9166667, 36.5416667 ], [ -102.7916667, 36.2916667 ], [ -102.5416667, 36.4583333 ], [ -102.2083333, 36.5416667 ], [ -101.75, 36.875 ], [ -101.75, 37.0 ], [ -101.125, 37.375 ], [ -101.125, 37.5833333 ], [ -100.9583333, 37.9166667 ], [ -100.4583333, 38.125 ], [ -100.4583333, 38.2916667 ], [ -99.9166667, 38.9583333 ], [ -99.7083333, 39.0833333 ], [ -99.125, 39.7083333 ], [ -99.0, 40.0833333 ], [ -99.0, 40.4166667 ], [ -98.7916667, 40.5 ], [ -98.6666667, 40.8333333 ], [ -98.0416667, 41.375 ], [ -98.0416667, 41.5416667 ], [ -97.5833333, 42.1666667 ], [ -97.125, 42.4166667 ], [ -96.875, 42.4583333 ], [ -96.6666667, 42.75 ], [ -96.75, 42.9166667 ], [ -96.4166667, 43.2916667 ], [ -96.5416667, 43.8333333 ], [ -96.5416667, 43.875 ], [ -96.7916667, 44.375 ], [ -96.75, 44.7083333 ], [ -96.375, 44.5416667 ], [ -96.0, 44.5833333 ], [ -96.0, 45.2083333 ], [ -96.2083333, 45.5 ], [ -96.0833333, 46.0 ], [ -96.25, 46.1666667 ], [ -96.25, 47.0 ], [ -96.0, 47.3333333 ], [ -96.0833333, 47.5 ], [ -95.9166667, 47.7083333 ], [ -95.875, 47.7083333 ], [ -95.7916667, 47.75 ], [ -95.75, 47.9166667 ], [ -95.9166667, 48.25 ], [ -95.9166667, 48.3333333 ], [ -95.9583333, 48.3333333 ], [ -95.9583333, 48.375 ], [ -95.9166667, 48.375 ], [ -95.9166667, 48.4166667 ], [ -96.0, 48.4166667 ], [ -96.0, 48.375 ], [ -96.0416667, 48.375 ], [ -96.0416667, 48.3333333 ], [ -96.0833333, 48.3333333 ], [ -96.0833333, 48.2916667 ], [ -96.125, 48.2916667 ], [ -96.25, 48.3333333 ], [ -96.2916667, 48.3333333 ], [ -96.2916667, 48.375 ], [ -96.3333333, 48.375 ], [ -96.3333333, 48.2916667 ], [ -96.2916667, 48.2916667 ], [ -96.375, 48.2916667 ], [ -96.4166667, 48.2916667 ], [ -96.4166667, 48.3333333 ], [ -96.5, 48.3333333 ], [ -96.5, 48.25 ], [ -96.625, 48.3333333 ], [ -96.6666667, 48.3333333 ], [ -96.7083333, 48.4166667 ], [ -96.7083333, 48.5 ], [ -96.875, 48.5 ], [ -96.8333333, 48.5416667 ], [ -96.8333333, 48.5833333 ], [ -96.9583333, 48.7083333 ], [ -97.0, 48.8333333 ], [ -97.0833333, 48.875 ], [ -97.0, 48.9166667 ], [ -97.125, 48.9583333 ], [ -97.2083333, 49.0 ], [ -97.25, 49.0833333 ], [ -97.375, 49.0833333 ], [ -97.375, 49.125 ], [ -97.4166667, 49.125 ], [ -97.7083333, 49.2916667 ], [ -97.7916667, 49.3333333 ], [ -97.7916667, 49.375 ], [ -97.75, 49.375 ], [ -97.75, 49.4583333 ], [ -97.7083333, 49.4583333 ], [ -97.7083333, 49.5 ], [ -97.8333333, 49.5 ], [ -97.8333333, 49.5416667 ] ], [ [ -100.4166667, 48.7916667 ], [ -100.375, 48.75 ], [ -100.4166667, 48.75 ], [ -100.4166667, 48.7916667 ] ], [ [ -96.7083333, 48.4166667 ], [ -96.7083333, 48.3333333 ], [ -96.875, 48.4166667 ], [ -96.7916667, 48.4166667 ], [ -96.75, 48.4166667 ], [ -96.7083333, 48.4166667 ] ], [ [ -107.9583333, 45.0 ], [ -107.8333333, 45.0 ], [ -107.7916667, 45.0 ], [ -107.7916667, 44.9166667 ], [ -107.75, 44.875 ], [ -107.7083333, 44.8333333 ], [ -107.625, 44.8333333 ], [ -107.625, 44.7916667 ], [ -107.375, 44.7083333 ], [ -107.3333333, 44.5833333 ], [ -107.2916667, 44.5416667 ], [ -107.25, 44.5 ], [ -107.25, 44.2083333 ], [ -107.4166667, 44.3333333 ], [ -107.625, 44.625 ], [ -108.0, 44.875 ], [ -107.9583333, 45.0 ] ], [ [ -105.5833333, 39.25 ], [ -105.5, 39.3333333 ], [ -105.5, 39.2916667 ], [ -105.4583333, 39.2916667 ], [ -105.4583333, 39.2083333 ], [ -105.5416667, 39.2083333 ], [ -105.5416667, 39.25 ], [ -105.5833333, 39.25 ] ], [ [ -104.9583333, 38.75 ], [ -105.1666667, 38.75 ], [ -105.1666667, 38.8333333 ], [ -105.0, 38.875 ], [ -105.0, 38.8333333 ], [ -104.9583333, 38.8333333 ], [ -104.9583333, 38.75 ] ], [ [ -105.25, 38.125 ], [ -105.1666667, 38.0833333 ], [ -105.125, 38.0416667 ], [ -105.0833333, 37.9583333 ], [ -105.0, 37.9583333 ], [ -105.0, 37.8333333 ], [ -105.0833333, 37.9166667 ], [ -105.125, 37.9166667 ], [ -105.125, 37.9583333 ], [ -105.1666667, 38.0 ], [ -105.25, 38.0 ], [ -105.25, 38.125 ] ] ] ] } },
{ "type": "Feature", "properties": { "ID": 13 }, "geometry": { "type": "MultiPolygon", "coordinates": [ [ [ [ -97.75, 49.4583333 ], [ -97.75, 49.4166667 ], [ -97.7083333, 49.4166667 ], [ -97.7083333, 49.4583333 ], [ -97.75, 49.4583333 ] ] ], [ [ [ -97.7083333, 49.4166667 ], [ -97.7083333, 49.375 ], [ -97.6666667, 49.375 ], [ -97.6666667, 49.4166667 ], [ -97.7083333, 49.4166667 ] ] ], [ [ [ -97.7916667, 49.375 ], [ -97.7916667, 49.3333333 ], [ -97.7083333, 49.2916667 ], [ -97.7083333, 49.375 ], [ -97.7916667, 49.375 ] ] ], [ [ [ -97.0416667, 49.3333333 ], [ -97.0416667, 49.2916667 ], [ -97.0, 49.25 ], [ -96.9583333, 49.25 ], [ -96.9583333, 49.3333333 ], [ -97.0416667, 49.3333333 ] ] ], [ [ [ -97.1666667, 49.2916667 ], [ -97.1666667, 49.25 ], [ -97.125, 49.25 ], [ -97.1666667, 49.2916667 ] ] ], [ [ [ -96.7083333, 49.2083333 ], [ -96.7083333, 49.1666667 ], [ -96.6666667, 49.1666667 ], [ -96.6666667, 49.2083333 ], [ -96.7083333, 49.2083333 ] ] ], [ [ [ -96.875, 49.125 ], [ -96.875, 49.2083333 ], [ -96.9166667, 49.2083333 ], [ -96.9166667, 49.125 ], [ -96.875, 49.125 ] ] ], [ [ [ -96.6666667, 49.1666667 ], [ -96.6666667, 49.125 ], [ -96.625, 49.125 ], [ -96.625, 49.1666667 ], [ -96.6666667, 49.1666667 ] ] ], [ [ [ -96.5833333, 49.125 ], [ -96.5833333, 49.0833333 ], [ -96.5416667, 49.0833333 ], [ -96.5416667, 49.125 ], [ -96.5833333, 49.125 ] ] ], [ [ [ -96.7083333, 49.0833333 ], [ -96.7083333, 49.0416667 ], [ -96.6666667, 49.0416667 ], [ -96.7083333, 49.0833333 ] ] ], [ [ [ -96.5, 49.0833333 ], [ -96.5, 49.0416667 ], [ -96.4583333, 49.0416667 ], [ -96.4583333, 49.0833333 ], [ -96.5, 49.0833333 ] ] ], [ [ [ -96.7916667, 49.0833333 ], [ -96.7083333, 49.0 ], [ -96.7083333, 49.0416667 ], [ -96.7916667, 49.0833333 ] ] ], [ [ [ -96.6666667, 49.0416667 ], [ -96.7083333, 49.0 ], [ -96.625, 48.9583333 ], [ -96.625, 49.0416667 ], [ -96.6666667, 49.0416667 ] ] ], [ [ [ -96.5, 49.0416667 ], [ -96.5833333, 49.0 ], [ -96.5, 48.9583333 ], [ -96.5, 49.0416667 ] ] ], [ [ [ -97.6666667, 49.375 ], [ -97.7083333, 49.2916667 ], [ -97.4166667, 49.125 ], [ -97.375, 49.125 ], [ -97.375, 49.0833333 ], [ -97.25, 49.0833333 ], [ -97.2083333, 49.0 ], [ -97.125, 48.9583333 ], [ -97.0, 48.9166667 ], [ -96.9583333, 48.9166667 ], [ -96.875, 49.0 ], [ -96.9166667, 49.125 ], [ -96.9583333, 49.125 ], [ -96.9583333, 49.0416667 ], [ -97.1666667, 49.1666667 ], [ -97.1666667, 49.2083333 ], [ -97.5833333, 49.375 ], [ -97.6666667, 49.375 ] ] ], [ [ [ -96.5, 48.9583333 ], [ -96.5, 48.8333333 ], [ -96.375, 48.8333333 ], [ -96.5, 48.9583333 ] ] ], [ [ [ -97.0, 48.9166667 ], [ -97.0833333, 48.875 ], [ -97.0, 48.8333333 ], [ -97.0, 48.9166667 ] ] ], [ [ [ -96.9583333, 48.9166667 ], [ -96.9583333, 48.8333333 ], [ -96.9166667, 48.8333333 ], [ -96.8333333, 48.875 ], [ -96.9583333, 48.9166667 ] ] ], [ [ [ -97.9166667, 48.7916667 ], [ -98.0, 48.8333333 ], [ -98.0, 48.7916667 ], [ -97.9166667, 48.7916667 ] ] ], [ [ [ -96.5833333, 48.8333333 ], [ -96.5833333, 48.7916667 ], [ -96.5416667, 48.75 ], [ -96.5, 48.75 ], [ -96.5, 48.8333333 ], [ -96.5833333, 48.8333333 ] ] ], [ [ [ -96.625, 48.7916667 ], [ -96.5833333, 48.75 ], [ -96.5833333, 48.7916667 ], [ -96.625, 48.7916667 ] ] ], [ [ [ -97.0, 48.8333333 ], [ -96.9583333, 48.7083333 ], [ -96.9583333, 48.8333333 ], [ -97.0, 48.8333333 ] ] ], [ [ [ -96.5833333, 48.75 ], [ -96.5416667, 48.7083333 ], [ -96.5416667, 48.75 ], [ -96.5833333, 48.75 ] ] ], [ [ [ -96.5416667, 48.7083333 ], [ -96.5, 48.6666667 ], [ -96.5, 48.7083333 ], [ -96.5416667, 48.7083333 ] ] ], [ [ [ -97.9583333, 48.7083333 ], [ -97.9583333, 48.5833333 ], [ -97.9166667, 48.5833333 ], [ -97.9583333, 48.7083333 ] ] ], [ [ [ -96.8333333, 48.5416667 ], [ -96.875, 48.5 ], [ -96.8333333, 48.5 ], [ -96.8333333, 48.5416667 ] ] ], [ [ [ -96.5833333, 48.4583333 ], [ -96.5416667, 48.5833333 ], [ -96.625, 48.6666667 ], [ -96.75, 48.7083333 ], [ -96.75, 48.8333333 ], [ -96.7916667, 48.8333333 ], [ -96.8333333, 48.875 ], [ -96.8333333, 48.8333333 ], [ -96.9166667, 48.8333333 ], [ -96.9583333, 48.7083333 ], [ -96.8333333, 48.5833333 ], [ -96.8333333, 48.5416667 ], [ -96.7916667, 48.5 ], [ -96.7083333, 48.5 ], [ -96.7083333, 48.4166667 ], [ -96.6666667, 48.3333333 ], [ -96.625, 48.3333333 ], [ -96.5833333, 48.4583333 ] ], [ [ -96.7916667, 48.625 ], [ -96.75, 48.7083333 ], [ -96.6666667, 48.5833333 ], [ -96.6666667, 48.5416667 ], [ -96.7916667, 48.625 ] ] ], [ [ [ -96.0833333, 48.5416667 ], [ -96.0833333, 48.5833333 ], [ -96.1666667, 48.4583333 ], [ -96.0833333, 48.5 ], [ -96.0416667, 48.4166667 ], [ -95.9583333, 48.4166667 ], [ -95.9583333, 48.4583333 ], [ -95.7083333, 48.5833333 ], [ -95.9583333, 48.5416667 ], [ -96.0833333, 48.5416667 ] ] ], [ [ [ -96.3333333, 48.9583333 ], [ -96.3333333, 48.8333333 ], [ -96.375, 48.8333333 ], [ -96.5, 48.6666667 ], [ -96.5, 48.625 ], [ -96.375, 48.5833333 ], [ -96.25, 48.6666667 ], [ -96.3333333, 48.5833333 ], [ -96.375, 48.4583333 ], [ -96.2916667, 48.4166667 ], [ -96.2083333, 48.4583333 ], [ -96.0833333, 48.625 ], [ -96.0, 48.7916667 ], [ -96.0416667, 48.7916667 ], [ -96.0416667, 48.8333333 ], [ -96.0833333, 48.8333333 ], [ -96.0833333, 48.7916667 ], [ -96.125, 48.8333333 ], [ -96.2083333, 48.875 ], [ -96.3333333, 48.9583333 ] ] ], [ [ [ -96.875, 48.4166667 ], [ -96.7083333, 48.3333333 ], [ -96.7083333, 48.4166667 ], [ -96.875, 48.4166667 ] ] ], [ [ [ -96.2916667, 48.4166667 ], [ -96.2916667, 48.3333333 ], [ -96.25, 48.3333333 ], [ -96.25, 48.4166667 ], [ -96.2916667, 48.4166667 ] ] ], [ [ [ -96.375, 48.375 ], [ -96.375, 48.3333333 ], [ -96.3333333, 48.3333333 ], [ -96.3333333, 48.375 ], [ -96.375, 48.375 ] ] ], [ [ [ -96.0833333, 48.375 ], [ -96.0833333, 48.3333333 ], [ -96.0416667, 48.3333333 ], [ -96.0416667, 48.375 ], [ -96.0833333, 48.375 ] ] ], [ [ [ -98.3333333, 48.375 ], [ -98.3333333, 48.2916667 ], [ -98.25, 48.3333333 ], [ -98.2916667, 48.3333333 ], [ -98.3333333, 48.375 ] ] ], [ [ [ -98.0833333, 48.375 ], [ -98.1666667, 48.3333333 ], [ -98.1666667, 48.2916667 ], [ -98.0833333, 48.2916667 ], [ -98.0833333, 48.375 ] ] ], [ [ [ -96.4166667, 48.3333333 ], [ -96.4166667, 48.2916667 ], [ -96.375, 48.2916667 ], [ -96.375, 48.3333333 ], [ -96.4166667, 48.3333333 ] ] ], [ [ [ -96.125, 48.3333333 ], [ -96.125, 48.2916667 ], [ -96.0833333, 48.2916667 ], [ -96.0833333, 48.3333333 ], [ -96.125, 48.3333333 ] ] ], [ [ [ -96.5, 48.375 ], [ -96.625, 48.3333333 ], [ -96.5, 48.25 ], [ -96.5, 48.375 ] ] ], [ [ [ -96.25, 48.3333333 ], [ -96.125, 48.2916667 ], [ -96.1666667, 48.3333333 ], [ -96.25, 48.3333333 ] ] ], [ [ [ -98.2083333, 48.2916667 ], [ -98.2083333, 48.25 ], [ -98.1666667, 48.25 ], [ -98.1666667, 48.2916667 ], [ -98.2083333, 48.2916667 ] ] ], [ [ [ -90.4166667, 40.25 ], [ -90.375, 40.2083333 ], [ -90.375, 40.25 ], [ -90.4166667, 40.25 ] ] ], [ [ [ -105.5, 39.2916667 ], [ -105.5, 39.25 ], [ -105.4583333, 39.25 ], [ -105.4583333, 39.2916667 ], [ -105.5, 39.2916667 ] ] ], [ [ [ -105.5416667, 39.25 ], [ -105.5416667, 39.2083333 ], [ -105.5, 39.2083333 ], [ -105.5, 39.25 ], [ -105.5416667, 39.25 ] ] ], [ [ [ -105.0, 38.8333333 ], [ -105.0, 38.7916667 ], [ -104.9583333, 38.7916667 ], [ -104.9583333, 38.8333333 ], [ -105.0, 38.8333333 ] ] ], [ [ [ -105.25, 38.125 ], [ -105.25, 38.0833333 ], [ -105.1666667, 38.0833333 ], [ -105.25, 38.125 ] ] ], [ [ [ -105.25, 38.0416667 ], [ -105.25, 38.0 ], [ -105.2083333, 38.0 ], [ -105.25, 38.0416667 ] ] ], [ [ [ -105.125, 38.0416667 ], [ -105.125, 37.9583333 ], [ -105.0833333, 37.9583333 ], [ -105.125, 38.0416667 ] ] ], [ [ [ -105.0416667, 37.9583333 ], [ -105.0416667, 37.9166667 ], [ -105.0833333, 37.9166667 ], [ -105.0, 37.8333333 ], [ -105.0, 37.9583333 ], [ -105.0416667, 37.9583333 ] ] ], [ [ [ -105.1666667, 37.625 ], [ -105.1666667, 37.5833333 ], [ -105.125, 37.625 ], [ -105.1666667, 37.625 ] ] ], [ [ [ -105.125, 37.5 ], [ -105.2083333, 37.4583333 ], [ -105.1666667, 37.4166667 ], [ -105.125, 37.4166667 ], [ -105.125, 37.5 ] ] ], [ [ [ -105.125, 37.4166667 ], [ -105.125, 37.3333333 ], [ -105.0833333, 37.2916667 ], [ -105.125, 37.4166667 ] ] ], [ [ [ -95.4166667, 48.625 ], [ -95.5, 48.5 ], [ -95.7083333, 48.5833333 ], [ -95.75, 48.4166667 ], [ -95.6666667, 48.2916667 ], [ -95.6666667, 48.25 ], [ -95.8333333, 48.375 ], [ -95.9583333, 48.375 ], [ -95.9583333, 48.3333333 ], [ -95.875, 48.3333333 ], [ -95.9166667, 48.2916667 ], [ -95.9166667, 48.25 ], [ -95.75, 47.9166667 ], [ -95.7916667, 47.75 ], [ -95.875, 47.7083333 ], [ -95.9166667, 47.7083333 ], [ -96.0833333, 47.5 ], [ -96.0, 47.3333333 ], [ -96.25, 47.0 ], [ -96.25, 46.1666667 ], [ -96.0833333, 46.0 ], [ -96.2083333, 45.5 ], [ -96.0, 45.2083333 ], [ -96.0, 44.5833333 ], [ -96.375, 44.5416667 ], [ -96.75, 44.7083333 ], [ -96.7916667, 44.375 ], [ -96.5416667, 43.875 ], [ -96.5416667, 43.8333333 ], [ -96.4166667, 43.2916667 ], [ -96.75, 42.9166667 ], [ -96.6666667, 42.75 ], [ -96.875, 42.4583333 ], [ -97.125, 42.4166667 ], [ -97.5833333, 42.1666667 ], [ -98.0416667, 41.5416667 ], [ -98.0416667, 41.375 ], [ -98.6666667, 40.8333333 ], [ -98.7916667, 40.5 ], [ -99.0, 40.4166667 ], [ -99.0, 40.0833333 ], [ -99.125, 39.7083333 ], [ -99.7083333, 39.0833333 ], [ -99.9166667, 38.9583333 ], [ -100.4583333, 38.2916667 ], [ -100.4583333, 38.125 ], [ -100.9583333, 37.9166667 ], [ -101.125, 37.5833333 ], [ -101.125, 37.375 ], [ -101.75, 37.0 ], [ -101.75, 36.875 ], [ -102.2083333, 36.5416667 ], [ -102.5416667, 36.4583333 ], [ -102.7916667, 36.2916667 ], [ -102.9166667, 36.5416667 ], [ -103.2083333, 36.2916667 ], [ -103.2083333, 36.0 ], [ -103.5, 35.7083333 ], [ -103.5833333, 35.25 ], [ -104.0833333, 35.25 ], [ -103.9583333, 35.0833333 ], [ -104.2916667, 34.9166667 ], [ -104.4583333, 34.7083333 ], [ -104.875, 34.375 ], [ -104.875, 34.25 ], [ -104.8333333, 34.25 ], [ -104.625, 33.875 ], [ -104.3333333, 33.75 ], [ -104.3333333, 33.5416667 ], [ -104.1666667, 33.3333333 ], [ -103.9166667, 32.7916667 ], [ -103.9166667, 32.2083333 ], [ -103.5416667, 32.0 ], [ -102.7083333, 31.375 ], [ -102.7083333, 31.125 ], [ -102.9583333, 30.9166667 ], [ -102.875, 30.4166667 ], [ -102.5, 30.2916667 ], [ -102.4166667, 30.0833333 ], [ -102.125, 30.0833333 ], [ -102.0416667, 29.75 ], [ -101.8333333, 29.6666667 ], [ -101.8333333, 29.1666667 ], [ -101.5, 28.9583333 ], [ -100.7083333, 28.9583333 ], [ -100.4583333, 28.875 ], [ -100.0, 28.875 ], [ -99.0, 29.25 ], [ -98.5416667, 29.2083333 ], [ -98.5, 29.2916667 ], [ -98.5416667, 29.5416667 ], [ -98.1666667, 29.5833333 ], [ -97.875, 29.9166667 ], [ -97.7916667, 30.5 ], [ -97.6666667, 30.5416667 ], [ -97.5833333, 30.9583333 ], [ -97.4166667, 31.125 ], [ -97.3333333, 31.8333333 ], [ -97.125, 32.3333333 ], [ -97.1666667, 32.625 ], [ -97.375, 32.7083333 ], [ -97.2916667, 32.875 ], [ -96.75, 33.1666667 ], [ -96.2916667, 33.3333333 ], [ -96.25, 33.4166667 ], [ -96.2083333, 33.4166667 ], [ -95.875, 33.9583333 ], [ -95.5833333, 34.3333333 ], [ -95.375, 34.625 ], [ -95.5833333, 34.8333333 ], [ -95.4583333, 35.0833333 ], [ -94.875, 35.625 ], [ -94.8333333, 35.7083333 ], [ -94.2916667, 36.125 ], [ -94.125, 36.3333333 ], [ -93.5833333, 36.7916667 ], [ -93.5, 36.7916667 ], [ -92.875, 37.5416667 ], [ -92.9583333, 37.625 ], [ -93.0, 37.6666667 ], [ -92.9583333, 38.0 ], [ -93.0833333, 38.2083333 ], [ -93.0833333, 38.25 ], [ -92.625, 38.375 ], [ -92.5, 38.9166667 ], [ -92.25, 38.8333333 ], [ -91.75, 39.0 ], [ -91.8333333, 39.5416667 ], [ -91.625, 39.625 ], [ -91.4583333, 40.0416667 ], [ -91.2916667, 39.75 ], [ -90.9583333, 39.6666667 ], [ -90.7083333, 39.9583333 ], [ -90.7916667, 40.2916667 ], [ -90.4166667, 40.25 ], [ -90.375, 40.2916667 ], [ -90.3333333, 41.0416667 ], [ -90.375, 41.5416667 ], [ -90.7083333, 41.9166667 ], [ -90.75, 42.2083333 ], [ -90.9166667, 42.3333333 ], [ -90.7083333, 42.5833333 ], [ -91.125, 43.1666667 ], [ -91.3333333, 43.2083333 ], [ -91.25, 43.5833333 ], [ -91.3333333, 44.1666667 ], [ -91.7083333, 44.625 ], [ -91.7083333, 44.7916667 ], [ -92.0, 45.2083333 ], [ -92.2916667, 45.75 ], [ -92.6666667, 46.0 ], [ -92.9583333, 46.4583333 ], [ -93.0, 46.7916667 ], [ -93.4166667, 47.0833333 ], [ -94.0, 47.6666667 ], [ -94.2916667, 47.7916667 ], [ -94.75, 48.2083333 ], [ -94.875, 48.5416667 ], [ -95.1666667, 48.5833333 ], [ -95.4166667, 48.625 ] ], [ [ -95.5, 48.5 ], [ -95.3333333, 48.5416667 ], [ -95.3333333, 48.375 ], [ -95.4166667, 48.3333333 ], [ -95.5, 48.5 ] ] ] ] } },
{ "type": "Feature", "properties": { "ID": 14 }, "geometry": { "type": "MultiPolygon", "coordinates": [ [ [ [ -90.375, 40.2916667 ], [ -90.4166667, 40.25 ], [ -90.375, 40.25 ], [ -90.375, 40.2916667 ] ] ], [ [ [ -90.4166667, 40.25 ], [ -90.7916667, 40.2916667 ], [ -90.7083333, 39.9583333 ], [ -90.9583333, 39.6666667 ], [ -91.2916667, 39.75 ], [ -91.4583333, 40.0416667 ], [ -91.625, 39.625 ], [ -91.8333333, 39.5416667 ], [ -91.75, 39.0 ], [ -92.25, 38.8333333 ], [ -92.5, 38.9166667 ], [ -92.625, 38.375 ], [ -93.0833333, 38.25 ], [ -93.0833333, 38.2083333 ], [ -92.9583333, 38.0 ], [ -93.0, 37.6666667 ], [ -92.9583333, 37.625 ], [ -92.875, 37.5416667 ], [ -93.5, 36.7916667 ], [ -93.5833333, 36.7916667 ], [ -94.125, 36.3333333 ], [ -94.2916667, 36.125 ], [ -94.8333333, 35.7083333 ], [ -94.875, 35.625 ], [ -95.4583333, 35.0833333 ], [ -95.5833333, 34.8333333 ], [ -95.375, 34.625 ], [ -95.5833333, 34.3333333 ], [ -95.875, 33.9583333 ], [ -96.2083333, 33.4166667 ], [ -96.25, 33.4166667 ], [ -96.2916667, 33.3333333 ], [ -96.75, 33.1666667 ], [ -97.2916667, 32.875 ], [ -97.375, 32.7083333 ], [ -97.1666667, 32.625 ], [ -97.125, 32.3333333 ], [ -97.3333333, 31.8333333 ], [ -97.4166667, 31.125 ], [ -97.5833333, 30.9583333 ], [ -97.6666667, 30.5416667 ], [ -97.7916667, 30.5 ], [ -97.875, 29.9166667 ], [ -98.1666667, 29.5833333 ], [ -98.5416667, 29.5416667 ], [ -98.5, 29.2916667 ], [ -98.4583333, 29.25 ], [ -97.75, 29.7916667 ], [ -97.125, 30.2083333 ], [ -96.6666667, 30.4583333 ], [ -96.375, 30.5416667 ], [ -95.9166667, 30.8333333 ], [ -95.625, 31.125 ], [ -94.875, 31.625 ], [ -94.25, 32.1666667 ], [ -93.7083333, 32.375 ], [ -92.875, 33.3333333 ], [ -92.5, 33.9583333 ], [ -92.2083333, 34.1666667 ], [ -91.9166667, 34.25 ], [ -91.6666667, 34.5 ], [ -91.4166667, 34.9583333 ], [ -91.1666667, 35.7916667 ], [ -91.1666667, 36.2916667 ], [ -91.3333333, 36.625 ], [ -91.0, 36.875 ], [ -91.0416667, 37.25 ], [ -90.7083333, 37.5416667 ], [ -90.5833333, 37.8333333 ], [ -90.5416667, 38.3333333 ], [ -90.3333333, 38.4583333 ], [ -90.25, 38.8333333 ], [ -90.375, 39.0416667 ], [ -90.4166667, 39.5 ], [ -90.3333333, 39.6666667 ], [ -90.3333333, 39.7083333 ], [ -90.2916667, 40.125 ], [ -90.375, 40.2083333 ], [ -90.4166667, 40.25 ] ] ] ] } },
{ "type": "Feature", "properties": { "ID": 15 }, "geometry": { "type": "MultiPolygon", "coordinates": [ [ [ [ -96.75, 49.5833333 ], [ -96.8333333, 49.5 ], [ -96.75, 49.5 ], [ -96.75, 49.5833333 ] ] ], [ [ [ -97.0833333, 49.3333333 ], [ -97.0416667, 49.2916667 ], [ -97.0416667, 49.3333333 ], [ -97.0833333, 49.3333333 ] ] ], [ [ [ -97.0416667, 49.2916667 ], [ -97.0416667, 49.25 ], [ -97.0, 49.25 ], [ -97.0416667, 49.2916667 ] ] ], [ [ [ -96.9583333, 49.2083333 ], [ -96.9583333, 49.1666667 ], [ -96.9166667, 49.1666667 ], [ -96.9166667, 49.2083333 ], [ -96.9583333, 49.2083333 ] ] ], [ [ [ -96.6666667, 49.2083333 ], [ -96.6666667, 49.1666667 ], [ -96.625, 49.1666667 ], [ -96.625, 49.2083333 ], [ -96.6666667, 49.2083333 ] ] ], [ [ [ -96.5416667, 49.25 ], [ -96.5833333, 49.125 ], [ -96.5416667, 49.125 ], [ -96.5416667, 49.25 ] ] ], [ [ [ -96.4583333, 49.2083333 ], [ -96.5, 49.0833333 ], [ -96.4583333, 49.0833333 ], [ -96.4583333, 49.2083333 ] ] ], [ [ [ -97.1666667, 49.25 ], [ -97.1666667, 49.1666667 ], [ -96.9583333, 49.0416667 ], [ -96.9583333, 49.1666667 ], [ -97.0833333, 49.25 ], [ -97.1666667, 49.25 ] ] ], [ [ [ -96.75, 49.1666667 ], [ -96.7083333, 49.125 ], [ -96.7083333, 49.0833333 ], [ -96.6666667, 49.0416667 ], [ -96.5833333, 49.0416667 ], [ -96.5833333, 49.0 ], [ -96.5, 49.0416667 ], [ -96.5, 49.0833333 ], [ -96.5833333, 49.0833333 ], [ -96.5833333, 49.125 ], [ -96.6666667, 49.125 ], [ -96.6666667, 49.1666667 ], [ -96.75, 49.1666667 ] ] ], [ [ [ -96.7083333, 49.0416667 ], [ -96.7083333, 49.0 ], [ -96.6666667, 49.0416667 ], [ -96.7083333, 49.0416667 ] ] ], [ [ [ -96.5, 49.0416667 ], [ -96.5, 48.9583333 ], [ -96.375, 48.8333333 ], [ -96.3333333, 48.8333333 ], [ -96.3333333, 48.9583333 ], [ -96.4166667, 49.0 ], [ -96.4583333, 49.0416667 ], [ -96.5, 49.0416667 ] ] ], [ [ [ -96.8333333, 48.875 ], [ -96.9166667, 48.8333333 ], [ -96.8333333, 48.8333333 ], [ -96.8333333, 48.875 ] ] ], [ [ [ -96.125, 48.8333333 ], [ -96.0833333, 48.7916667 ], [ -96.0833333, 48.8333333 ], [ -96.125, 48.8333333 ] ] ], [ [ [ -96.0416667, 48.8333333 ], [ -96.0416667, 48.7916667 ], [ -96.0, 48.7916667 ], [ -96.0416667, 48.8333333 ] ] ], [ [ [ -96.5833333, 48.7916667 ], [ -96.5833333, 48.75 ], [ -96.5416667, 48.75 ], [ -96.5833333, 48.7916667 ] ] ], [ [ [ -96.5, 48.8333333 ], [ -96.5, 48.75 ], [ -96.5416667, 48.75 ], [ -96.5416667, 48.7083333 ], [ -96.5, 48.7083333 ], [ -96.5, 48.6666667 ], [ -96.375, 48.8333333 ], [ -96.5, 48.8333333 ] ] ], [ [ [ -96.5, 48.625 ], [ -96.5, 48.6666667 ], [ -96.5416667, 48.7083333 ], [ -96.5833333, 48.75 ], [ -96.625, 48.7916667 ], [ -96.5833333, 48.7916667 ], [ -96.5833333, 48.8333333 ], [ -96.5, 48.8333333 ], [ -96.5, 48.9583333 ], [ -96.5833333, 49.0 ], [ -96.625, 49.0 ], [ -96.625, 48.9583333 ], [ -96.7083333, 49.0 ], [ -96.7916667, 49.0833333 ], [ -96.875, 49.125 ], [ -96.9166667, 49.125 ], [ -96.875, 49.0 ], [ -96.9583333, 48.9166667 ], [ -96.8333333, 48.875 ], [ -96.7916667, 48.8333333 ], [ -96.75, 48.8333333 ], [ -96.75, 48.7083333 ], [ -96.625, 48.6666667 ], [ -96.5416667, 48.5833333 ], [ -96.5833333, 48.4583333 ], [ -96.625, 48.3333333 ], [ -96.5, 48.375 ], [ -96.5, 48.3333333 ], [ -96.375, 48.3333333 ], [ -96.375, 48.375 ], [ -96.2916667, 48.375 ], [ -96.2916667, 48.4166667 ], [ -96.375, 48.4583333 ], [ -96.3333333, 48.5833333 ], [ -96.25, 48.6666667 ], [ -96.375, 48.5833333 ], [ -96.5, 48.625 ] ] ], [ [ [ -96.75, 48.7083333 ], [ -96.7916667, 48.625 ], [ -96.6666667, 48.5416667 ], [ -96.6666667, 48.5833333 ], [ -96.75, 48.7083333 ] ] ], [ [ [ -96.8333333, 48.5416667 ], [ -96.8333333, 48.5 ], [ -96.7916667, 48.5 ], [ -96.8333333, 48.5416667 ] ] ], [ [ [ -95.3333333, 48.5416667 ], [ -95.5, 48.5 ], [ -95.4166667, 48.3333333 ], [ -95.3333333, 48.375 ], [ -95.3333333, 48.5416667 ] ] ], [ [ [ -96.0833333, 48.5 ], [ -96.1666667, 48.4583333 ], [ -96.0833333, 48.5833333 ], [ -96.0833333, 48.5416667 ], [ -95.9583333, 48.5416667 ], [ -95.7083333, 48.5833333 ], [ -95.5, 48.5 ], [ -95.4166667, 48.625 ], [ -95.8333333, 48.7083333 ], [ -95.9166667, 48.7916667 ], [ -96.0, 48.7916667 ], [ -96.0833333, 48.625 ], [ -96.2083333, 48.4583333 ], [ -96.2916667, 48.4166667 ], [ -96.25, 48.4166667 ], [ -96.25, 48.375 ], [ -96.2083333, 48.3333333 ], [ -96.1666667, 48.3333333 ], [ -96.125, 48.3333333 ], [ -96.0833333, 48.3333333 ], [ -96.0833333, 48.375 ], [ -96.0, 48.375 ], [ -96.0, 48.4166667 ], [ -96.0416667, 48.4166667 ], [ -96.0833333, 48.5 ] ] ], [ [ [ -96.375, 48.3333333 ], [ -96.375, 48.2916667 ], [ -96.3333333, 48.2916667 ], [ -96.3333333, 48.3333333 ], [ -96.375, 48.3333333 ] ] ], [ [ [ -95.9166667, 48.3333333 ], [ -95.9166667, 48.2916667 ], [ -95.875, 48.3333333 ], [ -95.9166667, 48.3333333 ] ] ], [ [ [ -95.7083333, 48.5833333 ], [ -95.9583333, 48.4583333 ], [ -95.9583333, 48.4166667 ], [ -95.9166667, 48.4166667 ], [ -95.9166667, 48.375 ], [ -95.8333333, 48.375 ], [ -95.6666667, 48.25 ], [ -95.6666667, 48.2916667 ], [ -95.75, 48.4166667 ], [ -95.7083333, 48.5833333 ] ] ] ] } }
]
}
