{
"type": "FeatureCollection",
"name": "Carex_tuckermanii",
"crs": { "type": "name", "properties": { "name": "urn:ogc:def:crs:OGC:1.3:CRS84" } },
"features": [
{ "type": "Feature", "properties": { "ID": 8 }, "geometry": { "type": "MultiPolygon", "coordinates": [ [ [ [ -92.3333333, 48.625 ], [ -92.375, 48.5833333 ], [ -92.3333333, 48.5833333 ], [ -92.3333333, 48.625 ] ] ], [ [ [ -80.7916667, 48.3333333 ], [ -80.875, 48.2916667 ], [ -80.8333333, 48.2916667 ], [ -80.7916667, 48.3333333 ] ] ], [ [ [ -80.7916667, 48.3333333 ], [ -80.7916667, 48.25 ], [ -80.7083333, 48.2083333 ], [ -80.5416667, 48.2083333 ], [ -80.7916667, 48.3333333 ] ] ], [ [ [ -89.5416667, 48.9166667 ], [ -89.6666667, 49.0416667 ], [ -89.875, 49.0416667 ], [ -90.0416667, 48.9583333 ], [ -90.0416667, 48.7916667 ], [ -90.2916667, 48.5416667 ], [ -90.3333333, 48.4166667 ], [ -90.375, 48.3333333 ], [ -90.25, 48.125 ], [ -90.2083333, 48.125 ], [ -90.125, 47.8333333 ], [ -89.5833333, 48.0 ], [ -89.3333333, 48.1666667 ], [ -89.25, 48.2916667 ], [ -89.2916667, 48.5833333 ], [ -89.3333333, 48.7083333 ], [ -89.5, 48.7083333 ], [ -89.5416667, 48.875 ], [ -89.5416667, 48.9166667 ] ] ], [ [ [ -92.7083333, 47.4166667 ], [ -92.7083333, 47.3333333 ], [ -92.6666667, 47.3333333 ], [ -92.7083333, 47.4166667 ] ] ], [ [ [ -82.7916667, 47.375 ], [ -82.75, 47.3333333 ], [ -82.75, 47.375 ], [ -82.7916667, 47.375 ] ] ], [ [ [ -82.75, 47.3333333 ], [ -82.7083333, 47.2916667 ], [ -82.7083333, 47.3333333 ], [ -82.75, 47.3333333 ] ] ], [ [ [ -71.125, 46.75 ], [ -71.375, 46.8333333 ], [ -71.375, 46.7083333 ], [ -71.125, 46.75 ] ] ], [ [ [ -95.0416667, 46.5833333 ], [ -95.1666667, 46.5416667 ], [ -95.0416667, 46.4166667 ], [ -95.0416667, 46.5833333 ] ] ], [ [ [ -95.1666667, 46.125 ], [ -95.1666667, 46.0833333 ], [ -95.125, 46.0833333 ], [ -95.1666667, 46.125 ] ] ], [ [ [ -95.2083333, 46.125 ], [ -95.2916667, 46.0833333 ], [ -95.1666667, 45.9583333 ], [ -95.1666667, 46.0833333 ], [ -95.2083333, 46.125 ] ] ], [ [ [ -81.9583333, 45.6666667 ], [ -81.9166667, 45.9583333 ], [ -82.2083333, 45.8333333 ], [ -82.3333333, 45.9583333 ], [ -82.5, 45.875 ], [ -82.4583333, 45.7083333 ], [ -82.25, 45.7083333 ], [ -82.0833333, 45.625 ], [ -81.9583333, 45.6666667 ] ] ], [ [ [ -95.125, 45.2916667 ], [ -95.125, 45.25 ], [ -95.0833333, 45.25 ], [ -95.0833333, 45.2916667 ], [ -95.125, 45.2916667 ] ] ], [ [ [ -94.9583333, 45.2916667 ], [ -94.9166667, 45.1666667 ], [ -94.9166667, 45.2916667 ], [ -94.9583333, 45.2916667 ] ] ], [ [ [ -79.75, 45.2083333 ], [ -79.7916667, 45.1666667 ], [ -79.75, 45.1666667 ], [ -79.75, 45.2083333 ] ] ], [ [ [ -95.0833333, 45.25 ], [ -95.125, 45.2083333 ], [ -95.0416667, 45.25 ], [ -95.0833333, 45.25 ] ] ], [ [ [ -69.6666667, 44.7916667 ], [ -69.9166667, 44.7083333 ], [ -69.5833333, 44.6666667 ], [ -69.5833333, 44.7916667 ], [ -69.625, 44.7916667 ], [ -69.6666667, 44.7916667 ] ] ], [ [ [ -71.9166667, 44.0833333 ], [ -71.75, 44.3333333 ], [ -71.9166667, 44.375 ], [ -72.0416667, 44.5833333 ], [ -72.125, 44.25 ], [ -72.1666667, 44.125 ], [ -72.4166667, 43.7916667 ], [ -72.5, 43.9166667 ], [ -72.7083333, 43.9583333 ], [ -72.8333333, 43.7916667 ], [ -72.625, 43.75 ], [ -72.5833333, 43.625 ], [ -72.6666667, 43.625 ], [ -72.7083333, 43.5416667 ], [ -72.6666667, 43.5 ], [ -72.7083333, 43.5 ], [ -72.625, 43.375 ], [ -72.625, 43.1666667 ], [ -72.5, 43.125 ], [ -72.625, 42.9583333 ], [ -72.5833333, 42.375 ], [ -72.4166667, 42.625 ], [ -72.1666667, 42.5416667 ], [ -72.125, 42.5833333 ], [ -72.125, 42.5416667 ], [ -72.0416667, 42.5416667 ], [ -72.0416667, 42.75 ], [ -72.125, 42.6666667 ], [ -72.25, 42.7083333 ], [ -72.2083333, 42.875 ], [ -72.3333333, 43.0 ], [ -72.2916667, 43.3333333 ], [ -72.0, 43.3333333 ], [ -71.9166667, 43.4166667 ], [ -71.875, 43.5 ], [ -71.7916667, 43.5416667 ], [ -71.7083333, 43.5416667 ], [ -71.625, 43.125 ], [ -71.4166667, 43.0 ], [ -71.4583333, 43.2916667 ], [ -71.4583333, 43.3333333 ], [ -71.5833333, 43.4166667 ], [ -71.625, 43.5416667 ], [ -71.5416667, 43.4583333 ], [ -71.3333333, 43.6666667 ], [ -71.6666667, 43.7916667 ], [ -71.625, 43.9166667 ], [ -71.7083333, 44.0416667 ], [ -71.7083333, 43.8333333 ], [ -71.875, 43.9583333 ], [ -71.9583333, 43.875 ], [ -71.8333333, 43.7916667 ], [ -71.8333333, 43.75 ], [ -71.8333333, 43.6666667 ], [ -71.8333333, 43.625 ], [ -71.8333333, 43.5833333 ], [ -72.0416667, 43.7083333 ], [ -72.0833333, 43.875 ], [ -71.9166667, 44.0833333 ] ], [ [ -72.2083333, 43.5833333 ], [ -72.1666667, 43.5833333 ], [ -72.2083333, 43.5 ], [ -72.2083333, 43.5833333 ] ] ], [ [ [ -79.125, 41.6666667 ], [ -79.1666667, 41.5833333 ], [ -79.0833333, 41.5833333 ], [ -79.125, 41.6666667 ] ] ], [ [ [ -78.5, 41.625 ], [ -78.5416667, 41.5833333 ], [ -78.5, 41.5833333 ], [ -78.5, 41.625 ] ] ], [ [ [ -92.0, 47.75 ], [ -92.125, 47.7083333 ], [ -92.3333333, 47.7916667 ], [ -92.375, 47.7916667 ], [ -92.4583333, 47.7916667 ], [ -92.4583333, 47.7083333 ], [ -92.375, 47.5416667 ], [ -92.3333333, 47.5416667 ], [ -92.375, 47.4166667 ], [ -92.4166667, 47.2916667 ], [ -92.5, 47.3333333 ], [ -92.625, 47.2916667 ], [ -92.7083333, 47.3333333 ], [ -92.8333333, 47.2916667 ], [ -92.9166667, 47.0833333 ], [ -93.0416667, 47.25 ], [ -93.0833333, 47.3333333 ], [ -93.2083333, 47.4583333 ], [ -93.25, 47.4583333 ], [ -93.2916667, 47.4583333 ], [ -93.5, 47.5 ], [ -93.5416667, 47.5 ], [ -93.5416667, 47.3333333 ], [ -93.7916667, 47.3333333 ], [ -93.875, 47.25 ], [ -93.9583333, 47.3333333 ], [ -94.0416667, 47.2083333 ], [ -94.0833333, 47.125 ], [ -94.0833333, 47.0833333 ], [ -94.3333333, 46.9583333 ], [ -94.5416667, 47.0416667 ], [ -94.9166667, 47.1666667 ], [ -94.8333333, 46.9583333 ], [ -94.6666667, 46.9583333 ], [ -94.75, 46.75 ], [ -94.7916667, 46.7916667 ], [ -94.875, 46.875 ], [ -94.9583333, 46.7916667 ], [ -95.0, 46.7083333 ], [ -95.0416667, 46.5833333 ], [ -95.0, 46.5833333 ], [ -95.0416667, 46.4166667 ], [ -95.2083333, 46.3333333 ], [ -95.0833333, 46.2083333 ], [ -95.0833333, 46.1666667 ], [ -95.0416667, 46.0833333 ], [ -95.125, 46.0833333 ], [ -95.125, 45.9583333 ], [ -95.1666667, 45.9583333 ], [ -95.4166667, 46.0 ], [ -95.4166667, 45.75 ], [ -95.2083333, 45.7916667 ], [ -95.1666667, 45.75 ], [ -95.1666667, 45.6666667 ], [ -95.0416667, 45.5833333 ], [ -95.1666667, 45.4583333 ], [ -95.2083333, 45.4583333 ], [ -95.1666667, 45.4166667 ], [ -95.125, 45.3333333 ], [ -95.0833333, 45.2916667 ], [ -95.0416667, 45.25 ], [ -94.9583333, 45.2916667 ], [ -94.9583333, 45.375 ], [ -94.875, 45.3333333 ], [ -94.9166667, 45.2916667 ], [ -94.875, 45.2916667 ], [ -94.8333333, 45.2083333 ], [ -94.9166667, 45.1666667 ], [ -94.7916667, 45.0833333 ], [ -94.7083333, 45.0416667 ], [ -94.6666667, 44.9583333 ], [ -94.75, 44.6666667 ], [ -94.4583333, 44.5 ], [ -94.25, 44.5 ], [ -93.9166667, 44.4166667 ], [ -93.7916667, 44.2916667 ], [ -93.75, 44.2916667 ], [ -93.4583333, 44.2916667 ], [ -93.375, 44.2083333 ], [ -93.0, 44.1666667 ], [ -92.9583333, 44.125 ], [ -92.75, 44.0416667 ], [ -92.5, 43.8333333 ], [ -92.25, 43.8333333 ], [ -92.125, 43.7083333 ], [ -91.8333333, 43.625 ], [ -91.7083333, 43.4166667 ], [ -91.5, 43.3333333 ], [ -91.1666667, 43.0833333 ], [ -91.1666667, 43.0416667 ], [ -90.875, 43.0 ], [ -90.6666667, 42.875 ], [ -90.4166667, 42.9166667 ], [ -90.125, 42.875 ], [ -89.75, 42.6666667 ], [ -89.5833333, 42.5416667 ], [ -89.4583333, 42.5416667 ], [ -89.4166667, 42.4583333 ], [ -89.2916667, 42.375 ], [ -89.125, 42.25 ], [ -88.75, 42.2083333 ], [ -88.625, 42.2083333 ], [ -88.4583333, 42.1666667 ], [ -88.4583333, 42.125 ], [ -88.4166667, 42.1666667 ], [ -88.375, 42.0 ], [ -88.0833333, 41.9583333 ], [ -88.0833333, 41.8333333 ], [ -87.8333333, 41.7916667 ], [ -87.7916667, 41.6666667 ], [ -87.375, 41.5833333 ], [ -87.5833333, 41.75 ], [ -87.7083333, 42.0416667 ], [ -87.8333333, 42.1666667 ], [ -87.8333333, 42.7083333 ], [ -87.9166667, 43.0 ], [ -87.9166667, 43.375 ], [ -87.8333333, 43.5833333 ], [ -87.7083333, 43.7083333 ], [ -87.75, 43.9583333 ], [ -87.7083333, 44.0833333 ], [ -87.5416667, 44.1666667 ], [ -87.5416667, 44.4583333 ], [ -87.375, 44.7916667 ], [ -87.625, 44.8333333 ], [ -87.7083333, 44.6666667 ], [ -87.875, 44.5416667 ], [ -88.0416667, 44.6666667 ], [ -87.875, 44.9583333 ], [ -87.6666667, 45.0 ], [ -87.625, 45.2083333 ], [ -87.3333333, 45.4583333 ], [ -87.2083333, 45.7083333 ], [ -86.9583333, 45.75 ], [ -86.7916667, 45.875 ], [ -86.3333333, 45.875 ], [ -86.2083333, 46.0 ], [ -85.6666667, 46.0 ], [ -85.5833333, 46.125 ], [ -85.25, 46.125 ], [ -84.75, 46.0 ], [ -84.7083333, 46.0833333 ], [ -84.2916667, 46.0 ], [ -83.9583333, 46.0 ], [ -84.125, 46.1666667 ], [ -84.2916667, 46.1666667 ], [ -84.25, 46.375 ], [ -84.625, 46.4583333 ], [ -85.0416667, 46.4583333 ], [ -85.0416667, 46.75 ], [ -85.2916667, 46.75 ], [ -85.4166667, 46.6666667 ], [ -86.1666667, 46.6666667 ], [ -86.25, 46.5833333 ], [ -86.5, 46.5416667 ], [ -86.5833333, 46.4583333 ], [ -86.9583333, 46.5 ], [ -87.4166667, 46.5 ], [ -87.5833333, 46.4166667 ], [ -87.75, 46.5416667 ], [ -87.8333333, 46.5416667 ], [ -87.875, 46.75 ], [ -87.875, 46.9166667 ], [ -88.1666667, 46.9166667 ], [ -88.4166667, 46.75 ], [ -88.4583333, 47.0 ], [ -88.5416667, 47.125 ], [ -88.7916667, 47.1666667 ], [ -88.9166667, 47.0 ], [ -89.125, 47.0 ], [ -89.3333333, 46.8333333 ], [ -89.75, 46.7916667 ], [ -90.25, 46.5833333 ], [ -90.625, 46.5833333 ], [ -90.875, 46.7083333 ], [ -90.875, 46.8333333 ], [ -91.2916667, 46.8333333 ], [ -91.375, 46.75 ], [ -91.625, 46.75 ], [ -91.7916667, 46.6666667 ], [ -92.0416667, 46.6666667 ], [ -92.125, 46.8333333 ], [ -91.7916667, 46.9583333 ], [ -91.75, 47.0416667 ], [ -91.4583333, 47.2083333 ], [ -91.2916667, 47.375 ], [ -91.4166667, 47.5 ], [ -91.6666667, 47.4166667 ], [ -91.75, 47.4583333 ], [ -91.7916667, 47.4583333 ], [ -91.875, 47.4583333 ], [ -92.0, 47.5833333 ], [ -92.0, 47.75 ] ], [ [ -88.125, 46.7083333 ], [ -88.0833333, 46.75 ], [ -88.0833333, 46.7083333 ], [ -88.125, 46.7083333 ] ], [ [ -88.375, 46.6666667 ], [ -88.3333333, 46.6666667 ], [ -88.375, 46.625 ], [ -88.375, 46.6666667 ] ], [ [ -94.2916667, 46.375 ], [ -94.2916667, 46.5 ], [ -94.125, 46.4166667 ], [ -94.25, 46.375 ], [ -94.2916667, 46.375 ] ], [ [ -88.7916667, 46.4166667 ], [ -88.75, 46.5 ], [ -88.75, 46.4166667 ], [ -88.7916667, 46.4166667 ] ], [ [ -88.9583333, 45.7916667 ], [ -88.7916667, 45.8333333 ], [ -88.7916667, 45.75 ], [ -88.9583333, 45.7916667 ] ], [ [ -89.375, 45.875 ], [ -89.2916667, 45.7916667 ], [ -89.25, 45.75 ], [ -89.0833333, 45.75 ], [ -89.25, 45.7083333 ], [ -89.4166667, 45.7083333 ], [ -89.375, 45.875 ] ], [ [ -94.7916667, 45.7083333 ], [ -94.7083333, 45.6666667 ], [ -94.7916667, 45.6666667 ], [ -94.7916667, 45.7083333 ] ] ], [ [ [ -89.2916667, 45.75 ], [ -89.25, 45.7083333 ], [ -89.25, 45.75 ], [ -89.2916667, 45.75 ] ] ], [ [ [ -78.3333333, 41.375 ], [ -78.375, 41.3333333 ], [ -78.3333333, 41.3333333 ], [ -78.3333333, 41.375 ] ] ], [ [ [ -78.4166667, 41.3333333 ], [ -78.375, 41.2916667 ], [ -78.375, 41.3333333 ], [ -78.4166667, 41.3333333 ] ] ], [ [ [ -83.7083333, 40.2916667 ], [ -83.7083333, 40.25 ], [ -83.6666667, 40.25 ], [ -83.7083333, 40.2916667 ] ] ], [ [ [ -82.9583333, 40.125 ], [ -82.9583333, 40.0833333 ], [ -82.9166667, 40.125 ], [ -82.9583333, 40.125 ] ] ], [ [ [ -80.9583333, 48.2916667 ], [ -81.2083333, 48.1666667 ], [ -81.3333333, 48.0 ], [ -81.375, 48.0 ], [ -81.375, 48.0416667 ], [ -81.4166667, 48.1666667 ], [ -81.625, 48.1666667 ], [ -81.7083333, 48.125 ], [ -81.875, 48.25 ], [ -81.9166667, 48.25 ], [ -82.4583333, 48.1666667 ], [ -82.75, 48.0833333 ], [ -82.8333333, 48.0 ], [ -82.875, 47.8333333 ], [ -83.0, 47.7916667 ], [ -83.0833333, 47.625 ], [ -82.8333333, 47.625 ], [ -82.75, 47.4583333 ], [ -82.9583333, 47.5 ], [ -82.9583333, 47.3333333 ], [ -82.8333333, 47.375 ], [ -82.7916667, 47.375 ], [ -82.75, 47.4166667 ], [ -82.75, 47.375 ], [ -82.7083333, 47.3333333 ], [ -82.6666667, 47.3333333 ], [ -82.7083333, 47.2916667 ], [ -82.875, 47.125 ], [ -82.8333333, 47.125 ], [ -82.75, 47.0416667 ], [ -82.7916667, 46.875 ], [ -82.75, 46.7083333 ], [ -82.9583333, 46.7083333 ], [ -82.8333333, 46.5 ], [ -83.0, 46.5416667 ], [ -83.5, 46.4583333 ], [ -83.5833333, 46.5833333 ], [ -83.625, 46.5833333 ], [ -83.875, 46.625 ], [ -84.0416667, 46.5833333 ], [ -84.0416667, 46.3333333 ], [ -83.4583333, 46.2916667 ], [ -83.25, 46.2083333 ], [ -82.7083333, 46.25 ], [ -82.2916667, 46.2083333 ], [ -82.0416667, 46.125 ], [ -81.5833333, 46.1666667 ], [ -81.4583333, 46.0416667 ], [ -81.125, 45.9583333 ], [ -80.7083333, 45.9583333 ], [ -80.3333333, 45.75 ], [ -80.0416667, 45.75 ], [ -79.9583333, 45.5833333 ], [ -79.7916667, 45.4583333 ], [ -79.75, 45.4583333 ], [ -79.7916667, 45.4166667 ], [ -79.6666667, 45.3333333 ], [ -79.7083333, 45.25 ], [ -79.75, 45.2083333 ], [ -79.7083333, 45.2083333 ], [ -79.75, 45.1666667 ], [ -79.8333333, 45.0416667 ], [ -79.6666667, 44.9166667 ], [ -79.6666667, 44.75 ], [ -79.9583333, 44.7083333 ], [ -80.0416667, 44.4583333 ], [ -80.2916667, 44.4583333 ], [ -80.4166667, 44.2083333 ], [ -80.5833333, 44.2916667 ], [ -80.7083333, 44.2916667 ], [ -80.875, 44.4583333 ], [ -80.875, 44.5833333 ], [ -80.9583333, 44.7083333 ], [ -81.0833333, 44.6666667 ], [ -81.125, 44.9166667 ], [ -81.2916667, 45.0 ], [ -81.3333333, 45.25 ], [ -81.5416667, 45.2083333 ], [ -81.4583333, 45.0416667 ], [ -81.3333333, 45.0416667 ], [ -81.25, 44.8333333 ], [ -81.25, 44.5833333 ], [ -81.375, 44.4166667 ], [ -81.1666667, 44.375 ], [ -81.125, 44.2083333 ], [ -81.1666667, 44.0 ], [ -81.2916667, 43.7083333 ], [ -81.5, 43.7083333 ], [ -81.5, 43.8333333 ], [ -81.7083333, 43.875 ], [ -81.6666667, 43.4166667 ], [ -81.875, 43.2083333 ], [ -82.0, 43.2083333 ], [ -82.1666667, 43.0416667 ], [ -82.4583333, 43.0 ], [ -82.5416667, 43.1666667 ], [ -82.5416667, 43.4166667 ], [ -82.625, 43.5416667 ], [ -82.625, 43.75 ], [ -82.7083333, 43.9166667 ], [ -82.875, 44.0416667 ], [ -83.3333333, 43.9166667 ], [ -83.4583333, 43.6666667 ], [ -83.625, 43.5833333 ], [ -83.9583333, 43.6666667 ], [ -83.9583333, 43.9166667 ], [ -83.8333333, 44.0416667 ], [ -83.5833333, 44.125 ], [ -83.5833333, 44.25 ], [ -83.3333333, 44.375 ], [ -83.3333333, 44.875 ], [ -83.4583333, 44.9166667 ], [ -83.4166667, 45.1666667 ], [ -83.4583333, 45.3333333 ], [ -83.625, 45.3333333 ], [ -83.9583333, 45.5 ], [ -84.2083333, 45.5 ], [ -84.25, 45.5833333 ], [ -84.3333333, 45.6666667 ], [ -84.5416667, 45.6666667 ], [ -84.625, 45.75 ], [ -84.9166667, 45.75 ], [ -85.0833333, 45.625 ], [ -85.1666667, 45.375 ], [ -85.375, 45.25 ], [ -85.375, 44.9166667 ], [ -85.5, 44.75 ], [ -85.6666667, 44.7916667 ], [ -85.7916667, 44.9166667 ], [ -86.0416667, 44.9166667 ], [ -86.0833333, 44.7083333 ], [ -86.2083333, 44.6666667 ], [ -86.25, 44.3333333 ], [ -86.375, 44.2083333 ], [ -86.4166667, 43.75 ], [ -86.5, 43.625 ], [ -86.4166667, 43.4583333 ], [ -86.375, 43.2916667 ], [ -86.25, 43.2916667 ], [ -86.2083333, 43.0416667 ], [ -86.2083333, 42.5833333 ], [ -86.3333333, 42.25 ], [ -86.625, 41.8333333 ], [ -86.7083333, 41.7916667 ], [ -86.8333333, 41.7083333 ], [ -86.6666667, 41.75 ], [ -86.5833333, 41.7083333 ], [ -86.5416667, 41.625 ], [ -86.5416667, 41.6666667 ], [ -86.5, 41.75 ], [ -86.3333333, 41.625 ], [ -86.0833333, 41.5416667 ], [ -86.0416667, 41.4583333 ], [ -86.125, 41.2916667 ], [ -85.6666667, 41.1666667 ], [ -85.5, 41.125 ], [ -85.5833333, 41.0 ], [ -85.3333333, 40.7083333 ], [ -85.2916667, 40.5416667 ], [ -85.0416667, 40.5 ], [ -84.875, 40.5416667 ], [ -84.6666667, 40.5 ], [ -84.4583333, 40.5 ], [ -84.0416667, 40.4166667 ], [ -83.8333333, 40.4166667 ], [ -83.7083333, 40.2916667 ], [ -83.7083333, 40.375 ], [ -83.6666667, 40.25 ], [ -83.6666667, 40.2083333 ], [ -83.4166667, 40.125 ], [ -83.1666667, 40.0416667 ], [ -82.9583333, 40.0833333 ], [ -83.0416667, 40.0833333 ], [ -82.9583333, 40.125 ], [ -82.9166667, 40.1666667 ], [ -82.9166667, 40.125 ], [ -82.875, 40.2083333 ], [ -82.9166667, 40.3333333 ], [ -82.875, 40.4583333 ], [ -82.8333333, 40.4583333 ], [ -82.7916667, 40.5 ], [ -82.5833333, 40.5416667 ], [ -82.375, 40.6666667 ], [ -82.375, 40.5833333 ], [ -82.1666667, 40.5 ], [ -82.0833333, 40.4583333 ], [ -81.75, 40.4583333 ], [ -81.5833333, 40.5416667 ], [ -81.625, 40.4166667 ], [ -81.5416667, 40.4166667 ], [ -81.375, 40.625 ], [ -81.0833333, 40.7916667 ], [ -81.0416667, 40.7916667 ], [ -81.0, 40.9583333 ], [ -80.7916667, 40.9583333 ], [ -80.75, 40.9166667 ], [ -80.7083333, 40.9166667 ], [ -80.6666667, 40.9166667 ], [ -80.5, 40.9166667 ], [ -80.4583333, 40.9166667 ], [ -80.4166667, 40.9166667 ], [ -80.1666667, 41.0416667 ], [ -80.0, 40.9583333 ], [ -79.9583333, 40.9583333 ], [ -79.8333333, 41.0 ], [ -79.5416667, 40.9583333 ], [ -79.4166667, 41.125 ], [ -79.5416667, 41.2083333 ], [ -79.2916667, 41.2083333 ], [ -79.25, 41.375 ], [ -79.25, 41.4166667 ], [ -79.1666667, 41.5833333 ], [ -79.1666667, 41.7083333 ], [ -79.0416667, 41.7083333 ], [ -79.0, 41.7083333 ], [ -78.9583333, 41.7916667 ], [ -78.7083333, 41.875 ], [ -78.5833333, 41.9583333 ], [ -78.5416667, 41.7916667 ], [ -78.2916667, 41.7916667 ], [ -78.2916667, 41.75 ], [ -78.5, 41.75 ], [ -78.5, 41.625 ], [ -78.4583333, 41.5833333 ], [ -78.4166667, 41.5833333 ], [ -78.2916667, 41.5 ], [ -78.2916667, 41.625 ], [ -78.25, 41.625 ], [ -78.1666667, 41.625 ], [ -78.1666667, 41.4166667 ], [ -78.3333333, 41.3333333 ], [ -78.375, 41.2916667 ], [ -78.1666667, 41.2916667 ], [ -78.2083333, 41.125 ], [ -78.2916667, 41.0833333 ], [ -78.3333333, 41.0416667 ], [ -78.2083333, 40.9166667 ], [ -78.25, 40.5 ], [ -78.3333333, 40.375 ], [ -78.125, 40.25 ], [ -78.0416667, 40.3333333 ], [ -78.0, 40.3333333 ], [ -77.9166667, 40.4166667 ], [ -77.7083333, 40.4166667 ], [ -77.7083333, 40.4583333 ], [ -77.625, 40.4583333 ], [ -77.5, 40.5 ], [ -77.4166667, 40.9166667 ], [ -77.3333333, 40.9583333 ], [ -77.3333333, 41.0 ], [ -77.2916667, 40.9583333 ], [ -77.0833333, 40.9166667 ], [ -77.125, 40.875 ], [ -77.0833333, 40.875 ], [ -76.9583333, 40.7916667 ], [ -76.9583333, 40.625 ], [ -76.9583333, 40.5833333 ], [ -76.875, 40.5416667 ], [ -76.75, 40.6666667 ], [ -76.7083333, 40.6666667 ], [ -76.75, 40.7083333 ], [ -76.5833333, 40.625 ], [ -76.4583333, 40.8333333 ], [ -76.2916667, 40.875 ], [ -76.0416667, 41.0 ], [ -75.7916667, 41.0416667 ], [ -75.5, 41.3333333 ], [ -75.1666667, 41.375 ], [ -74.9166667, 41.625 ], [ -75.0, 41.9166667 ], [ -74.9166667, 41.9583333 ], [ -74.8333333, 42.0 ], [ -74.5833333, 42.125 ], [ -74.4166667, 42.25 ], [ -74.375, 42.375 ], [ -74.0833333, 42.2916667 ], [ -74.0416667, 42.0833333 ], [ -74.25, 41.9583333 ], [ -74.2083333, 41.7916667 ], [ -74.125, 41.7083333 ], [ -74.0, 41.7083333 ], [ -73.9583333, 41.5833333 ], [ -73.75, 41.6666667 ], [ -73.7083333, 41.875 ], [ -73.6666667, 41.875 ], [ -73.6666667, 41.9166667 ], [ -73.375, 42.125 ], [ -73.2916667, 42.3333333 ], [ -73.0833333, 42.5833333 ], [ -73.1666667, 42.7083333 ], [ -73.1666667, 42.9583333 ], [ -73.0, 43.2916667 ], [ -72.8333333, 43.4166667 ], [ -72.8333333, 43.5 ], [ -72.875, 43.5 ], [ -72.875, 43.5833333 ], [ -72.9166667, 43.5833333 ], [ -73.0, 43.75 ], [ -73.0, 43.875 ], [ -73.0833333, 44.0 ], [ -72.9583333, 44.125 ], [ -73.0, 44.25 ], [ -72.7916667, 44.3333333 ], [ -72.625, 44.125 ], [ -72.4583333, 44.1666667 ], [ -72.5, 44.3333333 ], [ -72.6666667, 44.4583333 ], [ -72.4583333, 44.5416667 ], [ -72.4583333, 44.625 ], [ -72.75, 44.6666667 ], [ -72.5833333, 44.9166667 ], [ -72.5833333, 44.9583333 ], [ -72.5833333, 45.125 ], [ -72.5, 45.1666667 ], [ -72.375, 45.2916667 ], [ -72.5, 45.0833333 ], [ -72.4583333, 44.7916667 ], [ -72.2083333, 44.7916667 ], [ -72.0833333, 44.9166667 ], [ -72.0833333, 45.0833333 ], [ -71.9583333, 45.2083333 ], [ -71.75, 45.2916667 ], [ -71.75, 45.4583333 ], [ -71.9166667, 45.5 ], [ -72.0416667, 45.7083333 ], [ -71.9166667, 45.75 ], [ -71.875, 46.1666667 ], [ -72.0416667, 46.25 ], [ -71.9583333, 46.5416667 ], [ -71.7916667, 46.625 ], [ -71.9583333, 46.6666667 ], [ -71.9583333, 46.625 ], [ -72.4583333, 46.625 ], [ -72.5, 46.5 ], [ -72.8333333, 46.5416667 ], [ -73.125, 46.4166667 ], [ -73.2916667, 46.3333333 ], [ -73.4166667, 46.375 ], [ -73.6666667, 46.125 ], [ -73.875, 46.125 ], [ -73.875, 46.0 ], [ -74.1666667, 46.0 ], [ -74.5, 45.9166667 ], [ -74.5416667, 46.1666667 ], [ -74.6666667, 46.2916667 ], [ -74.8333333, 46.1666667 ], [ -75.0, 46.4166667 ], [ -75.125, 46.25 ], [ -75.4166667, 46.125 ], [ -75.4166667, 46.3333333 ], [ -75.3333333, 46.5416667 ], [ -75.5833333, 46.5833333 ], [ -75.875, 46.5 ], [ -75.875, 46.6666667 ], [ -75.7083333, 46.75 ], [ -75.7083333, 46.875 ], [ -75.9166667, 46.875 ], [ -76.0416667, 46.7916667 ], [ -76.0416667, 46.625 ], [ -76.2083333, 46.625 ], [ -76.5, 46.6666667 ], [ -76.5, 46.4166667 ], [ -76.6666667, 46.5 ], [ -76.9166667, 46.5 ], [ -77.0833333, 46.6666667 ], [ -77.4583333, 46.625 ], [ -77.625, 46.5416667 ], [ -77.75, 46.7083333 ], [ -78.0416667, 46.7916667 ], [ -77.875, 46.9166667 ], [ -78.125, 47.0 ], [ -78.125, 47.125 ], [ -78.5416667, 47.125 ], [ -78.625, 47.4166667 ], [ -78.5833333, 47.6666667 ], [ -79.0416667, 47.6666667 ], [ -79.125, 47.875 ], [ -79.25, 47.875 ], [ -79.4583333, 47.7916667 ], [ -79.5833333, 48.0 ], [ -79.4583333, 48.0833333 ], [ -79.625, 48.0 ], [ -79.7916667, 48.0 ], [ -79.9583333, 48.125 ], [ -79.9583333, 48.1666667 ], [ -80.0833333, 48.1666667 ], [ -80.1666667, 48.1666667 ], [ -80.125, 48.0833333 ], [ -80.5416667, 48.0416667 ], [ -80.7083333, 48.125 ], [ -80.7916667, 48.1666667 ], [ -80.8333333, 48.1666667 ], [ -80.9166667, 48.25 ], [ -80.9583333, 48.2916667 ] ], [ [ -73.6666667, 41.9166667 ], [ -73.7083333, 41.9166667 ], [ -73.7083333, 41.9583333 ], [ -73.6666667, 41.9166667 ] ], [ [ -82.8333333, 46.5 ], [ -82.75, 46.625 ], [ -82.5416667, 46.5416667 ], [ -82.6666667, 46.4166667 ], [ -82.8333333, 46.5 ] ], [ [ -72.375, 45.2916667 ], [ -72.25, 45.5416667 ], [ -72.0416667, 45.5416667 ], [ -72.125, 45.3333333 ], [ -72.375, 45.2916667 ] ], [ [ -79.0, 45.375 ], [ -78.875, 45.2916667 ], [ -78.9166667, 45.1666667 ], [ -79.0416667, 45.2083333 ], [ -79.0, 45.375 ] ], [ [ -74.6666667, 44.3333333 ], [ -74.5833333, 44.5416667 ], [ -74.1666667, 44.7916667 ], [ -74.0, 44.7916667 ], [ -73.9166667, 44.7916667 ], [ -73.7916667, 44.75 ], [ -73.7916667, 44.7083333 ], [ -73.9583333, 44.625 ], [ -73.9166667, 44.5 ], [ -73.8333333, 44.25 ], [ -73.625, 44.1666667 ], [ -73.75, 44.0416667 ], [ -73.7916667, 43.875 ], [ -73.9583333, 43.8333333 ], [ -74.0416667, 43.7083333 ], [ -74.0, 43.625 ], [ -74.0416667, 43.625 ], [ -74.0416667, 43.5833333 ], [ -73.9583333, 43.5833333 ], [ -73.9583333, 43.4583333 ], [ -74.0, 43.4583333 ], [ -74.0, 43.4166667 ], [ -74.0416667, 43.375 ], [ -74.0833333, 43.3333333 ], [ -74.125, 43.375 ], [ -74.0833333, 43.375 ], [ -74.0833333, 43.4583333 ], [ -74.0416667, 43.4583333 ], [ -74.0416667, 43.5 ], [ -74.125, 43.5 ], [ -74.125, 43.4166667 ], [ -74.25, 43.4166667 ], [ -74.2916667, 43.25 ], [ -74.4166667, 43.1666667 ], [ -74.875, 43.2083333 ], [ -75.0, 43.3333333 ], [ -75.3333333, 43.3333333 ], [ -75.5833333, 43.375 ], [ -75.9166667, 43.5416667 ], [ -75.8333333, 43.6666667 ], [ -75.5416667, 43.7083333 ], [ -75.2916667, 43.5 ], [ -75.25, 43.6666667 ], [ -75.2083333, 43.6666667 ], [ -75.125, 43.75 ], [ -75.125, 44.0416667 ], [ -74.7916667, 44.2083333 ], [ -74.6666667, 44.3333333 ] ], [ [ -75.8333333, 44.5416667 ], [ -75.875, 44.375 ], [ -76.0833333, 44.2083333 ], [ -76.3333333, 44.0833333 ], [ -76.0416667, 44.0416667 ], [ -76.2083333, 43.8333333 ], [ -76.2083333, 43.5 ], [ -76.4583333, 43.5 ], [ -76.6666667, 43.3333333 ], [ -76.9166667, 43.25 ], [ -77.4166667, 43.2916667 ], [ -77.6666667, 43.25 ], [ -77.9583333, 43.375 ], [ -78.5833333, 43.375 ], [ -78.9583333, 43.25 ], [ -79.2916667, 43.2083333 ], [ -79.7083333, 43.2083333 ], [ -79.75, 43.375 ], [ -79.5, 43.6666667 ], [ -79.375, 43.6666667 ], [ -79.1666667, 43.8333333 ], [ -78.8333333, 43.9166667 ], [ -78.4583333, 43.9166667 ], [ -78.2916667, 44.0 ], [ -77.875, 44.0 ], [ -77.4166667, 44.2083333 ], [ -76.75, 44.2083333 ], [ -76.1666667, 44.375 ], [ -76.0, 44.375 ], [ -75.8333333, 44.5416667 ] ], [ [ -86.2083333, 43.4583333 ], [ -86.0833333, 43.5 ], [ -85.9583333, 43.3333333 ], [ -86.0416667, 43.2916667 ], [ -86.125, 43.4583333 ], [ -86.2083333, 43.4583333 ] ], [ [ -79.0833333, 43.125 ], [ -78.875, 43.0833333 ], [ -78.8333333, 42.7916667 ], [ -79.125, 42.5416667 ], [ -79.25, 42.5416667 ], [ -79.5, 42.375 ], [ -79.9166667, 42.2083333 ], [ -80.0, 42.125 ], [ -80.4583333, 41.9583333 ], [ -80.625, 41.9583333 ], [ -81.375, 41.7083333 ], [ -81.7083333, 41.4583333 ], [ -82.0833333, 41.5 ], [ -82.375, 41.375 ], [ -82.5833333, 41.375 ], [ -82.6666667, 41.4583333 ], [ -83.0, 41.4166667 ], [ -83.0, 41.5416667 ], [ -83.25, 41.6666667 ], [ -83.4166667, 41.6666667 ], [ -83.4583333, 41.7916667 ], [ -83.2083333, 42.0416667 ], [ -83.1666667, 42.2916667 ], [ -82.9166667, 42.4166667 ], [ -82.9166667, 42.5416667 ], [ -82.7916667, 42.7083333 ], [ -82.625, 42.7083333 ], [ -82.5833333, 42.5416667 ], [ -82.4166667, 42.5416667 ], [ -82.375, 42.375 ], [ -82.4583333, 42.2916667 ], [ -83.0833333, 42.2916667 ], [ -83.0416667, 42.0416667 ], [ -82.5416667, 42.0416667 ], [ -82.4166667, 42.1666667 ], [ -82.125, 42.2916667 ], [ -81.9166667, 42.2916667 ], [ -81.6666667, 42.5416667 ], [ -81.4166667, 42.6666667 ], [ -80.7083333, 42.6666667 ], [ -80.5416667, 42.625 ], [ -80.3333333, 42.7083333 ], [ -80.2083333, 42.8333333 ], [ -79.8333333, 42.8333333 ], [ -79.5, 42.9166667 ], [ -79.1666667, 42.9166667 ], [ -79.0833333, 43.125 ] ], [ [ -78.75, 41.9583333 ], [ -78.7083333, 41.9583333 ], [ -78.7083333, 41.875 ], [ -78.7916667, 41.9166667 ], [ -78.75, 41.9583333 ] ], [ [ -78.7916667, 41.9583333 ], [ -78.7916667, 42.0 ], [ -78.75, 41.9583333 ], [ -78.7916667, 41.9583333 ] ], [ [ -77.875, 41.7083333 ], [ -77.7916667, 41.5833333 ], [ -77.7916667, 41.375 ], [ -77.9166667, 41.375 ], [ -77.9583333, 41.625 ], [ -77.875, 41.7083333 ] ], [ [ -74.2083333, 43.4166667 ], [ -74.25, 43.4166667 ], [ -74.1666667, 43.5 ], [ -74.2083333, 43.4166667 ] ] ], [ [ [ -74.1666667, 43.5416667 ], [ -74.1666667, 43.5 ], [ -74.125, 43.5 ], [ -74.125, 43.5416667 ], [ -74.1666667, 43.5416667 ] ] ], [ [ [ -74.0416667, 43.5416667 ], [ -74.0416667, 43.5 ], [ -74.0, 43.5 ], [ -74.0416667, 43.5416667 ] ] ], [ [ [ -77.125, 44.125 ], [ -77.5, 44.0416667 ], [ -77.0416667, 43.9583333 ], [ -77.125, 44.125 ] ] ] ] } },
{ "type": "Feature", "properties": { "ID": 9 }, "geometry": { "type": "MultiPolygon", "coordinates": [ [ [ [ -80.875, 48.2916667 ], [ -80.9166667, 48.25 ], [ -80.8333333, 48.25 ], [ -80.8333333, 48.2916667 ], [ -80.875, 48.2916667 ] ] ], [ [ [ -80.8333333, 48.25 ], [ -80.8333333, 48.1666667 ], [ -80.7916667, 48.1666667 ], [ -80.7916667, 48.25 ], [ -80.8333333, 48.25 ] ] ], [ [ [ -80.0833333, 48.2083333 ], [ -80.1666667, 48.1666667 ], [ -80.0833333, 48.1666667 ], [ -80.0833333, 48.2083333 ] ] ], [ [ [ -80.1666667, 48.1666667 ], [ -80.2916667, 48.25 ], [ -80.5416667, 48.2083333 ], [ -80.7083333, 48.2083333 ], [ -80.7083333, 48.125 ], [ -80.5416667, 48.0416667 ], [ -80.125, 48.0833333 ], [ -80.1666667, 48.1666667 ] ] ], [ [ [ -79.5833333, 48.0833333 ], [ -79.7916667, 48.0 ], [ -79.625, 48.0 ], [ -79.5833333, 48.0833333 ] ] ], [ [ [ -81.375, 48.0416667 ], [ -81.375, 48.0 ], [ -81.3333333, 48.0 ], [ -81.375, 48.0416667 ] ] ], [ [ [ -76.25, 47.625 ], [ -76.4166667, 47.625 ], [ -76.4166667, 47.5 ], [ -76.2083333, 47.5833333 ], [ -76.25, 47.625 ] ] ], [ [ [ -68.75, 47.5 ], [ -68.7916667, 47.4583333 ], [ -68.75, 47.4583333 ], [ -68.75, 47.5 ] ] ], [ [ [ -70.2916667, 47.4583333 ], [ -70.1666667, 47.5 ], [ -70.0833333, 47.7083333 ], [ -70.4166667, 47.7083333 ], [ -70.5416667, 47.625 ], [ -70.5416667, 47.4166667 ], [ -70.2916667, 47.4583333 ] ] ], [ [ [ -69.2083333, 45.4583333 ], [ -69.2083333, 45.375 ], [ -69.0, 45.4166667 ], [ -69.2083333, 45.4583333 ] ] ], [ [ [ -72.375, 45.2916667 ], [ -72.125, 45.3333333 ], [ -72.0416667, 45.5416667 ], [ -72.25, 45.5416667 ], [ -72.375, 45.2916667 ] ] ], [ [ [ -70.0, 45.1666667 ], [ -70.0, 45.125 ], [ -69.9583333, 45.125 ], [ -70.0, 45.1666667 ] ] ], [ [ [ -70.0, 45.125 ], [ -70.0416667, 45.0833333 ], [ -70.0, 45.0833333 ], [ -70.0, 45.125 ] ] ], [ [ [ -69.9583333, 45.125 ], [ -69.9583333, 45.0833333 ], [ -69.9166667, 45.0833333 ], [ -69.9583333, 45.125 ] ] ], [ [ [ -72.375, 45.2916667 ], [ -72.5, 45.1666667 ], [ -72.5, 45.0833333 ], [ -72.375, 45.2916667 ] ] ], [ [ [ -70.125, 44.9166667 ], [ -70.0833333, 44.875 ], [ -70.0833333, 44.9166667 ], [ -70.125, 44.9166667 ] ] ], [ [ [ -69.375, 45.0 ], [ -69.4583333, 44.9166667 ], [ -69.2916667, 44.8333333 ], [ -69.375, 45.0 ] ] ], [ [ [ -69.4583333, 44.9166667 ], [ -69.9166667, 45.0833333 ], [ -70.0416667, 45.0 ], [ -70.0416667, 45.0833333 ], [ -70.125, 44.9166667 ], [ -70.0833333, 44.9583333 ], [ -70.0833333, 44.9166667 ], [ -69.9583333, 44.9166667 ], [ -69.9166667, 44.7083333 ], [ -69.6666667, 44.7916667 ], [ -69.625, 44.7916667 ], [ -69.5833333, 44.7916667 ], [ -69.4583333, 44.9166667 ] ] ], [ [ [ -79.25, 48.0416667 ], [ -79.25, 48.0 ], [ -79.2916667, 48.0 ], [ -79.25, 47.9583333 ], [ -79.3333333, 47.9583333 ], [ -79.5833333, 48.0 ], [ -79.4583333, 47.7916667 ], [ -79.25, 47.875 ], [ -79.125, 47.875 ], [ -79.0416667, 47.6666667 ], [ -78.5833333, 47.6666667 ], [ -78.625, 47.4166667 ], [ -78.5416667, 47.125 ], [ -78.125, 47.125 ], [ -78.125, 47.0 ], [ -77.875, 46.9166667 ], [ -78.0416667, 46.7916667 ], [ -77.75, 46.7083333 ], [ -77.625, 46.5416667 ], [ -77.4583333, 46.625 ], [ -77.0833333, 46.6666667 ], [ -76.9166667, 46.5 ], [ -76.6666667, 46.5 ], [ -76.5, 46.4166667 ], [ -76.5, 46.6666667 ], [ -76.2083333, 46.625 ], [ -76.0416667, 46.625 ], [ -76.0416667, 46.7916667 ], [ -75.9166667, 46.875 ], [ -75.7083333, 46.875 ], [ -75.7083333, 46.75 ], [ -75.875, 46.6666667 ], [ -75.875, 46.5 ], [ -75.5833333, 46.5833333 ], [ -75.3333333, 46.5416667 ], [ -75.4166667, 46.3333333 ], [ -75.4166667, 46.125 ], [ -75.125, 46.25 ], [ -75.0, 46.4166667 ], [ -74.8333333, 46.1666667 ], [ -74.6666667, 46.2916667 ], [ -74.5416667, 46.1666667 ], [ -74.5, 45.9166667 ], [ -74.1666667, 46.0 ], [ -73.875, 46.0 ], [ -73.875, 46.125 ], [ -73.6666667, 46.125 ], [ -73.4166667, 46.375 ], [ -73.2916667, 46.3333333 ], [ -73.125, 46.4166667 ], [ -72.8333333, 46.5416667 ], [ -72.5, 46.5 ], [ -72.4583333, 46.625 ], [ -71.9583333, 46.625 ], [ -71.9583333, 46.6666667 ], [ -71.6666667, 46.6666667 ], [ -71.5416667, 46.6666667 ], [ -71.7916667, 46.625 ], [ -71.9583333, 46.5416667 ], [ -72.0416667, 46.25 ], [ -71.875, 46.1666667 ], [ -71.9166667, 45.75 ], [ -72.0416667, 45.7083333 ], [ -71.9166667, 45.5 ], [ -71.75, 45.4583333 ], [ -71.75, 45.2916667 ], [ -71.9583333, 45.2083333 ], [ -72.0833333, 45.0833333 ], [ -72.0833333, 44.9166667 ], [ -72.2083333, 44.7916667 ], [ -72.4583333, 44.7916667 ], [ -72.5, 45.0833333 ], [ -72.5833333, 45.125 ], [ -72.5833333, 44.9583333 ], [ -72.5833333, 44.9166667 ], [ -72.75, 44.6666667 ], [ -72.4583333, 44.625 ], [ -72.4583333, 44.5416667 ], [ -72.6666667, 44.4583333 ], [ -72.5, 44.3333333 ], [ -72.4583333, 44.1666667 ], [ -72.625, 44.125 ], [ -72.7916667, 44.3333333 ], [ -73.0, 44.25 ], [ -72.9583333, 44.125 ], [ -73.0833333, 44.0 ], [ -73.0, 43.875 ], [ -72.9583333, 43.8333333 ], [ -72.8333333, 43.8333333 ], [ -72.8333333, 43.7916667 ], [ -72.7083333, 43.9583333 ], [ -72.5, 43.9166667 ], [ -72.4166667, 43.7916667 ], [ -72.1666667, 44.125 ], [ -72.125, 44.25 ], [ -72.0416667, 44.5833333 ], [ -71.9166667, 44.375 ], [ -71.75, 44.3333333 ], [ -71.9166667, 44.0833333 ], [ -71.5833333, 44.25 ], [ -71.3333333, 44.5833333 ], [ -71.2916667, 44.4166667 ], [ -71.0833333, 44.5 ], [ -71.0833333, 44.625 ], [ -70.875, 44.625 ], [ -70.7916667, 44.8333333 ], [ -70.625, 45.0 ], [ -70.9166667, 45.0833333 ], [ -71.1666667, 45.0833333 ], [ -71.25, 45.25 ], [ -71.125, 45.5833333 ], [ -70.9583333, 45.4166667 ], [ -70.9166667, 45.3333333 ], [ -70.6666667, 45.3333333 ], [ -70.625, 45.25 ], [ -70.625, 45.2083333 ], [ -70.25, 45.1666667 ], [ -70.2916667, 45.3333333 ], [ -70.1666667, 45.5416667 ], [ -70.125, 45.5416667 ], [ -69.9166667, 45.25 ], [ -69.7916667, 45.375 ], [ -69.5833333, 45.375 ], [ -69.7083333, 45.2916667 ], [ -69.5833333, 45.125 ], [ -69.4166667, 45.1666667 ], [ -69.375, 45.1666667 ], [ -69.25, 45.3333333 ], [ -69.2083333, 45.375 ], [ -69.25, 45.375 ], [ -69.4583333, 45.4583333 ], [ -69.4583333, 45.7083333 ], [ -69.5, 45.7083333 ], [ -69.4166667, 45.7083333 ], [ -69.25, 45.7083333 ], [ -69.0416667, 45.625 ], [ -69.0, 45.4583333 ], [ -69.0, 45.4166667 ], [ -68.75, 45.375 ], [ -68.75, 45.4166667 ], [ -68.7083333, 45.5416667 ], [ -68.5833333, 45.7083333 ], [ -68.5416667, 45.7916667 ], [ -68.5416667, 45.8333333 ], [ -68.5416667, 45.875 ], [ -68.4166667, 45.7916667 ], [ -68.375, 45.7916667 ], [ -68.2083333, 45.9166667 ], [ -67.875, 45.9583333 ], [ -67.4583333, 46.0 ], [ -67.4166667, 46.125 ], [ -67.3333333, 46.0833333 ], [ -67.375, 46.4583333 ], [ -67.625, 46.6666667 ], [ -67.3333333, 46.75 ], [ -67.2916667, 46.9583333 ], [ -67.3333333, 47.125 ], [ -67.4166667, 47.1666667 ], [ -67.5, 47.2083333 ], [ -67.5416667, 47.2083333 ], [ -67.6666667, 47.2916667 ], [ -67.75, 47.2083333 ], [ -68.0, 47.2916667 ], [ -68.0416667, 47.2916667 ], [ -68.2916667, 47.2916667 ], [ -68.4583333, 47.2083333 ], [ -68.4583333, 47.25 ], [ -68.5, 47.2083333 ], [ -68.5416667, 47.2916667 ], [ -68.4583333, 47.2916667 ], [ -68.5416667, 47.3333333 ], [ -68.625, 47.375 ], [ -68.75, 47.4583333 ], [ -68.6666667, 47.3333333 ], [ -68.6666667, 47.25 ], [ -69.0416667, 47.1666667 ], [ -69.125, 47.1666667 ], [ -69.5416667, 47.0 ], [ -69.625, 47.0416667 ], [ -69.875, 47.0 ], [ -69.875, 46.6666667 ], [ -69.9583333, 46.625 ], [ -70.0416667, 46.5833333 ], [ -70.0416667, 46.4583333 ], [ -70.25, 46.4583333 ], [ -70.5833333, 46.5 ], [ -70.4583333, 46.625 ], [ -70.4583333, 46.9166667 ], [ -70.25, 47.0416667 ], [ -70.2083333, 47.1666667 ], [ -69.875, 47.2083333 ], [ -69.8333333, 47.375 ], [ -69.7083333, 47.5 ], [ -69.75, 47.6666667 ], [ -70.0, 47.5416667 ], [ -70.0833333, 47.375 ], [ -70.375, 47.1666667 ], [ -70.5, 47.1666667 ], [ -70.6666667, 47.0 ], [ -70.875, 47.0833333 ], [ -70.9166667, 46.9583333 ], [ -71.125, 46.9166667 ], [ -71.125, 46.75 ], [ -71.375, 46.7083333 ], [ -71.375, 46.8333333 ], [ -71.4583333, 46.7916667 ], [ -71.875, 46.7916667 ], [ -72.1666667, 46.9166667 ], [ -72.4166667, 46.9166667 ], [ -72.5416667, 47.0833333 ], [ -72.5416667, 47.125 ], [ -72.625, 47.2916667 ], [ -72.6666667, 47.5416667 ], [ -72.7916667, 47.7083333 ], [ -73.2916667, 47.6666667 ], [ -73.2083333, 47.75 ], [ -73.3333333, 47.6666667 ], [ -73.5, 47.5833333 ], [ -73.5416667, 47.4583333 ], [ -73.7916667, 47.5 ], [ -73.9583333, 47.4583333 ], [ -74.0, 47.4166667 ], [ -74.0416667, 47.4166667 ], [ -74.0833333, 47.2916667 ], [ -74.625, 47.2916667 ], [ -74.75, 47.2916667 ], [ -75.2083333, 47.1666667 ], [ -75.5, 47.375 ], [ -75.625, 47.375 ], [ -75.75, 47.4166667 ], [ -75.875, 47.4583333 ], [ -76.4166667, 47.4583333 ], [ -76.4166667, 47.5 ], [ -76.6666667, 47.7083333 ], [ -76.7083333, 47.7083333 ], [ -76.7916667, 47.6666667 ], [ -77.0, 47.5416667 ], [ -77.2083333, 47.5416667 ], [ -77.2083333, 47.4583333 ], [ -77.375, 47.5 ], [ -77.4166667, 47.625 ], [ -77.5833333, 47.6666667 ], [ -77.75, 47.75 ], [ -77.9583333, 47.75 ], [ -78.375, 47.9166667 ], [ -78.4166667, 47.9166667 ], [ -78.4583333, 47.9166667 ], [ -78.5833333, 48.0 ], [ -78.8333333, 47.9583333 ], [ -78.9166667, 47.9583333 ], [ -78.9166667, 47.9166667 ], [ -79.0416667, 48.0 ], [ -79.0833333, 48.0 ], [ -79.1666667, 48.0 ], [ -79.25, 48.0416667 ] ], [ [ -78.9166667, 47.9166667 ], [ -78.875, 47.875 ], [ -78.9166667, 47.875 ], [ -78.9166667, 47.9166667 ] ], [ [ -74.0833333, 47.2916667 ], [ -74.0416667, 47.25 ], [ -74.0833333, 47.25 ], [ -74.0833333, 47.2916667 ] ], [ [ -68.9583333, 47.0 ], [ -68.8333333, 46.9166667 ], [ -68.9583333, 46.9583333 ], [ -68.9166667, 46.9583333 ], [ -68.9583333, 47.0 ] ], [ [ -70.7916667, 47.0 ], [ -70.6666667, 47.0 ], [ -70.7916667, 46.9583333 ], [ -70.7916667, 47.0 ] ], [ [ -69.6666667, 46.375 ], [ -69.7083333, 46.3333333 ], [ -69.7083333, 46.375 ], [ -69.6666667, 46.375 ] ], [ [ -69.7083333, 46.375 ], [ -69.75, 46.5 ], [ -69.6666667, 46.4166667 ], [ -69.7083333, 46.375 ] ], [ [ -69.0833333, 45.9166667 ], [ -69.1666667, 46.125 ], [ -68.7916667, 46.0833333 ], [ -68.75, 45.9166667 ], [ -68.9166667, 45.8333333 ], [ -69.0833333, 45.9166667 ] ], [ [ -67.4583333, 46.1666667 ], [ -67.4166667, 46.1666667 ], [ -67.4166667, 46.125 ], [ -67.4583333, 46.1666667 ] ], [ [ -71.2916667, 44.875 ], [ -71.25, 44.9166667 ], [ -71.25, 44.875 ], [ -71.2916667, 44.875 ] ] ], [ [ [ -71.9166667, 44.0833333 ], [ -72.0833333, 43.875 ], [ -72.0416667, 43.7083333 ], [ -71.8333333, 43.75 ], [ -71.8333333, 43.7916667 ], [ -71.9583333, 43.875 ], [ -71.875, 43.9583333 ], [ -71.9166667, 44.0833333 ] ] ], [ [ [ -72.8333333, 43.7916667 ], [ -72.875, 43.6666667 ], [ -72.5833333, 43.625 ], [ -72.625, 43.75 ], [ -72.8333333, 43.7916667 ] ] ], [ [ [ -74.0, 44.7916667 ], [ -74.1666667, 44.7916667 ], [ -74.5833333, 44.5416667 ], [ -74.6666667, 44.3333333 ], [ -74.7916667, 44.2083333 ], [ -75.125, 44.0416667 ], [ -75.125, 43.75 ], [ -74.9583333, 43.7916667 ], [ -74.9166667, 43.7083333 ], [ -74.625, 43.7916667 ], [ -74.375, 43.7916667 ], [ -74.1666667, 43.7083333 ], [ -74.1666667, 43.5833333 ], [ -74.0416667, 43.7083333 ], [ -73.9583333, 43.8333333 ], [ -73.7916667, 43.875 ], [ -73.75, 44.0416667 ], [ -73.625, 44.1666667 ], [ -73.8333333, 44.25 ], [ -73.9166667, 44.5 ], [ -73.9583333, 44.625 ], [ -73.7916667, 44.7083333 ], [ -73.7916667, 44.75 ], [ -73.9166667, 44.7916667 ], [ -74.0, 44.7916667 ] ] ], [ [ [ -72.875, 43.6666667 ], [ -72.9166667, 43.5833333 ], [ -72.875, 43.5833333 ], [ -72.875, 43.6666667 ] ] ], [ [ [ -74.0416667, 43.5833333 ], [ -74.0416667, 43.5416667 ], [ -73.9583333, 43.5833333 ], [ -74.0416667, 43.5833333 ] ] ], [ [ [ -74.125, 43.5416667 ], [ -74.125, 43.5 ], [ -74.0416667, 43.5 ], [ -74.0416667, 43.5416667 ], [ -74.125, 43.5416667 ] ] ], [ [ [ -74.0, 43.5 ], [ -74.0, 43.4583333 ], [ -73.9583333, 43.4583333 ], [ -74.0, 43.5 ] ] ], [ [ [ -72.6666667, 43.625 ], [ -72.8333333, 43.5 ], [ -72.8333333, 43.4166667 ], [ -72.7083333, 43.5 ], [ -72.6666667, 43.5 ], [ -72.7083333, 43.5416667 ], [ -72.6666667, 43.625 ] ] ], [ [ [ -74.1666667, 43.5 ], [ -74.2083333, 43.4166667 ], [ -74.125, 43.4166667 ], [ -74.125, 43.5 ], [ -74.1666667, 43.5 ] ] ], [ [ [ -74.0833333, 43.4583333 ], [ -74.0416667, 43.4166667 ], [ -74.0416667, 43.4583333 ], [ -74.0833333, 43.4583333 ] ] ], [ [ [ -74.0416667, 43.4166667 ], [ -74.0416667, 43.375 ], [ -74.0, 43.4166667 ], [ -74.0416667, 43.4166667 ] ] ], [ [ [ -74.125, 43.375 ], [ -74.0833333, 43.3333333 ], [ -74.0833333, 43.375 ], [ -74.125, 43.375 ] ] ] ] } }
]
}
