{
"type": "FeatureCollection",
"name": "Carex_lupuliformis",
"crs": { "type": "name", "properties": { "name": "urn:ogc:def:crs:OGC:1.3:CRS84" } },
"features": [
{ "type": "Feature", "properties": { "ID": 3 }, "geometry": { "type": "MultiPolygon", "coordinates": [ [ [ [ -70.9583333, 46.6666667 ], [ -70.7916667, 46.3333333 ], [ -70.4583333, 46.25 ], [ -70.4583333, 46.0416667 ], [ -69.375, 45.625 ], [ -69.6666667, 45.4166667 ], [ -70.2083333, 45.375 ], [ -70.4583333, 44.875 ], [ -71.0, 44.4583333 ], [ -71.5, 44.125 ], [ -71.6666667, 43.7083333 ], [ -71.875, 43.625 ], [ -72.1666667, 43.25 ], [ -72.2083333, 42.7916667 ], [ -71.9583333, 42.5 ], [ -72.2083333, 42.2083333 ], [ -72.2083333, 41.4166667 ], [ -72.375, 41.25 ], [ -72.8333333, 41.25 ], [ -73.6666667, 40.9166667 ], [ -72.75, 41.0 ], [ -72.9583333, 40.7083333 ], [ -73.375, 40.5833333 ], [ -73.8333333, 40.5833333 ], [ -74.0416667, 40.4583333 ], [ -73.9583333, 40.2083333 ], [ -74.125, 39.625 ], [ -74.5416667, 39.2916667 ], [ -74.7916667, 38.9583333 ], [ -75.0, 39.0 ], [ -75.4166667, 39.3333333 ], [ -75.375, 39.0416667 ], [ -75.0416667, 38.75 ], [ -75.0416667, 38.3333333 ], [ -75.3333333, 37.8333333 ], [ -75.625, 37.5416667 ], [ -75.7916667, 37.2916667 ], [ -76.0416667, 37.375 ], [ -75.7916667, 37.9166667 ], [ -76.0833333, 37.9166667 ], [ -76.125, 38.2083333 ], [ -76.3333333, 38.5 ], [ -76.3333333, 38.5416667 ], [ -76.3333333, 38.8333333 ], [ -76.375, 39.0 ], [ -76.5, 38.5 ], [ -76.375, 38.2083333 ], [ -76.5, 38.0833333 ], [ -76.2083333, 37.9166667 ], [ -76.3333333, 37.2916667 ], [ -76.25, 36.9583333 ], [ -75.9583333, 36.9583333 ], [ -75.75, 36.1666667 ], [ -75.4583333, 35.75 ], [ -75.5, 35.375 ], [ -75.5, 35.6666667 ], [ -75.7083333, 35.875 ], [ -75.7083333, 35.5833333 ], [ -76.0833333, 35.3333333 ], [ -76.4583333, 35.3333333 ], [ -76.5416667, 35.0833333 ], [ -76.1666667, 35.0416667 ], [ -75.8333333, 35.1666667 ], [ -76.375, 34.7916667 ], [ -76.5833333, 34.6666667 ], [ -77.0, 34.6666667 ], [ -77.625, 34.375 ], [ -78.0416667, 33.875 ], [ -78.4583333, 33.875 ], [ -79.0, 33.625 ], [ -79.0416667, 33.4166667 ], [ -79.3333333, 33.0 ], [ -79.5833333, 33.0 ], [ -79.9583333, 32.625 ], [ -80.4166667, 32.4166667 ], [ -80.7916667, 32.125 ], [ -81.0833333, 31.7083333 ], [ -81.25, 31.2083333 ], [ -81.375, 31.125 ], [ -81.4166667, 30.5 ], [ -81.3333333, 30.0833333 ], [ -81.375, 30.0833333 ], [ -81.6666667, 29.9583333 ], [ -82.0416667, 30.5 ], [ -83.0, 30.625 ], [ -83.25, 30.5 ], [ -83.7916667, 30.5833333 ], [ -84.1666667, 31.0833333 ], [ -84.2083333, 31.33333330000001 ], [ -83.4583333, 31.3333333 ], [ -83.4166667, 31.75 ], [ -83.2916667, 31.9583333 ], [ -82.8333333, 32.2083333 ], [ -82.6666667, 32.2083333 ], [ -82.6666667, 32.625 ], [ -82.2916667, 33.0833333 ], [ -81.8333333, 33.375 ], [ -81.6666667, 33.7083333 ], [ -80.9583333, 34.2916667 ], [ -80.9583333, 34.5833333 ], [ -80.5416667, 34.6666667 ], [ -80.4583333, 34.7916667 ], [ -80.25, 35.0833333 ], [ -80.125, 35.75 ], [ -80.2916667, 35.9166667 ], [ -80.625, 35.9583333 ], [ -80.5416667, 36.25 ], [ -80.2083333, 36.7083333 ], [ -79.9583333, 36.9166667 ], [ -79.9583333, 37.125 ], [ -80.2083333, 37.2083333 ], [ -80.5, 37.0416667 ], [ -80.625, 36.75 ], [ -80.875, 36.7083333 ], [ -81.125, 36.9583333 ], [ -81.4166667, 37.0416667 ], [ -81.5, 37.25 ], [ -81.8333333, 37.4166667 ], [ -82.2083333, 37.8333333 ], [ -82.5416667, 38.0833333 ], [ -82.625, 38.2916667 ], [ -83.25, 38.7083333 ], [ -83.125, 39.1666667 ], [ -83.375, 39.5833333 ], [ -83.8333333, 39.375 ], [ -84.0, 39.625 ], [ -84.625, 39.7916667 ], [ -85.0, 40.0833333 ], [ -85.0416667, 40.1666667 ], [ -85.0416667, 40.3333333 ], [ -85.375, 40.6666667 ], [ -85.2083333, 41.0416667 ], [ -84.9583333, 40.8333333 ], [ -84.5, 41.0833333 ], [ -84.1666667, 41.125 ], [ -84.2083333, 41.5 ], [ -84.0833333, 41.9166667 ], [ -83.3333333, 42.5416667 ], [ -83.375, 42.9166667 ], [ -84.0, 43.0 ], [ -84.7083333, 43.0 ], [ -85.0833333, 42.9166667 ], [ -85.2083333, 42.75 ], [ -85.6666667, 42.625 ], [ -85.375, 42.1666667 ], [ -84.75, 42.2083333 ], [ -84.8333333, 41.7083333 ], [ -85.5833333, 41.7916667 ], [ -85.8333333, 41.9583333 ], [ -85.8333333, 42.1666667 ], [ -86.4166667, 42.1666667 ], [ -86.2083333, 42.5833333 ], [ -86.2083333, 43.0416667 ], [ -85.625, 43.1666667 ], [ -85.0833333, 43.125 ], [ -85.0, 43.3333333 ], [ -84.7916667, 43.625 ], [ -85.125, 43.6666667 ], [ -85.3333333, 43.875 ], [ -85.0833333, 44.2916667 ], [ -84.875, 45.0833333 ], [ -84.5, 45.2916667 ], [ -84.5, 45.5416667 ], [ -83.9583333, 45.5 ], [ -83.4583333, 45.3333333 ], [ -83.3333333, 44.875 ], [ -83.3333333, 44.375 ], [ -83.5833333, 44.25 ], [ -84.125, 43.7916667 ], [ -84.0416667, 43.4583333 ], [ -83.4583333, 43.6666667 ], [ -83.3333333, 43.9166667 ], [ -82.875, 44.0416667 ], [ -82.5833333, 43.5416667 ], [ -82.5833333, 43.0833333 ], [ -82.6666667, 42.8333333 ], [ -83.1666667, 42.2916667 ], [ -83.2083333, 42.0416667 ], [ -83.4583333, 41.7916667 ], [ -83.0, 41.5416667 ], [ -82.375, 41.375 ], [ -82.0833333, 41.5 ], [ -81.7083333, 41.4583333 ], [ -81.375, 41.7083333 ], [ -80.4583333, 41.9583333 ], [ -79.125, 42.5416667 ], [ -78.8333333, 42.7916667 ], [ -78.875, 43.0833333 ], [ -79.5, 42.875 ], [ -79.7083333, 43.125 ], [ -79.9583333, 42.9583333 ], [ -80.4583333, 43.0 ], [ -80.75, 43.125 ], [ -80.75, 43.5416667 ], [ -80.5833333, 43.8333333 ], [ -80.125, 44.125 ], [ -79.875, 44.25 ], [ -79.0416667, 44.3333333 ], [ -79.0, 44.0833333 ], [ -79.375, 44.0416667 ], [ -79.3333333, 43.7083333 ], [ -79.625, 43.5833333 ], [ -79.7083333, 43.2083333 ], [ -79.2916667, 43.1666667 ], [ -78.7916667, 43.3333333 ], [ -78.25, 43.25 ], [ -76.9166667, 43.25 ], [ -76.625, 43.4166667 ], [ -75.7916667, 43.2916667 ], [ -75.5833333, 43.875 ], [ -75.25, 43.875 ], [ -75.25, 44.125 ], [ -75.7916667, 44.9166667 ], [ -76.7916667, 45.3333333 ], [ -76.7916667, 45.5416667 ], [ -76.0833333, 45.625 ], [ -75.9583333, 45.4166667 ], [ -75.625, 45.375 ], [ -75.4583333, 45.0833333 ], [ -74.625, 44.9583333 ], [ -74.0, 45.125 ], [ -73.625, 45.4166667 ], [ -73.0, 45.4583333 ], [ -72.9166667, 45.4166667 ], [ -72.8333333, 45.625 ], [ -72.4166667, 45.8333333 ], [ -72.4166667, 46.125 ], [ -72.6666667, 46.1666667 ], [ -72.625, 46.6666667 ], [ -72.25, 46.7916667 ], [ -71.4583333, 46.7083333 ], [ -71.2916667, 46.625 ], [ -70.9583333, 46.6666667 ] ], [ [ -76.2083333, 45.75 ], [ -76.625, 45.9166667 ], [ -76.875, 45.6666667 ], [ -77.375, 45.7916667 ], [ -77.4166667, 45.7916667 ], [ -77.4583333, 45.7916667 ], [ -77.6666667, 45.7916667 ], [ -78.0, 45.4583333 ], [ -78.1666667, 45.7083333 ], [ -78.5, 45.9166667 ], [ -79.0833333, 46.0 ], [ -79.4583333, 46.4166667 ], [ -79.4166667, 46.625 ], [ -79.0833333, 47.0 ], [ -78.2916667, 46.9166667 ], [ -76.1666667, 46.9166667 ], [ -75.25, 47.0 ], [ -74.5833333, 46.7916667 ], [ -74.0416667, 46.7083333 ], [ -72.9583333, 46.75 ], [ -73.625, 46.4166667 ], [ -74.375, 46.375 ], [ -74.5833333, 45.9166667 ], [ -75.1666667, 45.9583333 ], [ -75.25, 45.7916667 ], [ -75.7083333, 45.6666667 ], [ -76.0833333, 45.7083333 ], [ -76.2083333, 45.75 ] ], [ [ -88.0416667, 44.5416667 ], [ -87.75, 44.5833333 ], [ -87.7916667, 44.2083333 ], [ -88.0416667, 44.5416667 ] ], [ [ -81.5, 42.625 ], [ -82.5416667, 42.0416667 ], [ -83.0416667, 42.0416667 ], [ -83.0833333, 42.2916667 ], [ -82.4583333, 42.2916667 ], [ -82.4166667, 42.5416667 ], [ -82.5833333, 42.75 ], [ -81.5, 42.625 ] ], [ [ -88.7083333, 42.0833333 ], [ -88.75, 42.1666667 ], [ -89.2083333, 42.25 ], [ -89.2083333, 42.2916667 ], [ -89.2916667, 42.2916667 ], [ -89.375, 42.375 ], [ -89.6666667, 42.4583333 ], [ -90.25, 42.25 ], [ -90.625, 42.2083333 ], [ -91.0, 42.125 ], [ -91.0, 42.7083333 ], [ -90.6666667, 42.7083333 ], [ -90.3333333, 42.9166667 ], [ -89.9583333, 42.7916667 ], [ -89.625, 42.875 ], [ -89.5416667, 43.5 ], [ -89.125, 43.375 ], [ -88.2916667, 43.375 ], [ -88.0833333, 43.5833333 ], [ -88.0833333, 43.9583333 ], [ -87.7916667, 44.2083333 ], [ -87.7083333, 43.7083333 ], [ -87.9166667, 43.375 ], [ -87.8333333, 42.7083333 ], [ -87.8333333, 42.1666667 ], [ -87.9166667, 41.9583333 ], [ -88.5833333, 42.0416667 ], [ -88.7083333, 42.0833333 ] ], [ [ -92.1666667, 40.75 ], [ -92.0, 40.625 ], [ -91.9583333, 40.5416667 ], [ -92.125, 40.3333333 ], [ -92.375, 40.4583333 ], [ -92.2083333, 40.75 ], [ -92.1666667, 40.75 ] ], [ [ -90.1666667, 40.2916667 ], [ -90.2083333, 40.3333333 ], [ -89.9583333, 40.5 ], [ -90.1666667, 40.2916667 ] ], [ [ -85.5833333, 40.375 ], [ -85.7083333, 40.25 ], [ -85.75, 40.2916667 ], [ -85.875, 40.2083333 ], [ -85.9583333, 40.5 ], [ -85.9166667, 40.6666667 ], [ -85.9166667, 40.7083333 ], [ -85.5416667, 40.75 ], [ -85.4583333, 40.5 ], [ -85.5833333, 40.375 ] ], [ [ -88.125, 39.7083333 ], [ -88.4166667, 39.875 ], [ -88.375, 40.25 ], [ -88.0416667, 40.375 ], [ -87.875, 40.0416667 ], [ -88.125, 39.7083333 ] ], [ [ -85.75, 40.125 ], [ -85.7083333, 39.7083333 ], [ -85.875, 39.6666667 ], [ -85.8333333, 39.6666667 ], [ -85.7083333, 39.6666667 ], [ -85.6666667, 39.5416667 ], [ -86.3333333, 39.5416667 ], [ -86.3333333, 39.5 ], [ -86.375, 39.5 ], [ -86.5833333, 39.4583333 ], [ -86.625, 39.4166667 ], [ -86.75, 39.2916667 ], [ -86.7916667, 39.25 ], [ -87.0, 39.0833333 ], [ -87.375, 39.25 ], [ -87.4166667, 39.625 ], [ -87.0416667, 39.9166667 ], [ -86.7083333, 39.9166667 ], [ -86.2916667, 39.9166667 ], [ -86.1666667, 40.0416667 ], [ -86.2083333, 40.1666667 ], [ -85.875, 40.2083333 ], [ -85.75, 40.125 ] ] ], [ [ [ -75.5416667, 46.6666667 ], [ -75.625, 46.6666667 ], [ -75.625, 46.625 ], [ -75.7083333, 46.6666667 ], [ -75.75, 46.6666667 ], [ -75.9166667, 46.5 ], [ -75.5, 46.625 ], [ -75.5416667, 46.625 ], [ -75.5416667, 46.6666667 ] ] ], [ [ [ -75.5, 46.6666667 ], [ -75.4166667, 46.7916667 ], [ -75.5416667, 46.6666667 ], [ -75.5, 46.6666667 ] ] ], [ [ [ -77.25, 46.0 ], [ -76.75, 45.9583333 ], [ -76.375, 46.0416667 ], [ -76.5416667, 46.4166667 ], [ -77.125, 46.375 ], [ -77.25, 46.0 ] ] ], [ [ [ -73.0, 42.3333333 ], [ -72.9166667, 42.1666667 ], [ -72.9166667, 42.375 ], [ -73.0, 42.3333333 ] ] ], [ [ [ -74.4583333, 43.4583333 ], [ -74.7916667, 43.625 ], [ -75.375, 43.6666667 ], [ -75.5, 43.375 ], [ -74.9166667, 43.375 ], [ -74.4166667, 43.2083333 ], [ -74.4583333, 43.4583333 ] ] ], [ [ [ -79.125, 39.75 ], [ -78.6666667, 39.75 ], [ -79.125, 40.0833333 ], [ -79.125, 39.75 ] ] ], [ [ [ -79.8333333, 38.125 ], [ -79.7916667, 38.125 ], [ -79.6666667, 38.2083333 ], [ -79.625, 38.2916667 ], [ -79.5, 38.4166667 ], [ -79.75, 38.4583333 ], [ -79.8333333, 38.2916667 ], [ -80.125, 38.2083333 ], [ -80.0833333, 38.0 ], [ -79.875, 38.125 ], [ -79.8333333, 38.1666667 ], [ -79.8333333, 38.125 ] ], [ [ -79.6666667, 38.2083333 ], [ -79.7083333, 38.2083333 ], [ -79.6666667, 38.2916667 ], [ -79.6666667, 38.2083333 ] ], [ [ -79.75, 38.1666667 ], [ -79.7916667, 38.125 ], [ -79.7916667, 38.1666667 ], [ -79.75, 38.1666667 ] ] ], [ [ [ -79.625, 36.875 ], [ -79.375, 36.7916667 ], [ -79.2083333, 37.0833333 ], [ -79.5416667, 37.2083333 ], [ -79.625, 36.875 ] ] ], [ [ [ -78.875, 35.75 ], [ -78.9166667, 36.0833333 ], [ -79.2916667, 35.9583333 ], [ -79.25, 35.75 ], [ -78.875, 35.75 ] ] ] ] } },
{ "type": "Feature", "properties": { "ID": 4 }, "geometry": { "type": "MultiPolygon", "coordinates": [ [ [ [ -88.75, 42.1666667 ], [ -88.875, 42.0833333 ], [ -88.9166667, 42.0 ], [ -88.875, 41.9166667 ], [ -88.625, 41.875 ], [ -88.5833333, 42.0416667 ], [ -88.7083333, 42.0833333 ], [ -88.75, 42.1666667 ] ] ], [ [ [ -90.3333333, 41.8333333 ], [ -90.5833333, 41.9166667 ], [ -90.7916667, 41.7083333 ], [ -91.25, 41.625 ], [ -91.9583333, 40.625 ], [ -91.9583333, 40.5416667 ], [ -92.125, 40.3333333 ], [ -92.2916667, 40.25 ], [ -92.7916667, 40.2916667 ], [ -92.8333333, 40.0833333 ], [ -92.5833333, 39.8333333 ], [ -91.8333333, 39.5833333 ], [ -91.4583333, 39.5833333 ], [ -91.0833333, 39.7916667 ], [ -90.5833333, 40.4166667 ], [ -90.4583333, 40.375 ], [ -90.2083333, 40.3333333 ], [ -89.9583333, 40.5 ], [ -90.0, 40.5416667 ], [ -90.0416667, 40.5833333 ], [ -90.125, 41.4166667 ], [ -90.1666667, 41.5416667 ], [ -90.2916667, 41.6666667 ], [ -90.4166667, 41.7916667 ], [ -90.3333333, 41.8333333 ] ] ], [ [ [ -85.0, 40.0833333 ], [ -85.375, 40.0 ], [ -85.4583333, 40.2083333 ], [ -85.875, 40.2083333 ], [ -85.75, 40.125 ], [ -85.7083333, 39.7083333 ], [ -85.875, 39.6666667 ], [ -85.8333333, 39.6666667 ], [ -85.7083333, 39.6666667 ], [ -85.6666667, 39.5416667 ], [ -85.625, 39.5 ], [ -85.0416667, 39.2083333 ], [ -84.625, 39.7916667 ], [ -85.0, 40.0833333 ] ] ], [ [ [ -86.625, 39.4166667 ], [ -86.75, 39.2916667 ], [ -86.7916667, 39.25 ], [ -86.7083333, 39.2916667 ], [ -86.625, 39.375 ], [ -86.625, 39.4166667 ] ] ], [ [ [ -85.9583333, 40.5 ], [ -86.1666667, 40.4166667 ], [ -86.3333333, 40.25 ], [ -86.875, 40.125 ], [ -86.9583333, 40.0416667 ], [ -87.875, 40.0416667 ], [ -88.125, 39.7083333 ], [ -88.4166667, 39.875 ], [ -88.5416667, 39.5416667 ], [ -88.375, 39.0833333 ], [ -88.0416667, 39.2083333 ], [ -87.5416667, 39.1666667 ], [ -87.375, 39.25 ], [ -87.4166667, 39.625 ], [ -87.0416667, 39.9166667 ], [ -86.7083333, 39.9166667 ], [ -86.2916667, 39.9166667 ], [ -86.1666667, 40.0416667 ], [ -86.2083333, 40.1666667 ], [ -85.875, 40.2083333 ], [ -85.9583333, 40.5 ] ] ], [ [ [ -85.125, 38.8333333 ], [ -85.125, 38.7083333 ], [ -85.0, 38.7083333 ], [ -85.125, 38.8333333 ] ] ], [ [ [ -93.375, 36.5 ], [ -93.3333333, 36.875 ], [ -93.75, 36.75 ], [ -93.375, 36.5 ] ] ], [ [ [ -83.25, 38.7083333 ], [ -83.3333333, 38.625 ], [ -83.375, 38.6666667 ], [ -83.5833333, 38.5 ], [ -83.5833333, 38.4583333 ], [ -84.0, 38.0833333 ], [ -83.9583333, 37.4166667 ], [ -83.7916667, 37.0 ], [ -83.25, 36.7916667 ], [ -82.8333333, 36.875 ], [ -82.7083333, 36.625 ], [ -82.7916667, 36.375 ], [ -83.0416667, 36.1666667 ], [ -83.0, 36.0 ], [ -82.5, 36.0833333 ], [ -82.0833333, 36.2916667 ], [ -82.0833333, 36.4166667 ], [ -81.9583333, 36.5833333 ], [ -81.375, 36.7916667 ], [ -81.25, 36.75 ], [ -80.875, 36.7083333 ], [ -81.125, 36.9583333 ], [ -81.4166667, 37.0416667 ], [ -81.5, 37.25 ], [ -81.8333333, 37.4166667 ], [ -82.2083333, 37.8333333 ], [ -82.5416667, 38.0833333 ], [ -82.625, 38.2916667 ], [ -83.25, 38.7083333 ] ] ], [ [ [ -95.125, 36.125 ], [ -95.4166667, 35.8333333 ], [ -95.4583333, 35.5416667 ], [ -95.2083333, 35.5 ], [ -94.625, 36.125 ], [ -94.125, 36.0833333 ], [ -94.3333333, 36.375 ], [ -94.625, 36.4583333 ], [ -94.875, 36.2916667 ], [ -95.125, 36.125 ] ] ], [ [ [ -77.4166667, 26.8333333 ], [ -77.1666667, 26.2083333 ], [ -76.9583333, 26.2916667 ], [ -77.0416667, 26.625 ], [ -77.125, 26.6666667 ], [ -77.125, 26.625 ], [ -77.3333333, 26.7916667 ], [ -77.375, 26.8333333 ], [ -77.375, 26.7916667 ], [ -77.4166667, 26.8333333 ] ] ], [ [ [ -76.3333333, 25.2916667 ], [ -76.6666667, 25.5833333 ], [ -76.875, 25.5 ], [ -76.3333333, 25.2916667 ] ] ], [ [ [ -88.375, 36.4583333 ], [ -88.625, 36.5416667 ], [ -89.1666667, 36.4583333 ], [ -89.25, 36.2916667 ], [ -89.5833333, 36.25 ], [ -89.6666667, 36.2916667 ], [ -90.0416667, 36.2083333 ], [ -90.4583333, 35.9583333 ], [ -90.5833333, 35.7083333 ], [ -91.0833333, 35.875 ], [ -91.9166667, 35.8333333 ], [ -92.8333333, 35.5 ], [ -93.2083333, 35.5416667 ], [ -94.0833333, 35.375 ], [ -94.5416667, 34.9583333 ], [ -94.75, 34.5416667 ], [ -95.0416667, 34.375 ], [ -95.2083333, 34.0416667 ], [ -95.5416667, 34.0416667 ], [ -95.4583333, 34.375 ], [ -95.7916667, 34.375 ], [ -96.0833333, 34.75 ], [ -96.75, 34.1666667 ], [ -96.6666667, 33.8333333 ], [ -97.0, 33.625 ], [ -97.2083333, 33.3333333 ], [ -97.5416667, 32.6666667 ], [ -97.375, 32.5416667 ], [ -97.4583333, 32.125 ], [ -97.75, 31.7916667 ], [ -97.75, 31.4166667 ], [ -97.5833333, 31.125 ], [ -96.9166667, 31.2083333 ], [ -96.8333333, 30.70833330000001 ], [ -96.875, 30.125 ], [ -97.0833333, 29.8333333 ], [ -97.375, 29.7083333 ], [ -97.2916667, 29.0833333 ], [ -97.75, 29.2083333 ], [ -97.5833333, 28.4583333 ], [ -97.0833333, 28.125 ], [ -96.9583333, 28.0 ], [ -96.25, 28.4166667 ], [ -96.125, 28.5416667 ], [ -95.375, 28.8333333 ], [ -94.6666667, 29.4166667 ], [ -94.0833333, 29.6666667 ], [ -93.6666667, 29.75 ], [ -93.0833333, 29.75 ], [ -92.625, 29.5416667 ], [ -92.1666667, 29.5833333 ], [ -91.75, 29.4583333 ], [ -91.625, 29.7083333 ], [ -91.375, 29.4166667 ], [ -91.2916667, 29.375 ], [ -91.125, 29.2083333 ], [ -90.7083333, 29.0833333 ], [ -90.375, 29.1666667 ], [ -90.4583333, 29.0833333 ], [ -90.25, 29.0833333 ], [ -89.9166667, 29.2916667 ], [ -89.625, 29.2916667 ], [ -89.3333333, 29.125 ], [ -89.125, 29.3333333 ], [ -89.5, 29.4166667 ], [ -89.375, 29.7083333 ], [ -89.1666667, 30.0833333 ], [ -89.3333333, 30.2916667 ], [ -88.2916667, 30.3333333 ], [ -87.9583333, 30.5416667 ], [ -87.8333333, 30.25 ], [ -87.2083333, 30.3333333 ], [ -86.375, 30.375 ], [ -85.9583333, 30.25 ], [ -85.4166667, 29.875 ], [ -85.4166667, 29.6666667 ], [ -84.9166667, 29.5833333 ], [ -84.7083333, 29.75 ], [ -84.625, 29.7916667 ], [ -84.3333333, 30.0416667 ], [ -84.0, 30.0833333 ], [ -83.75, 29.9583333 ], [ -83.0833333, 29.125 ], [ -82.875, 29.1666667 ], [ -82.6666667, 28.625 ], [ -82.8333333, 28.125 ], [ -82.875, 27.8333333 ], [ -82.4583333, 27.7916667 ], [ -82.7083333, 27.5 ], [ -82.4583333, 27.125 ], [ -82.1666667, 26.4166667 ], [ -81.9166667, 26.4166667 ], [ -81.75, 25.875 ], [ -81.2916667, 25.6666667 ], [ -81.1666667, 25.4583333 ], [ -81.1666667, 25.125 ], [ -80.9166667, 25.0833333 ], [ -80.7916667, 25.0 ], [ -80.75, 24.9583333 ], [ -80.75, 24.8333333 ], [ -80.3333333, 25.125 ], [ -80.2083333, 25.4166667 ], [ -80.2916667, 25.5833333 ], [ -80.0833333, 25.7916667 ], [ -80.0833333, 26.25 ], [ -80.0, 26.8333333 ], [ -80.5833333, 28.1666667 ], [ -80.5833333, 28.625 ], [ -81.0833333, 29.375 ], [ -81.2916667, 29.9166667 ], [ -81.2916667, 30.0 ], [ -81.3333333, 30.0833333 ], [ -81.375, 30.0833333 ], [ -81.6666667, 29.9583333 ], [ -82.0416667, 30.5 ], [ -83.0, 30.625 ], [ -83.25, 30.5 ], [ -83.7916667, 30.5833333 ], [ -84.1666667, 31.0833333 ], [ -84.2083333, 31.33333330000001 ], [ -84.9166667, 31.375 ], [ -85.0416667, 31.5416667 ], [ -85.6666667, 31.6666667 ], [ -85.9583333, 31.875 ], [ -86.375, 31.9166667 ], [ -86.7916667, 32.0833333 ], [ -87.2916667, 32.0833333 ], [ -87.7083333, 32.2083333 ], [ -88.3333333, 32.5416667 ], [ -88.125, 33.1666667 ], [ -88.1666667, 33.375 ], [ -88.5416667, 33.5 ], [ -88.6666667, 33.875 ], [ -88.25, 34.0416667 ], [ -87.9166667, 34.0416667 ], [ -87.5833333, 34.2083333 ], [ -87.5833333, 34.75 ], [ -86.9583333, 35.0 ], [ -86.9166667, 35.0 ], [ -86.6666667, 35.0416667 ], [ -86.2083333, 35.4583333 ], [ -86.0, 35.5 ], [ -86.0833333, 35.8333333 ], [ -86.2916667, 36.0 ], [ -86.5833333, 35.7916667 ], [ -87.25, 35.625 ], [ -87.5416667, 35.7083333 ], [ -87.9166667, 36.2083333 ], [ -88.375, 36.4583333 ] ], [ [ -89.625, 33.625 ], [ -89.9166667, 33.5416667 ], [ -89.9583333, 34.0416667 ], [ -89.6666667, 34.0 ], [ -89.625, 34.0 ], [ -89.625, 33.6666667 ], [ -89.625, 33.625 ] ], [ [ -96.0416667, 33.0833333 ], [ -95.8333333, 33.5 ], [ -95.8333333, 33.8333333 ], [ -95.5416667, 34.0416667 ], [ -95.5416667, 33.75 ], [ -95.75, 33.625 ], [ -95.9583333, 33.2083333 ], [ -96.0, 33.0833333 ], [ -96.0416667, 33.0833333 ] ], [ [ -91.75, 33.5 ], [ -91.6666667, 33.8333333 ], [ -91.1666667, 33.875 ], [ -91.0416667, 33.75 ], [ -91.0416667, 33.3333333 ], [ -90.7083333, 33.2083333 ], [ -90.5, 32.9166667 ], [ -90.4166667, 32.5 ], [ -90.8333333, 32.375 ], [ -91.2083333, 32.5 ], [ -91.8333333, 32.4583333 ], [ -92.125, 32.625 ], [ -92.0, 33.0 ], [ -91.9166667, 33.2916667 ], [ -91.7916667, 33.5 ], [ -91.75, 33.5 ] ], [ [ -89.4583333, 32.6666667 ], [ -89.4166667, 32.5 ], [ -89.9166667, 32.4583333 ], [ -90.0, 32.9583333 ], [ -89.625, 33.2916667 ], [ -89.4166667, 33.2916667 ], [ -89.2916667, 33.0 ], [ -89.4583333, 32.6666667 ] ], [ [ -92.4583333, 32.2083333 ], [ -92.5, 32.2083333 ], [ -92.4583333, 32.25 ], [ -92.4583333, 32.2083333 ] ], [ [ -92.4583333, 32.25 ], [ -92.8333333, 32.375 ], [ -93.0, 32.25 ], [ -92.7916667, 31.9583333 ], [ -93.25, 31.5833333 ], [ -93.8333333, 31.7916667 ], [ -93.9166667, 31.5416667 ], [ -94.7083333, 30.75 ], [ -95.125, 30.9166667 ], [ -95.1666667, 31.25 ], [ -94.8333333, 31.875 ], [ -94.8333333, 32.3333333 ], [ -94.5833333, 32.5833333 ], [ -94.125, 32.75 ], [ -93.875, 33.0 ], [ -93.7916667, 33.0833333 ], [ -93.0, 32.9166667 ], [ -92.625, 32.4583333 ], [ -92.2083333, 32.375 ], [ -92.3333333, 32.2083333 ], [ -92.4166667, 32.2083333 ], [ -92.4583333, 32.25 ] ] ], [ [ [ -76.3333333, 25.2916667 ], [ -76.1666667, 25.125 ], [ -76.25, 24.8333333 ], [ -76.0833333, 25.125 ], [ -76.3333333, 25.2916667 ] ] ], [ [ [ -81.7916667, 24.625 ], [ -81.625, 24.5416667 ], [ -81.25, 24.625 ], [ -81.5, 24.8333333 ], [ -81.7916667, 24.625 ] ] ], [ [ [ -78.1666667, 25.25 ], [ -78.2083333, 24.875 ], [ -78.4583333, 24.5416667 ], [ -78.2083333, 24.4166667 ], [ -77.875, 24.0 ], [ -77.5, 24.0 ], [ -77.7083333, 24.4166667 ], [ -77.7083333, 24.6666667 ], [ -77.9166667, 24.875 ], [ -78.0, 25.2083333 ], [ -78.1666667, 25.25 ] ] ] ] } }
]
}
