{
"type": "FeatureCollection",
"name": "Carex_pensylvanica",
"crs": { "type": "name", "properties": { "name": "urn:ogc:def:crs:OGC:1.3:CRS84" } },
"features": [
{ "type": "Feature", "properties": { "ID": 6 }, "geometry": { "type": "MultiPolygon", "coordinates": [ [ [ [ -95.7916667, 46.1666667 ], [ -95.7083333, 46.4166667 ], [ -95.625, 46.7083333 ], [ -95.7916667, 46.8333333 ], [ -95.7083333, 47.4583333 ], [ -95.5833333, 47.5833333 ], [ -96.125, 47.5833333 ], [ -96.1666667, 47.0416667 ], [ -96.4166667, 46.8333333 ], [ -96.4583333, 45.5833333 ], [ -96.375, 45.4583333 ], [ -96.2916667, 45.7083333 ], [ -96.0833333, 45.75 ], [ -95.9166667, 46.0416667 ], [ -95.7916667, 46.1666667 ] ] ] ] } },
{ "type": "Feature", "properties": { "ID": 7 }, "geometry": { "type": "MultiPolygon", "coordinates": [ [ [ [ -84.75, 47.5416667 ], [ -84.75, 47.5 ], [ -84.7083333, 47.5 ], [ -84.75, 47.5416667 ] ] ], [ [ [ -84.7083333, 47.5 ], [ -84.7083333, 47.4583333 ], [ -84.6666667, 47.4583333 ], [ -84.6666667, 47.5 ], [ -84.7083333, 47.5 ] ] ], [ [ [ -84.6666667, 47.4583333 ], [ -84.6666667, 47.4166667 ], [ -84.625, 47.4166667 ], [ -84.625, 47.4583333 ], [ -84.6666667, 47.4583333 ] ] ], [ [ [ -84.5833333, 47.4583333 ], [ -84.5833333, 47.25 ], [ -84.5416667, 47.25 ], [ -84.5833333, 47.4583333 ] ] ], [ [ [ -84.5, 47.0833333 ], [ -84.5416667, 47.25 ], [ -84.5416667, 47.2083333 ], [ -84.625, 47.2083333 ], [ -84.625, 47.1666667 ], [ -84.5416667, 47.1666667 ], [ -84.5833333, 47.0833333 ], [ -84.5, 47.0833333 ] ] ], [ [ [ -70.7916667, 44.5833333 ], [ -70.7916667, 44.5 ], [ -70.75, 44.5833333 ], [ -70.7916667, 44.5833333 ] ] ], [ [ [ -70.9166667, 44.5 ], [ -71.0, 44.4583333 ], [ -71.0, 44.4166667 ], [ -70.875, 44.4166667 ], [ -70.875, 44.5 ], [ -70.9166667, 44.5 ] ] ], [ [ [ -70.4583333, 44.25 ], [ -70.4583333, 44.2083333 ], [ -70.4166667, 44.2083333 ], [ -70.4166667, 44.25 ], [ -70.4583333, 44.25 ] ] ], [ [ [ -68.9166667, 44.1666667 ], [ -68.9583333, 44.125 ], [ -68.9166667, 44.125 ], [ -68.9166667, 44.1666667 ] ] ], [ [ [ -68.5833333, 44.25 ], [ -68.7083333, 44.1666667 ], [ -68.5833333, 44.125 ], [ -68.5833333, 44.25 ] ] ], [ [ [ -68.2916667, 44.2083333 ], [ -68.5833333, 44.125 ], [ -68.5833333, 44.0833333 ], [ -68.375, 44.125 ], [ -68.2916667, 44.2083333 ] ] ], [ [ [ -68.7916667, 44.25 ], [ -68.8333333, 44.2083333 ], [ -68.8333333, 44.0 ], [ -68.7916667, 44.0 ], [ -68.75, 44.0833333 ], [ -68.7083333, 44.1666667 ], [ -68.7083333, 44.25 ], [ -68.7916667, 44.25 ] ] ], [ [ [ -68.6666667, 44.0833333 ], [ -68.6666667, 44.0416667 ], [ -68.625, 44.0 ], [ -68.5833333, 44.0833333 ], [ -68.6666667, 44.0833333 ] ] ], [ [ [ -71.1666667, 44.375 ], [ -71.5, 44.125 ], [ -71.5833333, 43.9166667 ], [ -71.5416667, 43.9166667 ], [ -71.25, 44.0833333 ], [ -70.875, 44.375 ], [ -71.1666667, 44.375 ] ] ], [ [ [ -69.6666667, 43.8333333 ], [ -69.625, 43.75 ], [ -69.625, 43.8333333 ], [ -69.6666667, 43.8333333 ] ] ], [ [ [ -70.0, 43.75 ], [ -70.0, 43.7083333 ], [ -69.9583333, 43.7083333 ], [ -69.9583333, 43.75 ], [ -70.0, 43.75 ] ] ], [ [ [ -70.1666667, 43.75 ], [ -70.0416667, 43.7083333 ], [ -70.0416667, 43.75 ], [ -70.1666667, 43.75 ] ] ], [ [ [ -71.875, 43.625 ], [ -71.875, 43.5833333 ], [ -71.8333333, 43.5833333 ], [ -71.875, 43.625 ] ] ], [ [ [ -71.375, 43.5416667 ], [ -71.375, 43.5 ], [ -71.3333333, 43.5416667 ], [ -71.375, 43.5416667 ] ] ], [ [ [ -65.3333333, 43.5416667 ], [ -65.5416667, 43.5416667 ], [ -65.8333333, 43.7916667 ], [ -66.0833333, 43.6666667 ], [ -65.7916667, 43.4583333 ], [ -65.3333333, 43.5416667 ] ] ], [ [ [ -71.875, 43.4166667 ], [ -71.875, 43.375 ], [ -71.8333333, 43.375 ], [ -71.8333333, 43.4166667 ], [ -71.875, 43.4166667 ] ] ], [ [ [ -74.75, 43.375 ], [ -74.75, 43.2916667 ], [ -74.7083333, 43.2916667 ], [ -74.7083333, 43.375 ], [ -74.75, 43.375 ] ] ], [ [ [ -74.9166667, 43.625 ], [ -74.9166667, 43.5833333 ], [ -74.9166667, 43.5416667 ], [ -74.9166667, 43.4583333 ], [ -74.7916667, 43.4583333 ], [ -74.7916667, 43.4166667 ], [ -74.7083333, 43.4166667 ], [ -74.7083333, 43.375 ], [ -74.6666667, 43.375 ], [ -74.6666667, 43.2916667 ], [ -74.7083333, 43.2916667 ], [ -74.375, 43.25 ], [ -74.5, 43.5 ], [ -74.5416667, 43.5 ], [ -74.5833333, 43.4583333 ], [ -74.5833333, 43.5416667 ], [ -74.7916667, 43.625 ], [ -74.9166667, 43.625 ] ] ], [ [ [ -72.0833333, 43.3333333 ], [ -72.1666667, 43.25 ], [ -72.1666667, 43.2083333 ], [ -72.0416667, 43.2083333 ], [ -72.0416667, 43.3333333 ], [ -72.0833333, 43.3333333 ] ] ], [ [ [ -73.0833333, 42.9583333 ], [ -73.0833333, 42.8333333 ], [ -73.0416667, 42.8333333 ], [ -73.0416667, 42.9583333 ], [ -73.0833333, 42.9583333 ] ] ], [ [ [ -73.0833333, 42.8333333 ], [ -73.125, 42.7916667 ], [ -73.0833333, 42.7916667 ], [ -73.0833333, 42.8333333 ] ] ] ] } },
{ "type": "Feature", "properties": { "ID": 11 }, "geometry": { "type": "MultiPolygon", "coordinates": [ [ [ [ -85.9166667, 48.125 ], [ -85.9166667, 48.0833333 ], [ -85.875, 48.0833333 ], [ -85.9166667, 48.125 ] ] ], [ [ [ -85.875, 48.0833333 ], [ -85.875, 48.0416667 ], [ -85.8333333, 48.0 ], [ -85.875, 48.0833333 ] ] ], [ [ [ -84.75, 47.5 ], [ -84.7083333, 47.4583333 ], [ -84.7083333, 47.5 ], [ -84.75, 47.5 ] ] ], [ [ [ -84.6666667, 47.4166667 ], [ -84.625, 47.375 ], [ -84.625, 47.4166667 ], [ -84.6666667, 47.4166667 ] ] ], [ [ [ -88.125, 47.4583333 ], [ -88.125, 47.4166667 ], [ -88.2083333, 47.4166667 ], [ -88.2083333, 47.25 ], [ -87.9583333, 47.4166667 ], [ -87.9583333, 47.4583333 ], [ -88.125, 47.4583333 ] ] ], [ [ [ -84.5833333, 47.25 ], [ -84.625, 47.2083333 ], [ -84.5833333, 47.2083333 ], [ -84.5833333, 47.25 ] ] ], [ [ [ -84.625, 47.2083333 ], [ -84.6666667, 47.1666667 ], [ -84.625, 47.1666667 ], [ -84.625, 47.2083333 ] ] ], [ [ [ -80.25, 45.75 ], [ -80.25, 45.7083333 ], [ -80.2083333, 45.7083333 ], [ -80.2083333, 45.75 ], [ -80.25, 45.75 ] ] ], [ [ [ -82.25, 45.875 ], [ -82.4583333, 45.7083333 ], [ -82.125, 45.6666667 ], [ -82.25, 45.8333333 ], [ -82.25, 45.875 ] ] ], [ [ [ -71.1666667, 45.25 ], [ -71.2083333, 45.125 ], [ -71.1666667, 45.2083333 ], [ -71.1666667, 45.25 ] ] ], [ [ [ -68.75, 44.2916667 ], [ -68.7083333, 44.25 ], [ -68.7083333, 44.2916667 ], [ -68.75, 44.2916667 ] ] ], [ [ [ -70.4166667, 44.25 ], [ -70.4166667, 44.2083333 ], [ -70.375, 44.2083333 ], [ -70.375, 44.25 ], [ -70.4166667, 44.25 ] ] ], [ [ [ -68.875, 44.2083333 ], [ -68.875, 44.1666667 ], [ -68.8333333, 44.1666667 ], [ -68.8333333, 44.2083333 ], [ -68.875, 44.2083333 ] ] ], [ [ [ -68.9166667, 44.1666667 ], [ -68.9166667, 44.125 ], [ -68.875, 44.125 ], [ -68.875, 44.1666667 ], [ -68.9166667, 44.1666667 ] ] ], [ [ [ -70.0416667, 43.75 ], [ -70.0416667, 43.7083333 ], [ -70.0, 43.7083333 ], [ -70.0, 43.75 ], [ -70.0416667, 43.75 ] ] ], [ [ [ -71.2916667, 43.5416667 ], [ -71.375, 43.5833333 ], [ -71.375, 43.5416667 ], [ -71.2916667, 43.5416667 ] ] ], [ [ [ -71.875, 43.375 ], [ -71.875, 43.3333333 ], [ -71.8333333, 43.3333333 ], [ -71.8333333, 43.375 ], [ -71.875, 43.375 ] ] ], [ [ [ -70.625, 41.9583333 ], [ -70.5833333, 41.9166667 ], [ -70.5833333, 41.9583333 ], [ -70.625, 41.9583333 ] ] ], [ [ [ -70.75, 41.75 ], [ -70.6666667, 41.6666667 ], [ -70.6666667, 41.7083333 ], [ -70.75, 41.75 ] ] ], [ [ [ -70.375, 41.625 ], [ -70.375, 41.5833333 ], [ -70.3333333, 41.625 ], [ -70.375, 41.625 ] ] ], [ [ [ -70.5416667, 41.9583333 ], [ -70.5833333, 41.9166667 ], [ -70.5833333, 41.7916667 ], [ -70.625, 41.7916667 ], [ -70.6666667, 41.7083333 ], [ -70.625, 41.6666667 ], [ -70.6666667, 41.6666667 ], [ -70.6666667, 41.5833333 ], [ -70.625, 41.5833333 ], [ -70.5416667, 41.5416667 ], [ -70.4583333, 41.5833333 ], [ -70.375, 41.625 ], [ -70.375, 41.75 ], [ -70.4583333, 41.75 ], [ -70.4583333, 41.7916667 ], [ -70.5416667, 41.9583333 ] ] ], [ [ [ -71.375, 41.6666667 ], [ -71.4166667, 41.5833333 ], [ -71.4166667, 41.4583333 ], [ -71.2916667, 41.6666667 ], [ -71.375, 41.6666667 ] ] ], [ [ [ -70.7083333, 41.4583333 ], [ -70.9166667, 41.4583333 ], [ -70.7916667, 41.4166667 ], [ -70.7916667, 41.4583333 ], [ -70.7083333, 41.4583333 ] ] ], [ [ [ -70.7083333, 41.4166667 ], [ -70.7083333, 41.3333333 ], [ -70.6666667, 41.3333333 ], [ -70.625, 41.375 ], [ -70.7083333, 41.4166667 ] ] ], [ [ [ -70.5833333, 41.4166667 ], [ -70.625, 41.375 ], [ -70.625, 41.3333333 ], [ -70.5416667, 41.3333333 ], [ -70.5, 41.4166667 ], [ -70.5833333, 41.4166667 ] ] ], [ [ [ -93.125, 41.5833333 ], [ -93.2916667, 41.5 ], [ -93.2083333, 41.1666667 ], [ -92.9166667, 41.25 ], [ -93.125, 41.5833333 ] ] ], [ [ [ -72.2083333, 41.1666667 ], [ -72.4166667, 41.125 ], [ -72.4166667, 41.0416667 ], [ -72.4166667, 41.0 ], [ -72.4166667, 40.9583333 ], [ -72.1666667, 40.9166667 ], [ -72.2083333, 41.1666667 ] ] ], [ [ [ -81.875, 36.5416667 ], [ -81.9166667, 36.5 ], [ -81.875, 36.5 ], [ -81.875, 36.5416667 ] ] ], [ [ [ -81.9583333, 36.5 ], [ -81.9583333, 36.4583333 ], [ -81.9166667, 36.5 ], [ -81.9583333, 36.5 ] ] ], [ [ [ -88.6666667, 47.1666667 ], [ -89.3333333, 46.8333333 ], [ -89.75, 46.8333333 ], [ -90.25, 46.5833333 ], [ -90.625, 46.5833333 ], [ -90.875, 46.8333333 ], [ -91.2916667, 46.8333333 ], [ -91.7916667, 46.6666667 ], [ -92.125, 46.8333333 ], [ -91.7916667, 46.9583333 ], [ -90.875, 47.625 ], [ -89.5833333, 48.0 ], [ -89.3333333, 48.1666667 ], [ -89.25, 48.4583333 ], [ -89.4583333, 48.5 ], [ -91.375, 48.5 ], [ -91.75, 48.5833333 ], [ -92.4583333, 48.5 ], [ -92.8333333, 48.6666667 ], [ -93.1666667, 48.6666667 ], [ -93.3333333, 48.4583333 ], [ -93.9166667, 48.4583333 ], [ -94.3333333, 48.2083333 ], [ -94.9583333, 48.2083333 ], [ -95.2916667, 48.0 ], [ -95.4166667, 47.7083333 ], [ -95.5833333, 47.5833333 ], [ -95.7083333, 47.4583333 ], [ -95.7916667, 46.8333333 ], [ -95.625, 46.7083333 ], [ -95.7083333, 46.4166667 ], [ -95.7916667, 46.1666667 ], [ -95.9166667, 46.0416667 ], [ -96.0833333, 45.75 ], [ -96.2916667, 45.7083333 ], [ -96.375, 45.4583333 ], [ -96.2916667, 45.375 ], [ -96.125, 45.1666667 ], [ -95.9583333, 45.0416667 ], [ -95.9583333, 44.1666667 ], [ -95.875, 43.9583333 ], [ -94.625, 42.875 ], [ -94.125, 42.7916667 ], [ -93.3333333, 42.2083333 ], [ -93.25, 41.8333333 ], [ -93.0416667, 41.5833333 ], [ -92.7916667, 41.5416667 ], [ -92.375, 41.1666667 ], [ -91.9583333, 41.0833333 ], [ -91.875, 40.75 ], [ -91.625, 40.5 ], [ -90.9583333, 40.2916667 ], [ -90.5833333, 40.2916667 ], [ -90.5, 40.1666667 ], [ -90.0833333, 40.1666667 ], [ -89.9583333, 40.0416667 ], [ -89.25, 39.9583333 ], [ -88.75, 39.625 ], [ -88.3333333, 39.2083333 ], [ -87.5416667, 39.1666667 ], [ -87.0, 39.0833333 ], [ -86.4583333, 39.0416667 ], [ -86.1666667, 38.9166667 ], [ -85.7916667, 39.0416667 ], [ -85.625, 38.6666667 ], [ -85.4166667, 38.5833333 ], [ -85.0833333, 38.625 ], [ -84.8333333, 38.3333333 ], [ -84.4583333, 38.3333333 ], [ -84.4583333, 38.5833333 ], [ -83.625, 38.4583333 ], [ -84.0, 38.0833333 ], [ -83.9583333, 37.4166667 ], [ -83.75, 37.4583333 ], [ -83.75, 37.5833333 ], [ -83.25, 38.0 ], [ -83.0, 37.75 ], [ -83.125, 37.5 ], [ -83.0833333, 37.25 ], [ -82.9583333, 37.0416667 ], [ -83.2083333, 37.1666667 ], [ -83.375, 37.0416667 ], [ -83.375, 36.8333333 ], [ -83.0, 36.9166667 ], [ -82.9583333, 36.875 ], [ -82.9166667, 36.875 ], [ -82.875, 36.875 ], [ -82.4583333, 36.8333333 ], [ -82.125, 36.9583333 ], [ -82.0, 37.0 ], [ -82.125, 36.9166667 ], [ -82.2083333, 36.7916667 ], [ -81.7916667, 36.9166667 ], [ -81.4166667, 36.875 ], [ -81.4583333, 36.7083333 ], [ -81.4166667, 36.6666667 ], [ -81.4166667, 36.75 ], [ -81.2916667, 36.75 ], [ -81.2916667, 36.9583333 ], [ -80.9166667, 37.0 ], [ -80.7916667, 37.1666667 ], [ -80.3333333, 37.1666667 ], [ -80.0833333, 37.0416667 ], [ -79.9583333, 36.9166667 ], [ -79.6666667, 37.25 ], [ -79.25, 37.3333333 ], [ -78.875, 37.3333333 ], [ -78.875, 37.375 ], [ -78.8333333, 37.3333333 ], [ -78.625, 37.2916667 ], [ -78.625, 37.3333333 ], [ -78.2083333, 37.625 ], [ -77.7083333, 37.375 ], [ -77.2916667, 37.4583333 ], [ -76.75, 37.375 ], [ -76.6666667, 37.2083333 ], [ -76.4166667, 36.9166667 ], [ -76.0833333, 36.8333333 ], [ -75.7916667, 36.2916667 ], [ -75.9583333, 36.9583333 ], [ -76.25, 36.9583333 ], [ -76.3333333, 37.2916667 ], [ -76.2083333, 37.9166667 ], [ -76.5, 38.0833333 ], [ -76.375, 38.2083333 ], [ -76.5, 38.5 ], [ -76.5, 38.8333333 ], [ -76.375, 39.0 ], [ -76.3333333, 38.8333333 ], [ -76.3333333, 38.5416667 ], [ -76.3333333, 38.5 ], [ -76.125, 38.2083333 ], [ -76.0833333, 37.9166667 ], [ -75.7916667, 37.9166667 ], [ -76.0416667, 37.375 ], [ -75.7916667, 37.2916667 ], [ -75.625, 37.4166667 ], [ -75.5416667, 37.75 ], [ -75.3333333, 37.8333333 ], [ -75.0416667, 38.3333333 ], [ -75.0416667, 38.75 ], [ -75.375, 39.0416667 ], [ -75.4166667, 39.3333333 ], [ -75.1666667, 39.1666667 ], [ -74.9166667, 39.1666667 ], [ -74.9166667, 38.9583333 ], [ -74.5416667, 39.2916667 ], [ -74.375, 39.3333333 ], [ -74.125, 39.625 ], [ -73.9583333, 40.2083333 ], [ -74.0416667, 40.4583333 ], [ -73.8333333, 40.5833333 ], [ -73.1666667, 40.625 ], [ -73.1666667, 40.6666667 ], [ -73.0833333, 40.625 ], [ -72.7916667, 40.8333333 ], [ -72.5416667, 40.9166667 ], [ -72.7083333, 41.0 ], [ -73.1666667, 41.0 ], [ -73.6666667, 40.9166667 ], [ -72.8333333, 41.25 ], [ -72.375, 41.25 ], [ -72.2083333, 41.4166667 ], [ -72.2083333, 41.7083333 ], [ -71.9583333, 41.9583333 ], [ -71.9583333, 42.0 ], [ -71.9166667, 42.1666667 ], [ -71.625, 42.5416667 ], [ -71.625, 42.5833333 ], [ -71.25, 42.875 ], [ -70.8333333, 42.9166667 ], [ -70.5833333, 43.125 ], [ -70.5416667, 43.3333333 ], [ -70.2083333, 43.5416667 ], [ -70.2083333, 43.5833333 ], [ -70.2083333, 43.625 ], [ -70.2083333, 43.9166667 ], [ -70.0416667, 44.0833333 ], [ -69.7083333, 43.8333333 ], [ -69.5833333, 43.8333333 ], [ -69.5833333, 43.7916667 ], [ -69.5416667, 43.875 ], [ -69.4166667, 43.875 ], [ -69.2916667, 43.9583333 ], [ -69.0833333, 44.0416667 ], [ -69.0, 44.2083333 ], [ -68.9166667, 44.1666667 ], [ -68.875, 44.2083333 ], [ -68.75, 44.2916667 ], [ -69.7083333, 44.375 ], [ -70.0833333, 44.375 ], [ -70.125, 44.2916667 ], [ -70.5416667, 43.9583333 ], [ -70.4583333, 43.7083333 ], [ -70.875, 43.2083333 ], [ -71.5416667, 43.125 ], [ -71.875, 43.1666667 ], [ -72.0416667, 43.125 ], [ -72.0416667, 43.2083333 ], [ -72.125, 43.2083333 ], [ -72.1666667, 43.1666667 ], [ -72.1666667, 43.25 ], [ -72.0833333, 43.3333333 ], [ -71.9583333, 43.3333333 ], [ -71.875, 43.5416667 ], [ -71.875, 43.625 ], [ -71.8333333, 43.5833333 ], [ -71.7916667, 43.5833333 ], [ -71.625, 43.9166667 ], [ -71.5833333, 43.9166667 ], [ -71.5, 44.125 ], [ -71.1666667, 44.375 ], [ -71.0833333, 44.375 ], [ -71.0833333, 44.4166667 ], [ -71.0, 44.4166667 ], [ -71.0, 44.4583333 ], [ -70.9166667, 44.5 ], [ -70.8333333, 44.5 ], [ -70.7916667, 44.5416667 ], [ -70.7916667, 44.5833333 ], [ -70.75, 44.5833333 ], [ -70.4583333, 44.875 ], [ -70.5416667, 44.9583333 ], [ -70.8333333, 44.9166667 ], [ -71.125, 45.25 ], [ -71.2083333, 45.125 ], [ -71.5, 45.0 ], [ -71.5, 45.1666667 ], [ -72.1666667, 45.25 ], [ -72.2083333, 45.4583333 ], [ -72.7083333, 45.4583333 ], [ -73.0, 45.375 ], [ -73.625, 45.4166667 ], [ -74.1666667, 45.375 ], [ -75.0, 45.375 ], [ -75.6666667, 45.5 ], [ -75.5833333, 45.75 ], [ -75.9166667, 45.75 ], [ -76.0833333, 45.7083333 ], [ -75.9583333, 45.75 ], [ -76.2083333, 45.75 ], [ -76.3333333, 45.5833333 ], [ -76.7916667, 45.625 ], [ -76.9166667, 45.7916667 ], [ -77.4583333, 45.9166667 ], [ -78.1666667, 46.1666667 ], [ -79.0, 46.25 ], [ -79.2916667, 46.5416667 ], [ -80.0833333, 46.375 ], [ -80.2083333, 46.5416667 ], [ -80.25, 46.5416667 ], [ -80.7083333, 46.5 ], [ -81.0833333, 46.4583333 ], [ -81.4583333, 46.7916667 ], [ -81.8333333, 46.7916667 ], [ -82.4166667, 47.0416667 ], [ -82.7916667, 47.0416667 ], [ -83.375, 47.3333333 ], [ -83.8333333, 47.1666667 ], [ -83.8333333, 47.0833333 ], [ -83.8333333, 46.875 ], [ -84.4166667, 46.7083333 ], [ -84.0833333, 46.5833333 ], [ -84.0416667, 46.3333333 ], [ -83.25, 46.2083333 ], [ -82.2916667, 46.2083333 ], [ -82.0416667, 46.125 ], [ -81.5833333, 46.1666667 ], [ -81.4583333, 46.0 ], [ -80.7083333, 45.9583333 ], [ -80.625, 45.7916667 ], [ -80.5416667, 45.7916667 ], [ -80.5416667, 45.875 ], [ -80.5, 45.8333333 ], [ -80.4583333, 45.8333333 ], [ -80.4583333, 45.7916667 ], [ -80.4166667, 45.7916667 ], [ -80.375, 45.7916667 ], [ -80.2916667, 45.7916667 ], [ -80.2916667, 45.9166667 ], [ -80.0833333, 45.75 ], [ -80.0833333, 45.6666667 ], [ -79.9166667, 45.625 ], [ -79.9583333, 45.625 ], [ -79.8333333, 45.5416667 ], [ -79.0, 45.2916667 ], [ -78.7916667, 45.375 ], [ -78.4166667, 45.125 ], [ -78.3333333, 44.625 ], [ -78.7916667, 44.3333333 ], [ -79.375, 44.375 ], [ -79.75, 44.5 ], [ -80.0416667, 44.2916667 ], [ -80.625, 44.0 ], [ -80.9583333, 43.5 ], [ -80.875, 43.2916667 ], [ -81.2916667, 42.875 ], [ -81.75, 42.9583333 ], [ -81.7083333, 43.2916667 ], [ -82.1666667, 43.0416667 ], [ -82.4583333, 43.0 ], [ -82.625, 43.75 ], [ -82.875, 44.0416667 ], [ -83.3333333, 43.9166667 ], [ -83.625, 43.5833333 ], [ -83.9583333, 43.6666667 ], [ -83.9583333, 43.9166667 ], [ -83.5833333, 44.125 ], [ -83.3333333, 44.375 ], [ -83.3333333, 44.875 ], [ -83.4583333, 44.9166667 ], [ -83.4583333, 45.3333333 ], [ -84.2916667, 45.6666667 ], [ -84.9166667, 45.75 ], [ -85.0416667, 45.4583333 ], [ -85.375, 45.25 ], [ -85.375, 44.9166667 ], [ -86.0416667, 44.9166667 ], [ -86.375, 44.2083333 ], [ -86.5, 43.625 ], [ -86.25, 43.2916667 ], [ -86.2083333, 42.5833333 ], [ -86.5416667, 41.9583333 ], [ -86.8333333, 41.7083333 ], [ -87.4583333, 41.625 ], [ -87.8333333, 42.1666667 ], [ -87.8333333, 42.7083333 ], [ -87.9166667, 43.375 ], [ -87.7083333, 43.7083333 ], [ -87.7083333, 44.0833333 ], [ -87.5416667, 44.1666667 ], [ -87.5416667, 44.4583333 ], [ -87.375, 44.7916667 ], [ -87.625, 44.8333333 ], [ -87.875, 44.5416667 ], [ -88.0416667, 44.6666667 ], [ -87.875, 44.9583333 ], [ -87.3333333, 45.4583333 ], [ -87.2083333, 45.7083333 ], [ -86.7916667, 45.875 ], [ -86.3333333, 45.875 ], [ -86.2083333, 46.0 ], [ -85.6666667, 46.0 ], [ -85.25, 46.125 ], [ -84.75, 46.0 ], [ -83.9583333, 46.0 ], [ -84.25, 46.375 ], [ -85.0416667, 46.4583333 ], [ -85.0416667, 46.75 ], [ -85.4166667, 46.6666667 ], [ -86.1666667, 46.6666667 ], [ -86.5833333, 46.4583333 ], [ -87.4166667, 46.5 ], [ -87.625, 46.7916667 ], [ -88.1666667, 46.9166667 ], [ -88.5, 46.75 ], [ -88.5416667, 47.0833333 ], [ -88.5833333, 47.125 ], [ -88.6666667, 47.1666667 ] ], [ [ -77.3333333, 44.2083333 ], [ -76.75, 44.2083333 ], [ -76.1666667, 44.375 ], [ -76.0416667, 43.9166667 ], [ -75.8333333, 43.7916667 ], [ -75.9166667, 43.375 ], [ -76.3333333, 43.4166667 ], [ -76.625, 43.4166667 ], [ -76.9166667, 43.25 ], [ -77.6666667, 43.25 ], [ -77.9583333, 43.375 ], [ -78.5833333, 43.375 ], [ -78.9583333, 43.25 ], [ -79.7083333, 43.2083333 ], [ -79.75, 43.375 ], [ -79.5, 43.6666667 ], [ -78.8333333, 43.9166667 ], [ -77.875, 44.0 ], [ -77.5, 44.1666667 ], [ -77.5, 44.2916667 ], [ -77.375, 44.3333333 ], [ -77.3333333, 44.2083333 ] ], [ [ -74.875, 43.4583333 ], [ -75.5, 43.375 ], [ -75.375, 43.6666667 ], [ -75.0833333, 43.625 ], [ -74.7916667, 43.625 ], [ -74.5833333, 43.5416667 ], [ -74.5833333, 43.5 ], [ -74.5, 43.5 ], [ -74.375, 43.25 ], [ -74.7083333, 43.2916667 ], [ -74.7916667, 43.2916667 ], [ -74.75, 43.375 ], [ -74.75, 43.4166667 ], [ -74.7916667, 43.4166667 ], [ -74.7916667, 43.4583333 ], [ -74.875, 43.4583333 ] ], [ [ -80.25, 42.8333333 ], [ -79.1666667, 42.9166667 ], [ -78.8333333, 42.7916667 ], [ -79.125, 42.5416667 ], [ -80.4583333, 41.9583333 ], [ -80.625, 41.9583333 ], [ -81.375, 41.7083333 ], [ -81.7083333, 41.4583333 ], [ -82.0833333, 41.5 ], [ -82.375, 41.375 ], [ -83.0, 41.5416667 ], [ -83.4583333, 41.7916667 ], [ -83.2083333, 42.0416667 ], [ -83.1666667, 42.2916667 ], [ -82.9166667, 42.4166667 ], [ -82.7916667, 42.7083333 ], [ -82.4583333, 42.2916667 ], [ -83.0833333, 42.2916667 ], [ -83.0416667, 42.0416667 ], [ -82.5416667, 42.0416667 ], [ -82.125, 42.2916667 ], [ -81.9166667, 42.2916667 ], [ -81.4166667, 42.6666667 ], [ -80.5416667, 42.625 ], [ -80.25, 42.7916667 ], [ -80.25, 42.8333333 ] ], [ [ -73.0833333, 42.9166667 ], [ -73.125, 43.0 ], [ -73.0416667, 43.0 ], [ -73.0416667, 42.7916667 ], [ -73.125, 42.7916667 ], [ -73.0833333, 42.8333333 ], [ -73.0833333, 42.9166667 ] ], [ [ -80.0833333, 37.2083333 ], [ -79.9583333, 37.125 ], [ -80.0833333, 37.0416667 ], [ -80.0833333, 37.2083333 ] ] ], [ [ [ -74.7083333, 43.375 ], [ -74.7083333, 43.3333333 ], [ -74.6666667, 43.3333333 ], [ -74.6666667, 43.375 ], [ -74.7083333, 43.375 ] ] ] ] } },
{ "type": "Feature", "properties": { "ID": 13 }, "geometry": { "type": "MultiPolygon", "coordinates": [ [ [ [ -84.6666667, 47.5 ], [ -84.6666667, 47.4583333 ], [ -84.625, 47.4583333 ], [ -84.6666667, 47.5 ] ] ], [ [ [ -84.625, 47.4583333 ], [ -84.625, 47.375 ], [ -84.5833333, 47.4583333 ], [ -84.625, 47.4583333 ] ] ], [ [ [ -84.5833333, 47.25 ], [ -84.5833333, 47.2083333 ], [ -84.5416667, 47.2083333 ], [ -84.5416667, 47.25 ], [ -84.5833333, 47.25 ] ] ], [ [ [ -88.2083333, 47.4166667 ], [ -88.375, 47.125 ], [ -88.2083333, 47.25 ], [ -88.2083333, 47.4166667 ] ] ], [ [ [ -84.375, 47.2916667 ], [ -84.5416667, 47.25 ], [ -84.5, 47.0833333 ], [ -84.5833333, 47.0833333 ], [ -84.5416667, 47.1666667 ], [ -84.6666667, 47.1666667 ], [ -84.6666667, 47.0833333 ], [ -84.7083333, 47.0833333 ], [ -84.625, 47.0416667 ], [ -84.625, 47.0 ], [ -84.375, 46.9583333 ], [ -84.4166667, 46.7083333 ], [ -83.8333333, 46.875 ], [ -83.8333333, 47.0833333 ], [ -83.8333333, 47.1666667 ], [ -84.375, 47.2916667 ] ] ], [ [ [ -77.3333333, 44.2083333 ], [ -77.375, 44.3333333 ], [ -77.5, 44.2916667 ], [ -77.5, 44.1666667 ], [ -77.4583333, 44.1666667 ], [ -77.4583333, 44.2083333 ], [ -77.3333333, 44.2083333 ] ] ], [ [ [ -68.7083333, 44.2916667 ], [ -68.7083333, 44.1666667 ], [ -68.5833333, 44.25 ], [ -68.7083333, 44.2916667 ] ] ], [ [ [ -77.4166667, 44.125 ], [ -77.4583333, 44.0833333 ], [ -77.4583333, 44.0416667 ], [ -77.125, 44.125 ], [ -77.4166667, 44.125 ] ] ], [ [ [ -69.625, 43.8333333 ], [ -69.625, 43.7916667 ], [ -69.5833333, 43.7916667 ], [ -69.5833333, 43.8333333 ], [ -69.625, 43.8333333 ] ] ], [ [ [ -70.0416667, 44.0833333 ], [ -70.2083333, 43.9166667 ], [ -70.2083333, 43.625 ], [ -70.1666667, 43.75 ], [ -70.0833333, 43.75 ], [ -70.0416667, 43.75 ], [ -69.6666667, 43.8333333 ], [ -69.7083333, 43.8333333 ], [ -70.0416667, 44.0833333 ] ] ], [ [ [ -76.0416667, 43.9166667 ], [ -76.2083333, 43.8333333 ], [ -76.1666667, 43.5416667 ], [ -76.3333333, 43.4166667 ], [ -75.9166667, 43.375 ], [ -75.8333333, 43.7916667 ], [ -76.0416667, 43.9166667 ] ] ], [ [ [ -74.75, 43.4166667 ], [ -74.75, 43.375 ], [ -74.7083333, 43.375 ], [ -74.7083333, 43.4166667 ], [ -74.75, 43.4166667 ] ] ], [ [ [ -75.0833333, 43.625 ], [ -75.375, 43.6666667 ], [ -75.5, 43.375 ], [ -74.875, 43.4583333 ], [ -74.9166667, 43.4583333 ], [ -74.9166667, 43.625 ], [ -75.0833333, 43.625 ] ] ], [ [ [ -74.75, 43.375 ], [ -74.7916667, 43.2916667 ], [ -74.75, 43.2916667 ], [ -74.75, 43.375 ] ] ], [ [ [ -74.7083333, 43.3333333 ], [ -74.7083333, 43.2916667 ], [ -74.6666667, 43.2916667 ], [ -74.6666667, 43.3333333 ], [ -74.7083333, 43.3333333 ] ] ], [ [ [ -72.1666667, 43.2083333 ], [ -72.1666667, 43.1666667 ], [ -72.125, 43.2083333 ], [ -72.1666667, 43.2083333 ] ] ], [ [ [ -70.75, 44.5833333 ], [ -70.7916667, 44.5 ], [ -70.7916667, 44.5416667 ], [ -70.8333333, 44.5 ], [ -70.875, 44.5 ], [ -70.875, 44.4166667 ], [ -71.0833333, 44.4166667 ], [ -71.0833333, 44.375 ], [ -70.875, 44.375 ], [ -71.25, 44.0833333 ], [ -71.5416667, 43.9166667 ], [ -71.625, 43.9166667 ], [ -71.7916667, 43.5833333 ], [ -71.875, 43.5833333 ], [ -71.875, 43.5416667 ], [ -71.9583333, 43.3333333 ], [ -72.0416667, 43.3333333 ], [ -72.0416667, 43.125 ], [ -71.875, 43.1666667 ], [ -71.5416667, 43.125 ], [ -70.875, 43.2083333 ], [ -70.4583333, 43.7083333 ], [ -70.5416667, 43.9583333 ], [ -70.125, 44.2916667 ], [ -70.0833333, 44.375 ], [ -69.7083333, 44.375 ], [ -69.9583333, 44.5 ], [ -70.5416667, 44.5 ], [ -70.5833333, 44.5833333 ], [ -70.75, 44.5833333 ] ], [ [ -70.4583333, 44.25 ], [ -70.375, 44.25 ], [ -70.375, 44.2083333 ], [ -70.4583333, 44.2083333 ], [ -70.4583333, 44.25 ] ], [ [ -71.375, 43.5833333 ], [ -71.2916667, 43.5416667 ], [ -71.3333333, 43.5416667 ], [ -71.375, 43.5 ], [ -71.375, 43.5833333 ] ], [ [ -71.875, 43.4166667 ], [ -71.8333333, 43.4166667 ], [ -71.8333333, 43.3333333 ], [ -71.875, 43.3333333 ], [ -71.875, 43.4166667 ] ] ], [ [ [ -80.5416667, 45.8333333 ], [ -80.5416667, 45.7916667 ], [ -80.625, 45.7916667 ], [ -80.375, 45.4583333 ], [ -80.0416667, 45.4166667 ], [ -80.0, 45.125 ], [ -79.6666667, 44.75 ], [ -79.9583333, 44.7083333 ], [ -80.0416667, 44.4583333 ], [ -80.625, 44.5833333 ], [ -81.25, 44.8333333 ], [ -81.25, 44.5833333 ], [ -81.7083333, 44.125 ], [ -81.7083333, 43.3333333 ], [ -81.7083333, 43.2916667 ], [ -81.75, 42.9583333 ], [ -81.2916667, 42.875 ], [ -80.875, 43.2916667 ], [ -80.9583333, 43.5 ], [ -80.625, 44.0 ], [ -80.0416667, 44.2916667 ], [ -79.75, 44.5 ], [ -79.375, 44.375 ], [ -78.7916667, 44.3333333 ], [ -78.3333333, 44.625 ], [ -78.4166667, 45.125 ], [ -78.7916667, 45.375 ], [ -79.0, 45.2916667 ], [ -79.8333333, 45.5416667 ], [ -79.9583333, 45.625 ], [ -80.0833333, 45.625 ], [ -80.0833333, 45.6666667 ], [ -80.1666667, 45.7083333 ], [ -80.25, 45.7083333 ], [ -80.25, 45.75 ], [ -80.2916667, 45.75 ], [ -80.2916667, 45.7916667 ], [ -80.4166667, 45.7916667 ], [ -80.4583333, 45.75 ], [ -80.4583333, 45.8333333 ], [ -80.5416667, 45.8333333 ] ] ], [ [ [ -70.5833333, 41.9583333 ], [ -70.5833333, 41.9166667 ], [ -70.5416667, 41.9583333 ], [ -70.5833333, 41.9583333 ] ] ], [ [ [ -70.8333333, 42.9166667 ], [ -71.25, 42.875 ], [ -71.625, 42.5833333 ], [ -71.625, 42.5416667 ], [ -71.9166667, 42.1666667 ], [ -71.9583333, 42.0 ], [ -71.9583333, 41.9583333 ], [ -72.2083333, 41.7083333 ], [ -72.2083333, 41.4166667 ], [ -72.375, 41.25 ], [ -71.7083333, 41.2916667 ], [ -71.7083333, 41.4166667 ], [ -71.625, 41.3333333 ], [ -71.5833333, 41.3333333 ], [ -71.5416667, 41.375 ], [ -71.4583333, 41.4166667 ], [ -71.4166667, 41.4583333 ], [ -71.4166667, 41.5833333 ], [ -71.375, 41.6666667 ], [ -71.2916667, 41.6666667 ], [ -71.2083333, 41.5 ], [ -71.125, 41.4583333 ], [ -71.0833333, 41.5 ], [ -70.9166667, 41.5416667 ], [ -70.875, 41.5833333 ], [ -70.875, 41.625 ], [ -70.75, 41.75 ], [ -70.6666667, 41.7083333 ], [ -70.625, 41.7916667 ], [ -70.5833333, 41.7916667 ], [ -70.5833333, 41.9166667 ], [ -70.625, 41.9583333 ], [ -70.6666667, 42.0416667 ], [ -70.7083333, 42.25 ], [ -70.9583333, 42.3333333 ], [ -70.9166667, 42.4166667 ], [ -70.9166667, 42.4583333 ], [ -70.7083333, 42.6666667 ], [ -70.8333333, 42.9166667 ] ] ], [ [ [ -72.4166667, 41.125 ], [ -72.7083333, 41.0 ], [ -72.5416667, 40.9166667 ], [ -72.4166667, 40.9583333 ], [ -72.4166667, 41.0 ], [ -72.4166667, 41.0416667 ], [ -72.4166667, 41.125 ] ] ], [ [ [ -72.1666667, 40.9166667 ], [ -72.4166667, 40.9583333 ], [ -72.4583333, 40.9166667 ], [ -72.5, 40.9166667 ], [ -72.5416667, 40.9166667 ], [ -72.7916667, 40.8333333 ], [ -72.1666667, 40.9166667 ] ] ] ] } },
{ "type": "Feature", "properties": { "ID": 15 }, "geometry": { "type": "MultiPolygon", "coordinates": [ [ [ [ -85.9583333, 48.125 ], [ -85.9166667, 48.0833333 ], [ -85.9166667, 48.125 ], [ -85.9583333, 48.125 ] ] ], [ [ [ -85.9166667, 48.0833333 ], [ -85.875, 48.0416667 ], [ -85.875, 48.0833333 ], [ -85.9166667, 48.0833333 ] ] ], [ [ [ -80.5416667, 45.875 ], [ -80.5416667, 45.8333333 ], [ -80.5, 45.8333333 ], [ -80.5416667, 45.875 ] ] ], [ [ [ -80.4583333, 45.7916667 ], [ -80.4583333, 45.75 ], [ -80.4166667, 45.7916667 ], [ -80.4583333, 45.7916667 ] ] ], [ [ [ -80.2916667, 45.9166667 ], [ -80.2916667, 45.75 ], [ -80.2083333, 45.75 ], [ -80.2083333, 45.7083333 ], [ -80.1666667, 45.7083333 ], [ -80.0833333, 45.6666667 ], [ -80.0833333, 45.75 ], [ -80.2916667, 45.9166667 ] ] ], [ [ [ -80.0833333, 45.6666667 ], [ -80.0833333, 45.625 ], [ -79.9166667, 45.625 ], [ -80.0833333, 45.6666667 ] ] ], [ [ [ -82.0, 45.625 ], [ -81.9166667, 45.9583333 ], [ -82.25, 45.8333333 ], [ -82.125, 45.6666667 ], [ -82.0, 45.625 ] ] ], [ [ [ -71.1666667, 45.25 ], [ -71.1666667, 45.2083333 ], [ -71.125, 45.25 ], [ -71.1666667, 45.25 ] ] ], [ [ [ -68.5833333, 44.125 ], [ -68.6666667, 44.0833333 ], [ -68.5833333, 44.0833333 ], [ -68.5833333, 44.125 ] ] ], [ [ [ -68.875, 44.1666667 ], [ -68.875, 44.125 ], [ -68.9583333, 44.125 ], [ -68.8333333, 44.0 ], [ -68.8333333, 44.1666667 ], [ -68.875, 44.1666667 ] ] ], [ [ [ -69.0833333, 44.0416667 ], [ -69.2916667, 43.9583333 ], [ -69.4166667, 43.875 ], [ -69.1666667, 43.9166667 ], [ -69.0833333, 44.0416667 ] ] ], [ [ [ -69.625, 43.7916667 ], [ -69.625, 43.75 ], [ -69.5833333, 43.7916667 ], [ -69.625, 43.7916667 ] ] ], [ [ [ -74.5833333, 43.5 ], [ -74.5833333, 43.4583333 ], [ -74.5416667, 43.5 ], [ -74.5833333, 43.5 ] ] ], [ [ [ -73.0416667, 43.0 ], [ -73.125, 43.0 ], [ -73.0833333, 42.9166667 ], [ -73.0833333, 42.9583333 ], [ -73.0416667, 42.9583333 ], [ -73.0416667, 43.0 ] ] ], [ [ [ -73.0833333, 42.8333333 ], [ -73.0833333, 42.7916667 ], [ -73.0416667, 42.7916667 ], [ -73.0416667, 42.8333333 ], [ -73.0833333, 42.8333333 ] ] ], [ [ [ -70.6666667, 41.7083333 ], [ -70.6666667, 41.6666667 ], [ -70.625, 41.6666667 ], [ -70.6666667, 41.7083333 ] ] ], [ [ [ -70.375, 41.625 ], [ -70.4583333, 41.5833333 ], [ -70.375, 41.5833333 ], [ -70.375, 41.625 ] ] ], [ [ [ -70.2916667, 41.6666667 ], [ -70.375, 41.75 ], [ -70.375, 41.625 ], [ -70.3333333, 41.625 ], [ -70.2916667, 41.6666667 ] ] ], [ [ [ -70.6666667, 41.5833333 ], [ -70.625, 41.5 ], [ -70.625, 41.5833333 ], [ -70.6666667, 41.5833333 ] ] ], [ [ [ -70.7916667, 41.4583333 ], [ -70.7916667, 41.4166667 ], [ -70.75, 41.4166667 ], [ -70.7916667, 41.4583333 ] ] ], [ [ [ -70.625, 41.5 ], [ -70.625, 41.4583333 ], [ -70.7083333, 41.4583333 ], [ -70.7083333, 41.4166667 ], [ -70.625, 41.375 ], [ -70.5833333, 41.4166667 ], [ -70.5416667, 41.4583333 ], [ -70.5833333, 41.5 ], [ -70.625, 41.5 ] ] ], [ [ [ -70.625, 41.375 ], [ -70.6666667, 41.3333333 ], [ -70.625, 41.3333333 ], [ -70.625, 41.375 ] ] ], [ [ [ -70.75, 41.4166667 ], [ -70.7083333, 41.3333333 ], [ -70.7083333, 41.4166667 ], [ -70.75, 41.4166667 ] ] ], [ [ [ -73.1666667, 40.6666667 ], [ -73.1666667, 40.625 ], [ -73.0833333, 40.625 ], [ -73.1666667, 40.6666667 ] ] ], [ [ [ -81.875, 36.5416667 ], [ -81.875, 36.5 ], [ -81.8333333, 36.5416667 ], [ -81.875, 36.5416667 ] ] ], [ [ [ -82.0, 36.5 ], [ -81.9583333, 36.4583333 ], [ -81.9583333, 36.5 ], [ -82.0, 36.5 ] ] ], [ [ [ -81.625, 36.7083333 ], [ -81.7083333, 36.625 ], [ -81.75, 36.5416667 ], [ -81.5, 36.3333333 ], [ -81.5, 36.4166667 ], [ -81.5833333, 36.5416667 ], [ -81.5416667, 36.5416667 ], [ -81.4166667, 36.6666667 ], [ -81.4583333, 36.7083333 ], [ -81.625, 36.7083333 ] ] ] ] } }
]
}
