{
"type": "FeatureCollection",
"name": "Elymus_virginicus",
"crs": { "type": "name", "properties": { "name": "urn:ogc:def:crs:OGC:1.3:CRS84" } },
"features": [
{ "type": "Feature", "properties": { "ID": 4 }, "geometry": { "type": "MultiPolygon", "coordinates": [ [ [ [ -68.375, 48.4166667 ], [ -68.3333333, 48.5416667 ], [ -68.625, 48.5 ], [ -68.75, 48.375 ], [ -68.4166667, 48.4583333 ], [ -68.375, 48.4166667 ] ] ], [ [ [ -69.6666667, 48.2916667 ], [ -69.6666667, 48.125 ], [ -69.5833333, 48.2083333 ], [ -69.625, 48.2916667 ], [ -69.6666667, 48.2916667 ] ] ], [ [ [ -63.6666667, 46.5833333 ], [ -63.7083333, 46.625 ], [ -63.7916667, 46.625 ], [ -63.7916667, 46.6666667 ], [ -63.875, 46.6666667 ], [ -63.875, 46.625 ], [ -63.8333333, 46.625 ], [ -63.7916667, 46.5416667 ], [ -63.7083333, 46.5 ], [ -63.6666667, 46.5833333 ] ] ], [ [ [ -62.4583333, 46.1666667 ], [ -62.3333333, 46.3333333 ], [ -62.125, 46.3333333 ], [ -61.9583333, 46.5 ], [ -62.6666667, 46.5 ], [ -63.25, 46.4583333 ], [ -63.25, 46.375 ], [ -62.625, 46.375 ], [ -62.4583333, 46.25 ], [ -62.4583333, 46.1666667 ] ] ], [ [ [ -62.4583333, 46.1666667 ], [ -62.5, 46.125 ], [ -62.4583333, 46.125 ], [ -62.4583333, 46.1666667 ] ] ], [ [ [ -61.3333333, 46.25 ], [ -61.5833333, 46.0833333 ], [ -61.5, 45.9583333 ], [ -61.3333333, 46.25 ] ] ], [ [ [ -61.1666667, 46.4166667 ], [ -61.25, 46.25 ], [ -61.25, 46.125 ], [ -61.5416667, 45.9166667 ], [ -61.4583333, 45.7083333 ], [ -61.5, 45.3333333 ], [ -61.4166667, 45.2083333 ], [ -61.4583333, 45.125 ], [ -61.2916667, 45.2083333 ], [ -60.9166667, 45.2916667 ], [ -60.875, 45.5833333 ], [ -60.375, 45.625 ], [ -60.2083333, 45.75 ], [ -60.125, 45.8333333 ], [ -60.0416667, 46.0416667 ], [ -60.1666667, 46.25 ], [ -60.5, 46.125 ], [ -60.4166667, 46.0 ], [ -60.5833333, 46.0 ], [ -60.5416667, 46.0833333 ], [ -60.75, 46.1666667 ], [ -60.7916667, 46.0833333 ], [ -60.9583333, 46.125 ], [ -61.1666667, 46.2083333 ], [ -61.1666667, 46.4166667 ] ] ], [ [ [ -66.1666667, 43.9583333 ], [ -66.1666667, 43.8333333 ], [ -66.125, 43.75 ], [ -66.0833333, 43.75 ], [ -66.0833333, 43.6666667 ], [ -65.9583333, 43.6666667 ], [ -65.8333333, 43.6666667 ], [ -66.0833333, 43.7916667 ], [ -66.1666667, 43.9583333 ] ] ], [ [ [ -65.7916667, 43.7083333 ], [ -65.7916667, 43.625 ], [ -65.625, 43.5416667 ], [ -65.6666667, 43.6666667 ], [ -65.7083333, 43.6666667 ], [ -65.7916667, 43.7083333 ] ] ], [ [ [ -65.4166667, 43.5416667 ], [ -65.4166667, 43.5 ], [ -65.3333333, 43.5416667 ], [ -65.4166667, 43.5416667 ] ] ], [ [ [ -65.5, 43.5 ], [ -65.5, 43.4583333 ], [ -65.4583333, 43.4583333 ], [ -65.4583333, 43.5 ], [ -65.5, 43.5 ] ] ] ] } },
{ "type": "Feature", "properties": { "ID": 6 }, "geometry": { "type": "MultiPolygon", "coordinates": [ [ [ [ -89.625, 48.0833333 ], [ -89.625, 48.0416667 ], [ -89.7083333, 48.0416667 ], [ -89.7083333, 48.0 ], [ -89.5416667, 48.0833333 ], [ -89.625, 48.0833333 ] ], [ [ -88.2916667, 48.7916667 ], [ -88.25, 48.7916667 ], [ -88.3333333, 48.6666667 ], [ -88.2916667, 48.7916667 ] ], [ [ -89.9583333, 48.2083333 ], [ -89.9583333, 48.1666667 ], [ -90.0, 48.1666667 ], [ -90.0, 48.125 ], [ -90.0833333, 48.1666667 ], [ -90.0833333, 48.2083333 ], [ -89.9583333, 48.2083333 ] ], [ [ -89.7916667, 48.2083333 ], [ -89.7916667, 48.125 ], [ -89.8333333, 48.125 ], [ -89.8333333, 48.2083333 ], [ -89.7916667, 48.2083333 ] ], [ [ -90.25, 48.1666667 ], [ -90.25, 48.125 ], [ -90.3333333, 48.125 ], [ -90.3333333, 48.1666667 ], [ -90.25, 48.1666667 ] ], [ [ -89.875, 48.1666667 ], [ -89.875, 48.125 ], [ -89.9166667, 48.125 ], [ -89.9166667, 48.1666667 ], [ -89.875, 48.1666667 ] ], [ [ -89.5416667, 48.1666667 ], [ -89.5416667, 48.125 ], [ -89.5833333, 48.1666667 ], [ -89.5416667, 48.1666667 ] ], [ [ -89.9166667, 48.0833333 ], [ -89.9583333, 48.0833333 ], [ -89.9166667, 48.125 ], [ -89.9166667, 48.0833333 ] ], [ [ -89.8333333, 48.125 ], [ -89.8333333, 48.0833333 ], [ -89.875, 48.0833333 ], [ -89.875, 48.125 ], [ -89.8333333, 48.125 ] ], [ [ -89.75, 48.125 ], [ -89.7916667, 48.0833333 ], [ -89.7916667, 48.125 ], [ -89.75, 48.125 ] ], [ [ -89.625, 48.125 ], [ -89.625, 48.0833333 ], [ -89.7083333, 48.0833333 ], [ -89.7083333, 48.125 ], [ -89.625, 48.125 ] ], [ [ -90.3333333, 48.125 ], [ -90.2916667, 48.0833333 ], [ -90.2916667, 48.0416667 ], [ -90.375, 48.0416667 ], [ -90.375, 48.125 ], [ -90.3333333, 48.125 ] ], [ [ -88.75, 48.0416667 ], [ -88.7916667, 48.0 ], [ -88.7916667, 48.0416667 ], [ -88.75, 48.0416667 ] ], [ [ -85.6666667, 48.0416667 ], [ -85.5833333, 48.0416667 ], [ -85.5833333, 47.9583333 ], [ -85.75, 47.9583333 ], [ -85.9583333, 48.0833333 ], [ -85.8333333, 48.1666667 ], [ -85.6666667, 48.0833333 ], [ -85.6666667, 48.0416667 ] ], [ [ -89.75, 48.0 ], [ -89.75, 47.9583333 ], [ -89.7916667, 47.9583333 ], [ -89.7916667, 48.0 ], [ -89.75, 48.0 ] ], [ [ -90.5833333, 47.9583333 ], [ -90.5833333, 47.9166667 ], [ -90.625, 47.9166667 ], [ -90.625, 47.9583333 ], [ -90.5833333, 47.9583333 ] ], [ [ -90.375, 47.9583333 ], [ -90.375, 47.9166667 ], [ -90.4166667, 47.9166667 ], [ -90.4166667, 47.9583333 ], [ -90.375, 47.9583333 ] ], [ [ -90.1666667, 47.9583333 ], [ -90.1666667, 47.9166667 ], [ -90.3333333, 47.9166667 ], [ -90.3333333, 47.9583333 ], [ -90.1666667, 47.9583333 ] ], [ [ -90.4166667, 47.9166667 ], [ -90.375, 47.875 ], [ -90.375, 47.8333333 ], [ -90.4583333, 47.8333333 ], [ -90.4583333, 47.9166667 ], [ -90.4166667, 47.9166667 ] ], [ [ -90.0833333, 48.1666667 ], [ -90.0833333, 48.0416667 ], [ -90.0, 48.0416667 ], [ -90.0, 48.0833333 ], [ -89.9583333, 48.0833333 ], [ -89.9583333, 48.0416667 ], [ -89.875, 48.0416667 ], [ -89.875, 48.0 ], [ -89.9583333, 48.0 ], [ -89.9583333, 47.9166667 ], [ -90.0, 47.9166667 ], [ -90.0, 48.0 ], [ -90.0833333, 47.9166667 ], [ -90.0416667, 47.9166667 ], [ -90.0833333, 47.8333333 ], [ -90.1666667, 47.9166667 ], [ -90.125, 47.9166667 ], [ -90.125, 48.0416667 ], [ -90.2083333, 48.0416667 ], [ -90.2083333, 48.125 ], [ -90.125, 48.125 ], [ -90.125, 48.1666667 ], [ -90.0833333, 48.1666667 ] ], [ [ -90.2083333, 47.875 ], [ -90.2083333, 47.8333333 ], [ -90.25, 47.8333333 ], [ -90.25, 47.875 ], [ -90.2083333, 47.875 ] ], [ [ -90.5833333, 47.7916667 ], [ -90.6666667, 47.7916667 ], [ -90.6666667, 47.8333333 ], [ -90.5833333, 47.8333333 ], [ -90.5833333, 47.9166667 ], [ -90.5416667, 47.9166667 ], [ -90.5416667, 48.0416667 ], [ -90.4583333, 48.0833333 ], [ -90.4583333, 48.0 ], [ -90.4583333, 47.9583333 ], [ -90.4583333, 47.9166667 ], [ -90.5, 47.875 ], [ -90.5416667, 47.875 ], [ -90.5416667, 47.8333333 ], [ -90.5, 47.8333333 ], [ -90.5, 47.7916667 ], [ -90.5416667, 47.7916667 ], [ -90.5416667, 47.75 ], [ -90.5833333, 47.75 ], [ -90.5833333, 47.7916667 ] ], [ [ -90.2916667, 47.7916667 ], [ -90.3333333, 47.7916667 ], [ -90.3333333, 47.8333333 ], [ -90.2916667, 47.7916667 ] ], [ [ -90.375, 47.75 ], [ -90.4583333, 47.75 ], [ -90.375, 47.7916667 ], [ -90.375, 47.75 ] ], [ [ -90.5833333, 47.7083333 ], [ -90.625, 47.7083333 ], [ -90.5833333, 47.75 ], [ -90.5833333, 47.7083333 ] ], [ [ -88.0416667, 47.4583333 ], [ -88.0416667, 47.4166667 ], [ -88.0833333, 47.4583333 ], [ -88.0416667, 47.4583333 ] ] ], [ [ [ -90.0, 48.0 ], [ -89.9583333, 48.0 ], [ -89.9583333, 48.0416667 ], [ -90.0, 48.0416667 ], [ -90.0, 48.0 ] ] ], [ [ [ -90.5416667, 47.7916667 ], [ -90.5416667, 47.8333333 ], [ -90.5833333, 47.8333333 ], [ -90.5833333, 47.7916667 ], [ -90.5416667, 47.7916667 ] ] ] ] } },
{ "type": "Feature", "properties": { "ID": 9 }, "geometry": { "type": "MultiPolygon", "coordinates": [ [ [ [ -99.7916667, 51.25 ], [ -99.7916667, 51.1666667 ], [ -99.75, 51.1666667 ], [ -99.7916667, 51.25 ] ] ], [ [ [ -114.2916667, 47.4166667 ], [ -114.0416667, 47.6666667 ], [ -114.0416667, 48.0 ], [ -114.3333333, 47.75 ], [ -114.4166667, 47.5416667 ], [ -114.2916667, 47.4166667 ] ] ], [ [ [ -114.3333333, 47.4583333 ], [ -114.4583333, 47.4166667 ], [ -114.3333333, 47.4166667 ], [ -114.3333333, 47.4583333 ] ] ], [ [ [ -116.8333333, 46.4583333 ], [ -117.0833333, 46.3333333 ], [ -116.9583333, 46.1666667 ], [ -116.9166667, 46.1666667 ], [ -116.8333333, 46.4166667 ], [ -116.8333333, 46.4583333 ] ] ], [ [ [ -112.2083333, 40.7083333 ], [ -112.25, 41.0833333 ], [ -112.3333333, 41.1666667 ], [ -112.7083333, 41.2083333 ], [ -112.7083333, 41.0416667 ], [ -112.5416667, 40.9583333 ], [ -112.375, 40.7083333 ], [ -112.2083333, 40.7083333 ] ] ] ] } },
{ "type": "Feature", "properties": { "ID": 10 }, "geometry": { "type": "MultiPolygon", "coordinates": [ [ [ [ -90.625, 48.9166667 ], [ -90.625, 48.875 ], [ -90.5833333, 48.9166667 ], [ -90.625, 48.9166667 ] ] ], [ [ [ -90.7083333, 48.625 ], [ -90.8333333, 48.5833333 ], [ -90.75, 48.5416667 ], [ -90.7083333, 48.625 ] ] ], [ [ [ -90.5, 48.5 ], [ -90.5416667, 48.4166667 ], [ -90.5, 48.4166667 ], [ -90.5, 48.5 ] ] ], [ [ [ -90.4166667, 48.4166667 ], [ -90.4166667, 48.375 ], [ -90.375, 48.4166667 ], [ -90.4166667, 48.4166667 ] ] ], [ [ [ -69.4583333, 48.2916667 ], [ -69.5416667, 48.3333333 ], [ -69.5416667, 48.2916667 ], [ -69.4583333, 48.2916667 ] ] ], [ [ [ -90.75, 48.5416667 ], [ -90.75, 48.2916667 ], [ -90.5, 48.2916667 ], [ -90.4166667, 48.375 ], [ -90.4583333, 48.4166667 ], [ -90.5, 48.4166667 ], [ -90.5416667, 48.375 ], [ -90.5416667, 48.4166667 ], [ -90.625, 48.4583333 ], [ -90.625, 48.5 ], [ -90.75, 48.5416667 ] ] ], [ [ [ -69.625, 48.2916667 ], [ -69.5833333, 48.2083333 ], [ -69.5416667, 48.2916667 ], [ -69.625, 48.2916667 ] ] ], [ [ [ -90.25, 48.1666667 ], [ -90.25, 48.125 ], [ -90.1666667, 48.125 ], [ -90.1666667, 48.1666667 ], [ -90.25, 48.1666667 ] ] ], [ [ [ -89.875, 48.1666667 ], [ -89.875, 48.125 ], [ -89.8333333, 48.125 ], [ -89.8333333, 48.1666667 ], [ -89.875, 48.1666667 ] ] ], [ [ [ -65.7916667, 48.2083333 ], [ -66.0, 48.2083333 ], [ -66.0, 48.1666667 ], [ -65.7916667, 48.2083333 ] ] ], [ [ [ -90.0, 48.1666667 ], [ -90.0, 48.0833333 ], [ -89.9583333, 48.0833333 ], [ -89.9166667, 48.125 ], [ -89.9166667, 48.1666667 ], [ -90.0, 48.1666667 ] ] ], [ [ [ -90.2916667, 48.125 ], [ -90.2916667, 48.0833333 ], [ -90.25, 48.125 ], [ -90.2916667, 48.125 ] ] ], [ [ [ -66.0, 48.1666667 ], [ -66.2916667, 48.125 ], [ -66.2916667, 48.0833333 ], [ -66.0, 48.1666667 ] ] ], [ [ [ -90.7083333, 48.0833333 ], [ -90.7083333, 48.0416667 ], [ -90.5416667, 48.0416667 ], [ -90.7083333, 48.0833333 ] ] ], [ [ [ -90.0833333, 48.0833333 ], [ -90.0833333, 48.0416667 ], [ -90.0, 48.0416667 ], [ -90.0, 48.0833333 ], [ -90.0833333, 48.0833333 ] ] ], [ [ [ -89.9583333, 48.0833333 ], [ -89.9583333, 48.0416667 ], [ -89.9166667, 48.0416667 ], [ -89.9166667, 48.0833333 ], [ -89.9583333, 48.0833333 ] ] ], [ [ [ -89.6666667, 48.0833333 ], [ -89.6666667, 48.0416667 ], [ -89.625, 48.0416667 ], [ -89.625, 48.0833333 ], [ -89.6666667, 48.0833333 ] ] ], [ [ [ -85.6666667, 48.0833333 ], [ -85.6666667, 48.0416667 ], [ -85.5833333, 48.0416667 ], [ -85.6666667, 48.0833333 ] ] ], [ [ [ -68.7083333, 48.0833333 ], [ -68.75, 48.0 ], [ -68.7083333, 48.0 ], [ -68.7083333, 48.0833333 ] ] ], [ [ [ -88.7916667, 48.0416667 ], [ -88.875, 48.0 ], [ -88.7916667, 48.0 ], [ -88.7916667, 48.0416667 ] ] ], [ [ [ -90.75, 48.0416667 ], [ -90.75, 48.0833333 ], [ -90.7916667, 48.0 ], [ -90.9166667, 47.7916667 ], [ -90.8333333, 47.8333333 ], [ -90.8333333, 47.75 ], [ -90.6666667, 47.7916667 ], [ -90.75, 47.8333333 ], [ -90.5833333, 47.8333333 ], [ -90.5833333, 47.9166667 ], [ -90.625, 47.9166667 ], [ -90.6666667, 47.9166667 ], [ -90.7083333, 47.9166667 ], [ -90.7083333, 48.0416667 ], [ -90.75, 48.0416667 ] ] ], [ [ [ -90.5, 48.2916667 ], [ -90.4583333, 48.0833333 ], [ -90.4583333, 48.0416667 ], [ -90.4583333, 48.0 ], [ -90.4166667, 48.0 ], [ -90.4166667, 47.9583333 ], [ -90.25, 47.9583333 ], [ -90.25, 48.0 ], [ -90.3333333, 48.0416667 ], [ -90.375, 48.0416667 ], [ -90.375, 48.1666667 ], [ -90.25, 48.1666667 ], [ -90.125, 48.1666667 ], [ -90.0833333, 48.1666667 ], [ -90.0833333, 48.25 ], [ -89.9583333, 48.2083333 ], [ -89.7916667, 48.2083333 ], [ -89.7916667, 48.125 ], [ -89.75, 48.125 ], [ -89.7916667, 48.0833333 ], [ -89.7916667, 48.0416667 ], [ -89.7083333, 48.0416667 ], [ -89.7083333, 48.125 ], [ -89.625, 48.125 ], [ -89.625, 48.1666667 ], [ -89.5416667, 48.1666667 ], [ -89.5416667, 48.125 ], [ -89.4166667, 48.125 ], [ -89.375, 48.1666667 ], [ -89.3333333, 48.2083333 ], [ -89.25, 48.4583333 ], [ -88.7916667, 48.5833333 ], [ -88.75, 48.7083333 ], [ -88.5, 48.875 ], [ -88.3333333, 48.8333333 ], [ -88.2916667, 48.7916667 ], [ -88.25, 48.7916667 ], [ -88.2916667, 48.9166667 ], [ -88.75, 48.9583333 ], [ -88.875, 48.7083333 ], [ -89.5833333, 48.7916667 ], [ -89.625, 48.625 ], [ -89.9583333, 48.625 ], [ -90.25, 48.8333333 ], [ -90.25, 48.875 ], [ -90.4166667, 48.9166667 ], [ -90.4166667, 48.875 ], [ -90.4583333, 48.9166667 ], [ -90.5416667, 48.9166667 ], [ -90.5416667, 48.8333333 ], [ -90.625, 48.875 ], [ -90.6666667, 48.875 ], [ -90.6666667, 48.625 ], [ -90.5, 48.625 ], [ -90.5, 48.5 ], [ -90.375, 48.4166667 ], [ -90.25, 48.3333333 ], [ -90.375, 48.25 ], [ -90.5, 48.2916667 ] ] ], [ [ [ -89.75, 48.0 ], [ -89.75, 47.9583333 ], [ -89.7083333, 48.0 ], [ -89.75, 48.0 ] ] ], [ [ [ -89.875, 48.0833333 ], [ -89.875, 47.9166667 ], [ -89.7916667, 47.9583333 ], [ -89.7916667, 48.0 ], [ -89.7916667, 48.0416667 ], [ -89.8333333, 48.0416667 ], [ -89.8333333, 48.0833333 ], [ -89.875, 48.0833333 ] ] ], [ [ [ -90.5416667, 48.0 ], [ -90.6666667, 47.9583333 ], [ -90.5833333, 47.9583333 ], [ -90.5833333, 47.9166667 ], [ -90.5416667, 47.9166667 ], [ -90.5416667, 48.0 ] ] ], [ [ [ -90.1666667, 47.9583333 ], [ -90.1666667, 47.9166667 ], [ -90.125, 47.9166667 ], [ -90.125, 47.9583333 ], [ -90.1666667, 47.9583333 ] ] ], [ [ [ -90.0, 48.0 ], [ -90.0833333, 47.9166667 ], [ -90.0, 47.9166667 ], [ -90.0, 48.0 ] ] ], [ [ [ -89.9583333, 48.0 ], [ -89.9583333, 47.875 ], [ -89.9166667, 48.0 ], [ -89.9583333, 48.0 ] ] ], [ [ [ -68.7083333, 48.0 ], [ -68.75, 47.9583333 ], [ -68.7083333, 47.875 ], [ -68.7083333, 48.0 ] ] ], [ [ [ -90.2916667, 47.9166667 ], [ -90.2916667, 47.875 ], [ -90.2083333, 47.875 ], [ -90.2083333, 47.9166667 ], [ -90.2916667, 47.9166667 ] ] ], [ [ [ -89.0833333, 47.9583333 ], [ -89.125, 47.9166667 ], [ -89.0, 47.9583333 ], [ -89.0833333, 47.9583333 ] ] ], [ [ [ -90.5416667, 47.875 ], [ -90.5416667, 47.8333333 ], [ -90.4583333, 47.8333333 ], [ -90.4583333, 47.875 ], [ -90.5416667, 47.875 ] ] ], [ [ [ -90.4166667, 47.9166667 ], [ -90.375, 47.875 ], [ -90.375, 47.7916667 ], [ -90.3333333, 47.7916667 ], [ -90.3333333, 47.9166667 ], [ -90.4166667, 47.9166667 ] ] ], [ [ [ -90.25, 47.8333333 ], [ -90.25, 47.7916667 ], [ -90.2083333, 47.7916667 ], [ -90.2083333, 47.8333333 ], [ -90.25, 47.8333333 ] ] ], [ [ [ -90.5416667, 47.7916667 ], [ -90.5416667, 47.75 ], [ -90.5, 47.75 ], [ -90.5, 47.7916667 ], [ -90.5416667, 47.7916667 ] ] ], [ [ [ -69.75, 47.7083333 ], [ -69.75, 47.6666667 ], [ -69.7083333, 47.7083333 ], [ -69.75, 47.7083333 ] ] ], [ [ [ -88.0416667, 47.4583333 ], [ -88.0416667, 47.4166667 ], [ -87.9166667, 47.4166667 ], [ -87.9166667, 47.4583333 ], [ -88.0416667, 47.4583333 ] ] ], [ [ [ -81.5833333, 47.5416667 ], [ -81.9166667, 47.5833333 ], [ -81.8333333, 47.375 ], [ -81.625, 47.4166667 ], [ -81.5833333, 47.5 ], [ -81.5833333, 47.5416667 ] ] ], [ [ [ -69.6666667, 48.2916667 ], [ -69.9583333, 48.3333333 ], [ -69.9583333, 48.0416667 ], [ -70.1666667, 47.75 ], [ -70.5, 47.75 ], [ -70.625, 47.625 ], [ -70.5833333, 47.25 ], [ -70.1666667, 47.5 ], [ -69.875, 47.75 ], [ -69.8333333, 47.9166667 ], [ -69.7916667, 47.9166667 ], [ -69.75, 48.0833333 ], [ -69.7916667, 48.125 ], [ -69.6666667, 48.125 ], [ -69.6666667, 48.2916667 ] ] ], [ [ [ -88.125, 47.4583333 ], [ -88.125, 47.4166667 ], [ -88.375, 47.375 ], [ -88.375, 47.3333333 ], [ -88.375, 47.125 ], [ -88.0, 47.3333333 ], [ -88.0416667, 47.4166667 ], [ -88.0833333, 47.4583333 ], [ -88.125, 47.4583333 ] ] ], [ [ [ -90.4583333, 46.5416667 ], [ -90.4583333, 46.5 ], [ -90.4166667, 46.5 ], [ -90.4583333, 46.5416667 ] ] ], [ [ [ -90.5, 46.5 ], [ -90.625, 46.4583333 ], [ -90.5, 46.4166667 ], [ -90.4583333, 46.5 ], [ -90.5, 46.5 ] ] ], [ [ [ -90.5, 46.4166667 ], [ -90.5833333, 46.375 ], [ -90.5, 46.375 ], [ -90.5, 46.4166667 ] ] ], [ [ [ -60.7916667, 46.1666667 ], [ -60.7916667, 46.0833333 ], [ -60.75, 46.1666667 ], [ -60.7916667, 46.1666667 ] ] ], [ [ [ -63.9583333, 46.9583333 ], [ -64.25, 46.8333333 ], [ -64.3333333, 46.625 ], [ -64.125, 46.5833333 ], [ -64.1666667, 46.375 ], [ -63.8333333, 46.375 ], [ -63.7083333, 46.2083333 ], [ -63.1666667, 46.125 ], [ -62.9166667, 45.9583333 ], [ -62.4583333, 45.9583333 ], [ -62.4583333, 46.125 ], [ -62.5, 46.125 ], [ -62.4583333, 46.25 ], [ -62.625, 46.375 ], [ -63.25, 46.375 ], [ -63.25, 46.4583333 ], [ -63.4166667, 46.4583333 ], [ -63.5, 46.5416667 ], [ -63.6666667, 46.5833333 ], [ -63.7083333, 46.5 ], [ -63.7916667, 46.5416667 ], [ -63.8333333, 46.625 ], [ -63.875, 46.625 ], [ -64.0416667, 46.75 ], [ -64.0416667, 46.8333333 ], [ -63.9583333, 46.9583333 ] ] ], [ [ [ -61.3333333, 46.25 ], [ -61.5, 45.9583333 ], [ -61.5416667, 45.9166667 ], [ -61.25, 46.125 ], [ -61.25, 46.25 ], [ -61.3333333, 46.25 ] ] ], [ [ [ -82.4166667, 45.9583333 ], [ -82.4583333, 45.7083333 ], [ -82.2083333, 45.625 ], [ -81.875, 45.6666667 ], [ -81.9166667, 45.9583333 ], [ -82.4166667, 45.9583333 ] ] ], [ [ [ -67.2916667, 45.625 ], [ -67.2083333, 45.5833333 ], [ -67.1666667, 45.8333333 ], [ -67.375, 45.625 ], [ -67.3333333, 45.625 ], [ -67.3333333, 45.5833333 ], [ -67.2916667, 45.625 ] ] ], [ [ [ -66.7916667, 44.8333333 ], [ -66.9166667, 44.5833333 ], [ -66.6666667, 44.5833333 ], [ -66.7916667, 44.8333333 ] ] ], [ [ [ -87.875, 42.9166667 ], [ -87.9166667, 43.375 ], [ -87.7083333, 43.7083333 ], [ -87.7083333, 44.0833333 ], [ -87.5416667, 44.1666667 ], [ -87.5416667, 44.4583333 ], [ -87.375, 44.7916667 ], [ -87.625, 44.8333333 ], [ -87.875, 44.5416667 ], [ -88.0416667, 44.6666667 ], [ -87.875, 44.9583333 ], [ -87.6666667, 45.0 ], [ -87.625, 45.2083333 ], [ -87.3333333, 45.4583333 ], [ -87.2083333, 45.7083333 ], [ -86.7916667, 45.875 ], [ -86.3333333, 45.875 ], [ -86.2083333, 46.0 ], [ -85.6666667, 46.0 ], [ -85.5833333, 46.125 ], [ -85.25, 46.125 ], [ -84.75, 46.0 ], [ -83.9583333, 46.0 ], [ -84.25, 46.375 ], [ -84.625, 46.4583333 ], [ -85.0416667, 46.4583333 ], [ -85.0416667, 46.75 ], [ -85.4166667, 46.6666667 ], [ -86.1666667, 46.6666667 ], [ -86.5833333, 46.4583333 ], [ -87.4166667, 46.5 ], [ -87.625, 46.7916667 ], [ -87.875, 46.9166667 ], [ -88.1666667, 46.9166667 ], [ -88.7916667, 47.1666667 ], [ -88.9166667, 47.0 ], [ -89.125, 47.0 ], [ -89.3333333, 46.8333333 ], [ -89.75, 46.8333333 ], [ -89.9166667, 46.7083333 ], [ -90.3333333, 46.5833333 ], [ -90.4166667, 46.5 ], [ -90.3333333, 46.4583333 ], [ -90.3333333, 46.3333333 ], [ -89.625, 46.2916667 ], [ -89.4583333, 46.0 ], [ -88.9583333, 46.0 ], [ -88.7083333, 45.8333333 ], [ -88.6666667, 45.7083333 ], [ -88.5416667, 45.4166667 ], [ -88.1666667, 45.375 ], [ -88.0416667, 45.0 ], [ -88.2083333, 44.7083333 ], [ -88.5416667, 44.4583333 ], [ -88.75, 44.2083333 ], [ -88.9583333, 44.1666667 ], [ -88.9583333, 43.9166667 ], [ -88.7916667, 43.7916667 ], [ -88.6666667, 43.4583333 ], [ -88.125, 43.25 ], [ -88.0833333, 42.9166667 ], [ -87.875, 42.9166667 ] ] ], [ [ [ -78.0833333, 41.7083333 ], [ -77.875, 41.5416667 ], [ -77.9166667, 41.625 ], [ -78.0833333, 41.7083333 ] ] ], [ [ [ -68.4166667, 48.4583333 ], [ -68.75, 48.375 ], [ -68.7916667, 48.2916667 ], [ -68.875, 48.2916667 ], [ -68.9166667, 48.25 ], [ -69.2083333, 48.0833333 ], [ -69.4166667, 48.0416667 ], [ -69.5, 47.9583333 ], [ -69.5, 47.9166667 ], [ -69.375, 47.7916667 ], [ -69.0833333, 47.8333333 ], [ -69.0416667, 47.6666667 ], [ -69.125, 47.3333333 ], [ -69.2083333, 47.3333333 ], [ -69.4166667, 47.1666667 ], [ -69.7083333, 47.2916667 ], [ -69.5416667, 47.5 ], [ -69.75, 47.6666667 ], [ -69.8333333, 47.625 ], [ -69.8333333, 47.5833333 ], [ -70.375, 47.1666667 ], [ -70.6666667, 47.0416667 ], [ -70.7083333, 47.125 ], [ -70.8333333, 47.125 ], [ -71.0416667, 46.9583333 ], [ -71.4166667, 46.9583333 ], [ -71.8333333, 46.8333333 ], [ -72.0833333, 46.8333333 ], [ -72.2916667, 47.0416667 ], [ -72.2916667, 47.0833333 ], [ -72.375, 47.0833333 ], [ -72.4166667, 47.0833333 ], [ -72.6666667, 47.2916667 ], [ -72.75, 47.5 ], [ -73.0416667, 47.5 ], [ -73.25, 47.1666667 ], [ -73.2083333, 46.9583333 ], [ -73.4583333, 46.7916667 ], [ -73.5, 46.625 ], [ -73.5, 46.5833333 ], [ -73.625, 46.25 ], [ -74.0416667, 46.0416667 ], [ -74.4583333, 45.9583333 ], [ -74.4583333, 46.1666667 ], [ -74.625, 46.25 ], [ -74.7083333, 46.5416667 ], [ -74.75, 46.625 ], [ -75.2916667, 46.75 ], [ -75.5, 46.5833333 ], [ -75.5416667, 46.5833333 ], [ -75.625, 46.625 ], [ -75.5416667, 47.0416667 ], [ -75.875, 46.9583333 ], [ -76.0833333, 47.0 ], [ -76.1666667, 47.0833333 ], [ -76.2083333, 47.0833333 ], [ -76.25, 46.9583333 ], [ -76.5833333, 46.9166667 ], [ -76.625, 47.0416667 ], [ -76.875, 46.9166667 ], [ -77.0416667, 47.2083333 ], [ -77.0, 47.375 ], [ -77.4583333, 47.5 ], [ -77.75, 47.4166667 ], [ -77.9166667, 47.625 ], [ -78.0416667, 47.75 ], [ -78.3333333, 47.4166667 ], [ -78.375, 47.2083333 ], [ -78.7083333, 47.2083333 ], [ -78.875, 47.2916667 ], [ -79.1666667, 47.1666667 ], [ -79.125, 47.5833333 ], [ -79.0, 47.5833333 ], [ -79.0, 47.625 ], [ -79.5, 47.625 ], [ -79.375, 47.7916667 ], [ -79.6666667, 48.125 ], [ -79.7916667, 47.9583333 ], [ -80.0, 47.9583333 ], [ -80.0416667, 47.8333333 ], [ -80.4166667, 47.8333333 ], [ -80.5416667, 47.7083333 ], [ -80.625, 47.75 ], [ -80.875, 47.6666667 ], [ -80.75, 47.375 ], [ -81.0416667, 47.5 ], [ -81.1666667, 47.5416667 ], [ -81.5416667, 47.5416667 ], [ -81.5833333, 47.5 ], [ -81.4583333, 47.3333333 ], [ -81.5, 47.2916667 ], [ -81.5833333, 47.375 ], [ -81.625, 47.2083333 ], [ -82.0, 47.2083333 ], [ -82.2083333, 47.375 ], [ -82.4583333, 47.3333333 ], [ -82.5416667, 47.25 ], [ -82.9583333, 47.25 ], [ -83.0416667, 47.2916667 ], [ -83.125, 47.3333333 ], [ -83.375, 47.1666667 ], [ -83.5833333, 46.875 ], [ -83.9166667, 46.875 ], [ -84.3333333, 46.7916667 ], [ -84.5416667, 46.5416667 ], [ -84.0833333, 46.5833333 ], [ -84.0416667, 46.3333333 ], [ -83.4583333, 46.2916667 ], [ -83.25, 46.2083333 ], [ -82.2916667, 46.2083333 ], [ -82.0416667, 46.125 ], [ -81.5833333, 46.1666667 ], [ -81.4583333, 46.0 ], [ -80.7083333, 45.9583333 ], [ -80.7083333, 45.875 ], [ -80.375, 45.4583333 ], [ -80.0416667, 45.4166667 ], [ -80.0, 45.125 ], [ -79.6666667, 44.75 ], [ -79.9583333, 44.7083333 ], [ -80.0416667, 44.4583333 ], [ -80.625, 44.5833333 ], [ -80.6666667, 44.7083333 ], [ -80.9583333, 44.7083333 ], [ -81.25, 44.8333333 ], [ -81.25, 44.5833333 ], [ -81.5833333, 44.3333333 ], [ -81.7083333, 44.125 ], [ -81.6666667, 43.4166667 ], [ -81.875, 43.2083333 ], [ -82.1666667, 43.0416667 ], [ -82.4583333, 43.0 ], [ -82.625, 43.75 ], [ -82.875, 44.0416667 ], [ -83.3333333, 43.9166667 ], [ -83.4583333, 43.6666667 ], [ -83.625, 43.5833333 ], [ -83.9583333, 43.6666667 ], [ -83.9583333, 43.9166667 ], [ -83.5833333, 44.125 ], [ -83.5833333, 44.25 ], [ -83.3333333, 44.375 ], [ -83.3333333, 44.875 ], [ -83.4583333, 44.9166667 ], [ -83.4583333, 45.3333333 ], [ -83.625, 45.3333333 ], [ -83.9583333, 45.5 ], [ -84.1666667, 45.5 ], [ -84.2916667, 45.6666667 ], [ -84.9166667, 45.75 ], [ -85.0833333, 45.625 ], [ -85.0416667, 45.4583333 ], [ -85.375, 45.25 ], [ -85.375, 44.9166667 ], [ -85.5, 44.75 ], [ -85.7916667, 44.9166667 ], [ -86.0416667, 44.9166667 ], [ -86.2083333, 44.6666667 ], [ -86.25, 44.3333333 ], [ -86.375, 44.2083333 ], [ -86.4166667, 43.75 ], [ -86.5, 43.625 ], [ -86.25, 43.2916667 ], [ -86.2083333, 42.5833333 ], [ -86.25, 42.4166667 ], [ -86.1666667, 42.25 ], [ -86.4583333, 42.125 ], [ -86.4583333, 42.0 ], [ -86.0833333, 42.0416667 ], [ -86.0, 42.1666667 ], [ -85.625, 42.2083333 ], [ -85.5416667, 42.0416667 ], [ -85.2916667, 41.9583333 ], [ -85.125, 42.125 ], [ -84.75, 42.1666667 ], [ -84.5, 42.125 ], [ -84.2916667, 41.9583333 ], [ -84.2916667, 41.8333333 ], [ -84.5833333, 41.5 ], [ -84.6666667, 41.1666667 ], [ -83.8333333, 41.2083333 ], [ -83.5833333, 41.3333333 ], [ -83.25, 41.3333333 ], [ -83.0416667, 41.25 ], [ -82.4583333, 41.25 ], [ -82.1666667, 41.2083333 ], [ -81.7916667, 41.25 ], [ -81.4166667, 41.0416667 ], [ -81.3333333, 41.25 ], [ -81.0833333, 41.4166667 ], [ -81.0416667, 41.0416667 ], [ -80.9583333, 41.0 ], [ -80.75, 40.875 ], [ -80.5, 40.875 ], [ -80.5, 40.7916667 ], [ -80.25, 40.5833333 ], [ -80.2083333, 40.25 ], [ -79.8333333, 40.2083333 ], [ -79.6666667, 40.3333333 ], [ -79.7083333, 40.5416667 ], [ -80.0416667, 40.8333333 ], [ -80.2916667, 40.875 ], [ -80.2916667, 41.4166667 ], [ -79.7916667, 41.25 ], [ -79.625, 41.4166667 ], [ -79.5416667, 41.4583333 ], [ -79.3333333, 41.4583333 ], [ -79.4166667, 41.5416667 ], [ -79.3333333, 41.7083333 ], [ -79.4166667, 41.7083333 ], [ -79.4583333, 41.5 ], [ -79.6666667, 41.5416667 ], [ -79.7083333, 41.7916667 ], [ -79.2916667, 41.75 ], [ -79.0833333, 41.75 ], [ -78.9583333, 42.0 ], [ -78.7083333, 42.0833333 ], [ -78.6666667, 41.8333333 ], [ -78.5, 41.7916667 ], [ -78.25, 41.75 ], [ -77.9166667, 42.0 ], [ -77.75, 41.6666667 ], [ -77.875, 41.5416667 ], [ -77.9583333, 41.2916667 ], [ -78.4583333, 41.0 ], [ -78.0, 41.0416667 ], [ -77.8333333, 41.0416667 ], [ -78.2916667, 40.6666667 ], [ -78.1666667, 40.5416667 ], [ -78.1666667, 40.4166667 ], [ -78.2083333, 40.2916667 ], [ -77.9583333, 40.3333333 ], [ -78.1666667, 39.875 ], [ -78.375, 39.75 ], [ -78.4166667, 39.75 ], [ -78.5, 39.625 ], [ -78.6666667, 39.5416667 ], [ -78.4166667, 39.5 ], [ -78.375, 39.5833333 ], [ -78.375, 39.5 ], [ -78.3333333, 39.5833333 ], [ -78.2083333, 38.9166667 ], [ -77.9166667, 39.0416667 ], [ -78.0, 38.6666667 ], [ -77.9166667, 38.375 ], [ -77.8333333, 38.25 ], [ -77.75, 38.2083333 ], [ -77.75, 38.125 ], [ -77.6666667, 37.9583333 ], [ -77.6666667, 37.4166667 ], [ -77.5, 37.4166667 ], [ -77.4583333, 37.1666667 ], [ -77.2083333, 37.125 ], [ -77.1666667, 37.0 ], [ -76.875, 37.0 ], [ -76.6666667, 37.125 ], [ -76.6666667, 37.0 ], [ -76.625, 36.9583333 ], [ -76.5, 36.9166667 ], [ -76.125, 36.6666667 ], [ -76.125, 36.2916667 ], [ -76.0833333, 36.1666667 ], [ -76.125, 36.125 ], [ -76.0, 36.1666667 ], [ -75.9583333, 36.5416667 ], [ -75.9166667, 36.6666667 ], [ -75.875, 36.6666667 ], [ -75.9166667, 36.7083333 ], [ -75.9583333, 36.875 ], [ -76.0, 36.9583333 ], [ -76.25, 36.9583333 ], [ -76.3333333, 37.2916667 ], [ -76.25, 37.2916667 ], [ -76.2083333, 37.9166667 ], [ -76.5, 38.0833333 ], [ -76.375, 38.2083333 ], [ -76.375, 38.4166667 ], [ -76.5, 38.5 ], [ -76.5, 38.8333333 ], [ -76.375, 39.0 ], [ -76.3333333, 38.8333333 ], [ -76.3333333, 38.5416667 ], [ -76.3333333, 38.5 ], [ -76.2916667, 38.2916667 ], [ -76.125, 38.2083333 ], [ -76.0833333, 37.9166667 ], [ -75.7916667, 37.9166667 ], [ -76.0416667, 37.375 ], [ -75.9583333, 37.0833333 ], [ -75.875, 37.1666667 ], [ -75.8333333, 37.2083333 ], [ -75.8333333, 37.25 ], [ -75.8333333, 37.3333333 ], [ -75.75, 37.3333333 ], [ -75.75, 37.2916667 ], [ -75.7083333, 37.4166667 ], [ -75.625, 37.5416667 ], [ -75.5833333, 37.5833333 ], [ -75.4166667, 37.8333333 ], [ -75.4166667, 37.875 ], [ -75.25, 38.0 ], [ -75.125, 38.1666667 ], [ -75.0833333, 38.4166667 ], [ -75.0416667, 38.4166667 ], [ -75.0416667, 38.75 ], [ -75.375, 39.0416667 ], [ -75.4166667, 39.3333333 ], [ -75.1666667, 39.1666667 ], [ -74.9166667, 39.1666667 ], [ -74.8333333, 38.9166667 ], [ -74.5416667, 39.2916667 ], [ -74.375, 39.3333333 ], [ -74.125, 39.625 ], [ -73.9583333, 40.2083333 ], [ -74.0416667, 40.4583333 ], [ -73.8333333, 40.5833333 ], [ -73.25, 40.5833333 ], [ -72.0416667, 41.0 ], [ -72.2083333, 41.1666667 ], [ -72.375, 41.1666667 ], [ -72.5833333, 41.0 ], [ -73.1666667, 41.0 ], [ -73.6666667, 40.9166667 ], [ -73.5833333, 41.0 ], [ -73.0833333, 41.125 ], [ -72.8333333, 41.25 ], [ -72.1666667, 41.25 ], [ -71.4583333, 41.3333333 ], [ -71.2916667, 41.4583333 ], [ -70.75, 41.4166667 ], [ -70.4583333, 41.5833333 ], [ -69.9583333, 41.6666667 ], [ -70.0416667, 41.75 ], [ -70.4166667, 41.75 ], [ -70.7083333, 42.25 ], [ -70.875, 42.3333333 ], [ -70.6666667, 42.5416667 ], [ -70.7916667, 42.9166667 ], [ -70.4166667, 43.375 ], [ -70.0833333, 43.7083333 ], [ -69.5833333, 43.75 ], [ -69.4583333, 43.875 ], [ -69.1666667, 43.9166667 ], [ -69.0, 44.2083333 ], [ -68.75, 44.125 ], [ -68.375, 44.125 ], [ -68.125, 44.3333333 ], [ -67.875, 44.375 ], [ -67.5, 44.4583333 ], [ -66.9166667, 44.7916667 ], [ -66.875, 44.9583333 ], [ -66.625, 45.0833333 ], [ -66.75, 45.375 ], [ -66.4583333, 45.4166667 ], [ -66.2916667, 45.2916667 ], [ -66.3333333, 45.125 ], [ -65.5, 45.2916667 ], [ -65.4583333, 45.5 ], [ -65.4166667, 45.625 ], [ -65.2916667, 45.75 ], [ -64.7916667, 45.9166667 ], [ -64.7083333, 45.5416667 ], [ -64.9583333, 45.4583333 ], [ -64.9583333, 45.2916667 ], [ -64.9166667, 45.1666667 ], [ -66.0, 44.625 ], [ -66.125, 44.375 ], [ -66.2083333, 44.2083333 ], [ -66.1666667, 43.9583333 ], [ -66.0833333, 43.7916667 ], [ -65.8333333, 43.6666667 ], [ -65.7916667, 43.6666667 ], [ -65.7916667, 43.7083333 ], [ -65.7083333, 43.6666667 ], [ -65.6666667, 43.6666667 ], [ -65.625, 43.5416667 ], [ -65.5, 43.5 ], [ -65.4583333, 43.5 ], [ -65.4583333, 43.5416667 ], [ -65.3333333, 43.5416667 ], [ -65.3333333, 43.5833333 ], [ -64.75, 43.8333333 ], [ -64.4583333, 44.1666667 ], [ -64.2083333, 44.2916667 ], [ -64.0, 44.5 ], [ -63.5416667, 44.4166667 ], [ -63.4166667, 44.625 ], [ -62.8333333, 44.6666667 ], [ -62.75, 44.75 ], [ -62.375, 44.7916667 ], [ -62.2916667, 44.9166667 ], [ -62.0, 44.9583333 ], [ -61.5416667, 45.125 ], [ -61.5, 45.125 ], [ -61.4583333, 45.125 ], [ -61.4166667, 45.2083333 ], [ -61.5, 45.3333333 ], [ -61.4583333, 45.7083333 ], [ -61.7916667, 45.6666667 ], [ -62.0, 45.9166667 ], [ -62.2916667, 45.7083333 ], [ -62.5416667, 45.6666667 ], [ -62.6666667, 45.7916667 ], [ -63.1666667, 45.7916667 ], [ -63.375, 45.875 ], [ -63.75, 45.875 ], [ -63.75, 46.1666667 ], [ -64.5, 46.25 ], [ -64.6666667, 46.5 ], [ -64.6666667, 46.5416667 ], [ -64.875, 46.7916667 ], [ -64.7916667, 47.0833333 ], [ -65.1666667, 47.0833333 ], [ -65.125, 46.9166667 ], [ -65.125, 46.7916667 ], [ -65.125, 46.625 ], [ -65.125, 46.5833333 ], [ -65.125, 46.375 ], [ -65.2083333, 46.1666667 ], [ -65.4583333, 46.125 ], [ -65.6666667, 46.0833333 ], [ -65.8333333, 46.3333333 ], [ -66.125, 46.2083333 ], [ -66.7916667, 46.25 ], [ -67.0, 46.125 ], [ -67.1666667, 45.875 ], [ -67.1666667, 45.8333333 ], [ -67.0, 45.7083333 ], [ -67.2083333, 45.5833333 ], [ -67.2083333, 45.5416667 ], [ -67.2916667, 45.5 ], [ -67.3333333, 45.5833333 ], [ -67.375, 45.625 ], [ -67.7083333, 45.5833333 ], [ -67.9166667, 45.4166667 ], [ -68.25, 45.375 ], [ -68.2083333, 45.4583333 ], [ -68.25, 45.7083333 ], [ -68.25, 45.8333333 ], [ -68.2083333, 46.0 ], [ -67.875, 46.2083333 ], [ -67.4583333, 46.5416667 ], [ -67.375, 46.875 ], [ -67.4166667, 47.0833333 ], [ -67.9583333, 47.0833333 ], [ -68.5833333, 47.25 ], [ -68.75, 47.4166667 ], [ -68.8333333, 47.5416667 ], [ -68.75, 47.5416667 ], [ -68.7083333, 47.5416667 ], [ -68.7083333, 47.8333333 ], [ -68.8333333, 47.8333333 ], [ -69.0, 48.125 ], [ -68.7083333, 48.0833333 ], [ -68.4583333, 48.1666667 ], [ -68.375, 48.4166667 ], [ -68.4166667, 48.4583333 ] ], [ [ -81.4583333, 47.2916667 ], [ -81.4583333, 47.3333333 ], [ -81.4166667, 47.3333333 ], [ -81.4583333, 47.2916667 ] ], [ [ -68.9583333, 46.9583333 ], [ -68.9166667, 46.9583333 ], [ -68.9166667, 46.9166667 ], [ -68.875, 46.875 ], [ -68.8333333, 46.75 ], [ -69.0416667, 46.625 ], [ -69.125, 46.8333333 ], [ -68.9583333, 46.9166667 ], [ -68.9583333, 46.9583333 ] ], [ [ -69.6666667, 45.4166667 ], [ -69.5833333, 45.5416667 ], [ -69.2916667, 45.5416667 ], [ -69.125, 45.3333333 ], [ -69.4166667, 45.1666667 ], [ -69.625, 44.9583333 ], [ -69.9583333, 44.9583333 ], [ -70.5833333, 44.625 ], [ -70.7083333, 44.7916667 ], [ -70.3333333, 45.0833333 ], [ -70.3333333, 45.25 ], [ -69.8333333, 45.3333333 ], [ -69.6666667, 45.4166667 ] ], [ [ -79.0, 45.4583333 ], [ -78.4166667, 45.125 ], [ -78.9166667, 45.125 ], [ -79.0, 45.4583333 ] ], [ [ -71.0416667, 45.4166667 ], [ -71.0, 45.3333333 ], [ -70.5416667, 45.1666667 ], [ -70.7083333, 45.0416667 ], [ -71.0, 45.2083333 ], [ -71.0416667, 45.4166667 ] ], [ [ -75.8333333, 44.5416667 ], [ -75.875, 44.375 ], [ -76.0833333, 44.2083333 ], [ -76.0416667, 44.0416667 ], [ -76.2083333, 43.8333333 ], [ -76.2083333, 43.5 ], [ -76.4583333, 43.5 ], [ -76.6666667, 43.3333333 ], [ -76.9166667, 43.25 ], [ -77.4166667, 43.2916667 ], [ -77.6666667, 43.25 ], [ -77.9583333, 43.375 ], [ -78.5833333, 43.375 ], [ -78.9583333, 43.25 ], [ -79.7083333, 43.2083333 ], [ -79.75, 43.375 ], [ -79.5, 43.6666667 ], [ -79.1666667, 43.8333333 ], [ -78.8333333, 43.9166667 ], [ -78.4583333, 43.9166667 ], [ -78.2916667, 44.0 ], [ -77.875, 44.0 ], [ -77.4166667, 44.2083333 ], [ -76.75, 44.2083333 ], [ -76.1666667, 44.375 ], [ -75.8333333, 44.5416667 ] ], [ [ -71.0, 44.4583333 ], [ -70.8333333, 44.5 ], [ -70.8333333, 44.2916667 ], [ -71.0416667, 44.25 ], [ -71.0416667, 44.0416667 ], [ -71.4583333, 43.875 ], [ -71.6666667, 44.2083333 ], [ -71.4166667, 44.2083333 ], [ -71.0, 44.4583333 ] ], [ [ -74.1666667, 44.1666667 ], [ -73.7916667, 44.0833333 ], [ -73.9583333, 44.0416667 ], [ -74.0833333, 44.125 ], [ -74.1666667, 44.1666667 ] ], [ [ -74.1666667, 43.7083333 ], [ -74.1666667, 43.5 ], [ -74.4583333, 43.125 ], [ -75.2083333, 43.4166667 ], [ -75.2083333, 43.8333333 ], [ -74.7083333, 43.8333333 ], [ -74.4166667, 43.8333333 ], [ -74.25, 43.6666667 ], [ -74.1666667, 43.7083333 ] ], [ [ -73.0, 43.1666667 ], [ -72.7916667, 42.8333333 ], [ -73.0, 42.7083333 ], [ -73.125, 43.0 ], [ -73.0, 43.1666667 ] ], [ [ -79.0833333, 43.125 ], [ -78.875, 43.0833333 ], [ -78.8333333, 42.7916667 ], [ -79.125, 42.5416667 ], [ -79.9166667, 42.2083333 ], [ -80.0, 42.125 ], [ -80.4583333, 41.9583333 ], [ -80.625, 41.9583333 ], [ -81.375, 41.7083333 ], [ -81.7083333, 41.4583333 ], [ -82.0833333, 41.5 ], [ -82.375, 41.375 ], [ -83.0, 41.5416667 ], [ -83.4583333, 41.7916667 ], [ -83.2083333, 42.0416667 ], [ -83.1666667, 42.2916667 ], [ -82.9166667, 42.4166667 ], [ -82.7916667, 42.7083333 ], [ -82.5833333, 42.5416667 ], [ -82.4583333, 42.2916667 ], [ -83.0833333, 42.2916667 ], [ -83.0416667, 42.0416667 ], [ -82.5416667, 42.0416667 ], [ -82.125, 42.2916667 ], [ -81.9166667, 42.2916667 ], [ -81.6666667, 42.5416667 ], [ -81.4166667, 42.6666667 ], [ -80.7083333, 42.6666667 ], [ -80.5416667, 42.625 ], [ -80.2083333, 42.8333333 ], [ -79.8333333, 42.8333333 ], [ -79.5, 42.9166667 ], [ -79.1666667, 42.9166667 ], [ -79.0833333, 43.125 ] ], [ [ -77.7083333, 41.4583333 ], [ -77.5416667, 41.5833333 ], [ -77.5416667, 41.5416667 ], [ -77.7083333, 41.4583333 ] ], [ [ -76.5, 41.375 ], [ -76.1666667, 41.4583333 ], [ -76.25, 41.2916667 ], [ -76.5, 41.375 ] ], [ [ -75.5, 41.25 ], [ -75.4166667, 41.0416667 ], [ -75.625, 41.0 ], [ -75.5, 41.25 ] ], [ [ -80.625, 47.5 ], [ -80.625, 47.4583333 ], [ -80.7083333, 47.625 ], [ -80.625, 47.5 ] ] ], [ [ [ -68.9583333, 46.9166667 ], [ -68.9166667, 46.875 ], [ -68.9166667, 46.9166667 ], [ -68.9583333, 46.9166667 ] ] ] ] } },
{ "type": "Feature", "properties": { "ID": 13 }, "geometry": { "type": "MultiPolygon", "coordinates": [ [ [ [ -99.5833333, 51.1666667 ], [ -99.7916667, 51.1666667 ], [ -99.75, 51.1666667 ], [ -99.7083333, 51.2083333 ], [ -99.5833333, 51.1666667 ] ] ], [ [ [ -100.75, 49.9166667 ], [ -101.0, 50.0833333 ], [ -101.0833333, 50.375 ], [ -101.25, 50.375 ], [ -101.4583333, 50.625 ], [ -101.625, 50.4583333 ], [ -101.375, 50.375 ], [ -100.9166667, 49.9166667 ], [ -101.2916667, 49.625 ], [ -101.3333333, 49.625 ], [ -101.5833333, 49.5416667 ], [ -101.9583333, 49.2916667 ], [ -102.0833333, 49.0 ], [ -101.75, 49.0833333 ], [ -101.25, 49.0 ], [ -100.9166667, 49.0 ], [ -100.7083333, 49.1666667 ], [ -100.5, 49.0833333 ], [ -100.2916667, 49.5833333 ], [ -100.2916667, 49.6666667 ], [ -100.75, 49.9166667 ] ] ], [ [ [ -90.4583333, 48.9166667 ], [ -90.4166667, 48.875 ], [ -90.4166667, 48.9166667 ], [ -90.4583333, 48.9166667 ] ] ], [ [ [ -90.5833333, 48.9166667 ], [ -90.625, 48.875 ], [ -90.5416667, 48.8333333 ], [ -90.5416667, 48.9166667 ], [ -90.5833333, 48.9166667 ] ] ], [ [ [ -105.0833333, 48.875 ], [ -105.0, 49.125 ], [ -104.625, 49.125 ], [ -104.5416667, 49.0 ], [ -104.25, 49.0 ], [ -104.1666667, 49.2916667 ], [ -103.9166667, 49.2916667 ], [ -104.0416667, 49.7083333 ], [ -104.6666667, 49.9583333 ], [ -104.8333333, 49.7916667 ], [ -104.5833333, 49.5416667 ], [ -104.9166667, 49.4583333 ], [ -104.9583333, 49.4166667 ], [ -104.9583333, 49.4583333 ], [ -105.0, 49.4583333 ], [ -105.0, 49.4166667 ], [ -105.25, 49.375 ], [ -105.5833333, 49.5833333 ], [ -105.7083333, 49.375 ], [ -105.7916667, 49.0 ], [ -105.2916667, 49.125 ], [ -105.0833333, 48.875 ] ] ], [ [ [ -90.4166667, 48.4166667 ], [ -90.375, 48.4166667 ], [ -90.5, 48.5 ], [ -90.5, 48.4166667 ], [ -90.4583333, 48.4166667 ], [ -90.4166667, 48.375 ], [ -90.4166667, 48.4166667 ] ] ], [ [ [ -90.5416667, 48.4166667 ], [ -90.5416667, 48.375 ], [ -90.5, 48.4166667 ], [ -90.5416667, 48.4166667 ] ] ], [ [ [ -90.375, 48.4166667 ], [ -90.4166667, 48.375 ], [ -90.5, 48.2916667 ], [ -90.375, 48.25 ], [ -90.25, 48.3333333 ], [ -90.375, 48.4166667 ] ] ], [ [ [ -90.0833333, 48.25 ], [ -90.0833333, 48.2083333 ], [ -89.9583333, 48.2083333 ], [ -90.0833333, 48.25 ] ] ], [ [ [ -89.9583333, 48.2083333 ], [ -89.9583333, 48.1666667 ], [ -89.8333333, 48.1666667 ], [ -89.8333333, 48.2083333 ], [ -89.9583333, 48.2083333 ] ] ], [ [ [ -90.375, 48.1666667 ], [ -90.375, 48.125 ], [ -90.3333333, 48.125 ], [ -90.3333333, 48.1666667 ], [ -90.375, 48.1666667 ] ] ], [ [ [ -90.1666667, 48.1666667 ], [ -90.1666667, 48.125 ], [ -90.125, 48.125 ], [ -90.125, 48.1666667 ], [ -90.1666667, 48.1666667 ] ] ], [ [ [ -90.0833333, 48.1666667 ], [ -90.0833333, 48.0833333 ], [ -90.0, 48.0833333 ], [ -90.0, 48.125 ], [ -90.0833333, 48.1666667 ] ] ], [ [ [ -89.625, 48.1666667 ], [ -89.625, 48.0833333 ], [ -89.5416667, 48.0833333 ], [ -89.5416667, 48.125 ], [ -89.5833333, 48.1666667 ], [ -89.625, 48.1666667 ] ] ], [ [ [ -90.3333333, 48.125 ], [ -90.2916667, 48.0833333 ], [ -90.2916667, 48.125 ], [ -90.3333333, 48.125 ] ] ], [ [ [ -89.9166667, 48.125 ], [ -89.9166667, 48.0416667 ], [ -89.875, 48.0416667 ], [ -89.875, 48.125 ], [ -89.9166667, 48.125 ] ] ], [ [ [ -89.8333333, 48.125 ], [ -89.8333333, 48.0416667 ], [ -89.7916667, 48.0416667 ], [ -89.7916667, 48.125 ], [ -89.8333333, 48.125 ] ] ], [ [ [ -89.7083333, 48.0833333 ], [ -89.7083333, 48.0416667 ], [ -89.6666667, 48.0416667 ], [ -89.6666667, 48.0833333 ], [ -89.7083333, 48.0833333 ] ] ], [ [ [ -90.2083333, 48.0416667 ], [ -90.2083333, 48.125 ], [ -90.25, 48.125 ], [ -90.2916667, 48.0833333 ], [ -90.2916667, 48.0416667 ], [ -90.3333333, 48.0416667 ], [ -90.25, 48.0 ], [ -90.25, 47.9583333 ], [ -90.125, 47.9583333 ], [ -90.125, 48.0416667 ], [ -90.2083333, 48.0416667 ] ] ], [ [ [ -90.0, 48.0416667 ], [ -90.0, 48.0 ], [ -89.9583333, 48.0 ], [ -89.9583333, 48.0416667 ], [ -90.0, 48.0416667 ] ] ], [ [ [ -89.7916667, 48.0416667 ], [ -89.7916667, 48.0 ], [ -89.7083333, 48.0 ], [ -89.7083333, 48.0416667 ], [ -89.7916667, 48.0416667 ] ] ], [ [ [ -90.7083333, 48.0416667 ], [ -90.7083333, 47.9166667 ], [ -90.625, 47.9166667 ], [ -90.625, 47.9583333 ], [ -90.6666667, 47.9583333 ], [ -90.5416667, 48.0 ], [ -90.5416667, 48.0416667 ], [ -90.7083333, 48.0416667 ] ] ], [ [ [ -90.4583333, 48.0 ], [ -90.4583333, 47.9166667 ], [ -90.4166667, 47.9166667 ], [ -90.4166667, 48.0 ], [ -90.4583333, 48.0 ] ] ], [ [ [ -89.9166667, 48.0 ], [ -89.875, 47.9166667 ], [ -89.875, 48.0 ], [ -89.9166667, 48.0 ] ] ], [ [ [ -90.375, 47.9583333 ], [ -90.375, 47.9166667 ], [ -90.3333333, 47.9166667 ], [ -90.3333333, 47.9583333 ], [ -90.375, 47.9583333 ] ] ], [ [ [ -106.9583333, 48.5833333 ], [ -106.9166667, 48.375 ], [ -107.1666667, 48.375 ], [ -107.1666667, 48.1666667 ], [ -107.0416667, 47.875 ], [ -106.625, 47.875 ], [ -106.5416667, 47.9583333 ], [ -106.6666667, 48.2083333 ], [ -106.375, 48.25 ], [ -106.625, 48.5416667 ], [ -106.9583333, 48.5833333 ] ] ], [ [ [ -90.4583333, 47.9166667 ], [ -90.5, 47.875 ], [ -90.4583333, 47.875 ], [ -90.4583333, 47.9166667 ] ] ], [ [ [ -90.0416667, 47.9166667 ], [ -89.9583333, 47.875 ], [ -89.9583333, 47.9166667 ], [ -90.0416667, 47.9166667 ] ] ], [ [ [ -90.2083333, 47.9166667 ], [ -90.2083333, 47.8333333 ], [ -90.0833333, 47.8333333 ], [ -90.1666667, 47.9166667 ], [ -90.2083333, 47.9166667 ] ] ], [ [ [ -90.3333333, 47.9166667 ], [ -90.3333333, 47.8333333 ], [ -90.2916667, 47.7916667 ], [ -90.25, 47.7916667 ], [ -90.25, 47.875 ], [ -90.2916667, 47.875 ], [ -90.2916667, 47.9166667 ], [ -90.3333333, 47.9166667 ] ] ], [ [ [ -90.75, 47.8333333 ], [ -90.6666667, 47.7916667 ], [ -90.6666667, 47.8333333 ], [ -90.75, 47.8333333 ] ] ], [ [ [ -90.5833333, 47.8333333 ], [ -90.5833333, 47.7916667 ], [ -90.5416667, 47.7916667 ], [ -90.5416667, 47.8333333 ], [ -90.5833333, 47.8333333 ] ] ], [ [ [ -90.5, 47.8333333 ], [ -90.5, 47.75 ], [ -90.4583333, 47.75 ], [ -90.375, 47.7916667 ], [ -90.375, 47.8333333 ], [ -90.5, 47.8333333 ] ] ], [ [ [ -90.375, 47.7916667 ], [ -90.375, 47.75 ], [ -90.3333333, 47.7916667 ], [ -90.375, 47.7916667 ] ] ], [ [ [ -90.5833333, 47.75 ], [ -90.5833333, 47.7083333 ], [ -90.5416667, 47.75 ], [ -90.5833333, 47.75 ] ] ], [ [ [ -114.4166667, 47.5416667 ], [ -114.5833333, 47.3333333 ], [ -114.5416667, 47.3333333 ], [ -114.5, 47.3333333 ], [ -114.4583333, 47.375 ], [ -114.4583333, 47.4166667 ], [ -114.3333333, 47.4583333 ], [ -114.3333333, 47.4166667 ], [ -114.375, 47.2916667 ], [ -114.2916667, 47.3333333 ], [ -114.125, 47.2916667 ], [ -114.2916667, 47.4166667 ], [ -114.4166667, 47.5416667 ] ] ], [ [ [ -90.4583333, 46.5416667 ], [ -90.5, 46.5 ], [ -90.4583333, 46.5 ], [ -90.4583333, 46.5416667 ] ] ], [ [ [ -90.4583333, 46.5 ], [ -90.5, 46.4166667 ], [ -90.5, 46.375 ], [ -90.3333333, 46.375 ], [ -90.3333333, 46.4583333 ], [ -90.4166667, 46.5 ], [ -90.4583333, 46.5 ] ] ], [ [ [ -106.0833333, 46.25 ], [ -105.9583333, 46.0416667 ], [ -105.75, 46.2083333 ], [ -105.7916667, 46.5 ], [ -105.6666667, 46.7083333 ], [ -106.1666667, 46.625 ], [ -106.0833333, 46.25 ] ] ], [ [ [ -116.9583333, 46.1666667 ], [ -117.0416667, 46.0833333 ], [ -116.8333333, 45.875 ], [ -116.9166667, 46.1666667 ], [ -116.9583333, 46.1666667 ] ] ], [ [ [ -116.5, 45.6666667 ], [ -116.5, 45.7916667 ], [ -116.8333333, 45.875 ], [ -116.5, 45.6666667 ] ] ], [ [ [ -107.75, 45.2916667 ], [ -107.7916667, 45.625 ], [ -108.1666667, 45.5833333 ], [ -108.2083333, 45.4166667 ], [ -108.0, 45.2916667 ], [ -107.75, 45.2916667 ] ] ], [ [ [ -102.9166667, 44.9166667 ], [ -103.1666667, 45.125 ], [ -103.6666667, 45.2916667 ], [ -104.125, 45.25 ], [ -104.3333333, 45.0 ], [ -104.0833333, 44.5833333 ], [ -103.75, 44.5 ], [ -103.5416667, 44.4166667 ], [ -103.0416667, 44.5833333 ], [ -102.8333333, 44.75 ], [ -102.9166667, 44.9166667 ] ] ], [ [ [ -105.75, 43.25 ], [ -105.875, 43.125 ], [ -105.9166667, 42.875 ], [ -105.9583333, 42.9166667 ], [ -105.9583333, 42.875 ], [ -106.4166667, 43.0833333 ], [ -106.5833333, 42.8333333 ], [ -106.4166667, 42.7916667 ], [ -105.75, 42.7916667 ], [ -105.5833333, 43.0833333 ], [ -105.5833333, 43.125 ], [ -105.5833333, 43.1666667 ], [ -105.75, 43.25 ] ] ], [ [ [ -113.5, 42.5 ], [ -113.25, 42.5 ], [ -112.9166667, 42.625 ], [ -112.9166667, 42.75 ], [ -113.2916667, 42.7916667 ], [ -113.5, 42.5 ] ] ], [ [ [ -107.3333333, 41.9583333 ], [ -107.4166667, 41.6666667 ], [ -107.125, 41.6666667 ], [ -107.2083333, 41.9166667 ], [ -107.3333333, 41.9583333 ] ] ], [ [ [ -101.5, 41.5416667 ], [ -101.5833333, 41.375 ], [ -101.7916667, 41.375 ], [ -101.875, 41.1666667 ], [ -101.625, 41.1666667 ], [ -101.4583333, 41.3333333 ], [ -101.5, 41.5416667 ] ] ], [ [ [ -109.5833333, 40.3333333 ], [ -109.5833333, 40.2916667 ], [ -109.5, 40.2916667 ], [ -109.5833333, 40.3333333 ] ] ], [ [ [ -113.2916667, 40.25 ], [ -113.0416667, 40.3333333 ], [ -112.9166667, 40.7083333 ], [ -112.7916667, 40.4583333 ], [ -112.6666667, 40.6666667 ], [ -112.4583333, 40.4583333 ], [ -112.25, 40.5416667 ], [ -112.375, 40.7083333 ], [ -112.5416667, 40.9583333 ], [ -112.7083333, 41.0416667 ], [ -112.7083333, 41.2083333 ], [ -112.3333333, 41.1666667 ], [ -112.25, 41.0833333 ], [ -112.2083333, 40.7083333 ], [ -112.0, 40.5 ], [ -111.7916667, 40.5416667 ], [ -112.0, 41.5416667 ], [ -112.1666667, 41.6666667 ], [ -112.5, 41.7083333 ], [ -112.875, 41.9166667 ], [ -112.9583333, 41.5 ], [ -113.125, 41.375 ], [ -113.3333333, 41.4583333 ], [ -113.5833333, 41.375 ], [ -113.625, 41.125 ], [ -113.9583333, 41.1666667 ], [ -114.0416667, 40.75 ], [ -113.875, 40.625 ], [ -113.75, 40.5416667 ], [ -113.5, 40.625 ], [ -113.4166667, 40.6666667 ], [ -113.3333333, 40.4166667 ], [ -113.375, 40.4166667 ], [ -113.3333333, 40.2083333 ], [ -113.2083333, 40.2083333 ], [ -113.2916667, 40.25 ] ] ], [ [ [ -102.9583333, 37.8333333 ], [ -102.75, 37.75 ], [ -102.9166667, 37.8333333 ], [ -102.9583333, 37.8333333 ] ] ], [ [ [ -109.5, 40.2916667 ], [ -109.5416667, 40.0416667 ], [ -110.0833333, 40.0 ], [ -110.2083333, 39.875 ], [ -110.1666667, 39.5 ], [ -110.2916667, 39.2916667 ], [ -110.2916667, 39.0833333 ], [ -110.0833333, 39.0833333 ], [ -109.9583333, 38.8333333 ], [ -110.125, 38.6666667 ], [ -110.25, 38.2916667 ], [ -110.4166667, 38.2916667 ], [ -110.625, 37.9583333 ], [ -110.7916667, 37.8333333 ], [ -110.875, 37.875 ], [ -110.9583333, 37.6666667 ], [ -111.2083333, 37.6666667 ], [ -111.2083333, 37.2916667 ], [ -111.5416667, 37.1666667 ], [ -111.625, 36.8333333 ], [ -111.25, 36.875 ], [ -111.0416667, 36.7916667 ], [ -110.75, 37.0 ], [ -110.4166667, 37.0 ], [ -110.375, 37.125 ], [ -110.0833333, 37.3333333 ], [ -110.25, 37.5 ], [ -110.2083333, 37.75 ], [ -110.0, 38.0416667 ], [ -109.8333333, 38.0833333 ], [ -109.75, 38.2916667 ], [ -109.5416667, 38.4166667 ], [ -109.25, 38.625 ], [ -108.875, 38.625 ], [ -108.875, 38.7916667 ], [ -108.5416667, 38.875 ], [ -108.2083333, 38.5416667 ], [ -107.9166667, 38.5833333 ], [ -107.75, 38.75 ], [ -107.875, 38.875 ], [ -108.2083333, 38.8333333 ], [ -108.2916667, 39.1666667 ], [ -108.7916667, 39.4583333 ], [ -109.125, 39.4583333 ], [ -109.0, 39.6666667 ], [ -109.0416667, 39.875 ], [ -109.2916667, 40.0 ], [ -109.5, 40.2916667 ] ], [ [ -109.5416667, 38.4166667 ], [ -109.75, 38.4583333 ], [ -109.3333333, 38.875 ], [ -109.7083333, 38.9583333 ], [ -109.1666667, 39.2916667 ], [ -109.2083333, 38.875 ], [ -109.4583333, 38.625 ], [ -109.4583333, 38.5 ], [ -109.5416667, 38.4166667 ] ] ], [ [ [ -92.375, 36.2916667 ], [ -92.5833333, 36.4583333 ], [ -92.625, 36.625 ], [ -92.8333333, 36.625 ], [ -92.9166667, 36.7916667 ], [ -93.5, 36.6666667 ], [ -93.6666667, 36.5416667 ], [ -93.5416667, 36.5 ], [ -93.1666667, 36.5416667 ], [ -93.0, 36.375 ], [ -92.625, 36.375 ], [ -92.625, 36.25 ], [ -92.2916667, 36.1666667 ], [ -91.9166667, 35.9166667 ], [ -91.8333333, 36.0416667 ], [ -91.4583333, 36.0 ], [ -91.2916667, 36.25 ], [ -91.4583333, 36.375 ], [ -91.5833333, 36.625 ], [ -91.7916667, 36.5 ], [ -92.2083333, 36.5416667 ], [ -92.375, 36.2916667 ] ] ], [ [ [ -95.8333333, 35.0833333 ], [ -95.9166667, 35.2083333 ], [ -95.9166667, 35.0416667 ], [ -95.8333333, 35.0833333 ] ] ], [ [ [ -93.2916667, 35.3333333 ], [ -93.1666667, 35.0416667 ], [ -92.75, 35.2916667 ], [ -93.0833333, 35.4166667 ], [ -93.2916667, 35.3333333 ] ] ], [ [ [ -93.75, 35.5 ], [ -94.0833333, 35.5833333 ], [ -94.4583333, 35.5 ], [ -95.0833333, 35.5 ], [ -95.2083333, 35.375 ], [ -95.2083333, 35.2083333 ], [ -95.375, 35.0833333 ], [ -95.2916667, 34.8333333 ], [ -94.7083333, 34.8333333 ], [ -94.4166667, 35.0 ], [ -94.0833333, 34.8333333 ], [ -94.0, 35.0416667 ], [ -93.75, 35.125 ], [ -93.7916667, 35.2916667 ], [ -93.2916667, 35.3333333 ], [ -93.375, 35.5 ], [ -93.75, 35.5 ] ] ], [ [ [ -95.5, 34.5 ], [ -95.5416667, 34.4583333 ], [ -95.5, 34.4583333 ], [ -95.5, 34.5 ] ] ], [ [ [ -98.0833333, 31.0416667 ], [ -98.125, 31.0 ], [ -98.0833333, 31.0 ], [ -98.0833333, 31.0416667 ] ] ], [ [ [ -98.2916667, 31.0416667 ], [ -98.2916667, 31.0 ], [ -98.25, 30.9583333 ], [ -98.2916667, 31.0416667 ] ] ], [ [ [ -98.4583333, 30.9583333 ], [ -98.5416667, 30.9166667 ], [ -98.5, 30.9166667 ], [ -98.4583333, 30.9583333 ] ] ], [ [ [ -98.4583333, 30.9583333 ], [ -98.4583333, 30.9166667 ], [ -98.4166667, 30.9166667 ], [ -98.4583333, 30.9583333 ] ] ], [ [ [ -98.5, 30.9166667 ], [ -98.5, 30.875 ], [ -98.4583333, 30.9166667 ], [ -98.5, 30.9166667 ] ] ], [ [ [ -98.4166667, 30.7083333 ], [ -98.375, 30.6666667 ], [ -98.375, 30.7083333 ], [ -98.4166667, 30.7083333 ] ] ], [ [ [ -98.375, 30.6666667 ], [ -98.375, 30.625 ], [ -98.3333333, 30.5833333 ], [ -98.2916667, 30.5833333 ], [ -98.25, 30.625 ], [ -98.25, 30.6666667 ], [ -98.375, 30.6666667 ] ] ], [ [ [ -98.4583333, 30.625 ], [ -98.4166667, 30.5833333 ], [ -98.4166667, 30.625 ], [ -98.4583333, 30.625 ] ] ], [ [ [ -98.875, 30.5416667 ], [ -98.9166667, 30.5 ], [ -98.875, 30.5 ], [ -98.875, 30.5416667 ] ] ], [ [ [ -100.6666667, 29.5833333 ], [ -101.0, 29.625 ], [ -101.0, 29.5833333 ], [ -100.9583333, 29.5833333 ], [ -100.6666667, 29.5833333 ] ] ], [ [ [ -99.5, 29.375 ], [ -99.5833333, 29.2916667 ], [ -99.5416667, 29.2916667 ], [ -99.4583333, 29.3333333 ], [ -99.5, 29.375 ] ] ], [ [ [ -99.7083333, 29.25 ], [ -99.8333333, 29.2083333 ], [ -99.7916667, 29.2083333 ], [ -99.7083333, 29.25 ] ] ], [ [ [ -91.5833333, 49.625 ], [ -91.875, 49.8333333 ], [ -91.7916667, 50.0416667 ], [ -92.0833333, 50.0833333 ], [ -92.25, 50.3333333 ], [ -92.625, 50.375 ], [ -92.9166667, 50.5833333 ], [ -93.1666667, 50.5416667 ], [ -93.4583333, 50.5416667 ], [ -93.75, 50.375 ], [ -94.0, 50.4166667 ], [ -94.4166667, 50.375 ], [ -94.5833333, 50.2916667 ], [ -94.75, 50.3333333 ], [ -94.8333333, 49.9583333 ], [ -95.0, 49.4583333 ], [ -94.9583333, 49.2083333 ], [ -95.2916667, 49.2083333 ], [ -95.2916667, 49.0 ], [ -95.5, 48.875 ], [ -95.8333333, 48.9166667 ], [ -95.7916667, 49.375 ], [ -96.125, 49.7083333 ], [ -96.0833333, 49.9583333 ], [ -96.125, 50.0 ], [ -96.0833333, 50.0 ], [ -96.125, 50.0416667 ], [ -96.5, 50.0833333 ], [ -96.5416667, 50.2916667 ], [ -96.625, 50.375 ], [ -96.9583333, 50.4166667 ], [ -97.0, 50.25 ], [ -97.4583333, 50.1666667 ], [ -97.5, 50.375 ], [ -97.75, 50.375 ], [ -98.0, 50.5416667 ], [ -97.9166667, 50.2916667 ], [ -98.2083333, 50.1666667 ], [ -98.3333333, 50.0 ], [ -98.7083333, 50.1666667 ], [ -98.9583333, 50.125 ], [ -99.0416667, 49.9583333 ], [ -99.2916667, 49.7916667 ], [ -99.7916667, 49.875 ], [ -99.7916667, 49.5416667 ], [ -99.9583333, 49.4583333 ], [ -99.75, 49.25 ], [ -99.7916667, 49.125 ], [ -99.3333333, 49.0416667 ], [ -99.375, 49.0833333 ], [ -99.5416667, 49.2083333 ], [ -99.2916667, 49.375 ], [ -99.0833333, 48.875 ], [ -99.2083333, 48.8333333 ], [ -99.4166667, 48.5 ], [ -99.6666667, 48.5 ], [ -99.9166667, 48.625 ], [ -100.4166667, 48.5 ], [ -100.8333333, 48.5 ], [ -101.125, 48.625 ], [ -101.4583333, 48.625 ], [ -101.5416667, 48.5 ], [ -101.625, 48.3333333 ], [ -101.7916667, 48.0 ], [ -101.75, 47.9583333 ], [ -101.75, 48.0 ], [ -101.7083333, 47.9583333 ], [ -101.5, 47.7916667 ], [ -102.0, 47.7916667 ], [ -101.875, 47.9166667 ], [ -101.9166667, 48.0833333 ], [ -102.7083333, 48.0833333 ], [ -102.8333333, 48.1666667 ], [ -103.4583333, 48.2083333 ], [ -103.3333333, 48.4583333 ], [ -103.5833333, 48.5 ], [ -103.9583333, 48.2083333 ], [ -104.6666667, 48.2083333 ], [ -104.6666667, 48.25 ], [ -105.0, 48.1666667 ], [ -105.0, 48.5 ], [ -105.375, 48.625 ], [ -105.4166667, 48.4166667 ], [ -105.6666667, 48.2083333 ], [ -105.75, 48.2916667 ], [ -105.7916667, 48.2916667 ], [ -105.8333333, 48.2916667 ], [ -105.75, 48.0 ], [ -106.0833333, 47.9166667 ], [ -106.0416667, 47.8333333 ], [ -105.9166667, 47.6666667 ], [ -105.625, 47.7083333 ], [ -105.4583333, 47.5 ], [ -105.5, 47.5 ], [ -105.5416667, 47.3333333 ], [ -105.0, 47.5416667 ], [ -105.0, 46.375 ], [ -104.5, 46.125 ], [ -104.4583333, 46.0416667 ], [ -104.9583333, 46.0416667 ], [ -104.9583333, 45.75 ], [ -104.625, 45.5833333 ], [ -104.0416667, 45.5833333 ], [ -104.0, 45.7916667 ], [ -103.6666667, 45.875 ], [ -103.6666667, 46.0416667 ], [ -103.7916667, 46.375 ], [ -103.5416667, 46.375 ], [ -103.5, 46.4166667 ], [ -103.5, 46.7083333 ], [ -103.2916667, 46.75 ], [ -103.2916667, 47.0833333 ], [ -102.9166667, 47.125 ], [ -102.625, 47.0 ], [ -102.6666667, 46.8333333 ], [ -102.5, 46.75 ], [ -102.0, 46.2916667 ], [ -102.1666667, 46.1666667 ], [ -102.2083333, 46.1666667 ], [ -102.4583333, 46.0833333 ], [ -102.625, 45.875 ], [ -102.4583333, 45.6666667 ], [ -102.2916667, 45.375 ], [ -102.5, 45.1666667 ], [ -102.2083333, 44.875 ], [ -102.2083333, 44.7083333 ], [ -102.1666667, 44.375 ], [ -101.9583333, 44.3333333 ], [ -101.875, 44.0416667 ], [ -102.125, 43.9166667 ], [ -102.0416667, 43.5416667 ], [ -101.375, 43.5 ], [ -101.25, 43.375 ], [ -101.0833333, 43.2916667 ], [ -101.2083333, 42.75 ], [ -101.125, 42.7083333 ], [ -101.2083333, 42.625 ], [ -101.1666667, 42.5 ], [ -100.7916667, 42.5416667 ], [ -100.4583333, 42.5 ], [ -100.25, 42.3333333 ], [ -100.2083333, 42.1666667 ], [ -99.9583333, 41.6666667 ], [ -99.75, 41.5416667 ], [ -99.9166667, 41.3333333 ], [ -99.9583333, 41.0833333 ], [ -99.7083333, 40.8333333 ], [ -99.7916667, 40.75 ], [ -100.1666667, 40.875 ], [ -100.375, 40.8333333 ], [ -100.0416667, 40.5833333 ], [ -100.1666667, 40.375 ], [ -100.2083333, 40.375 ], [ -100.6666667, 40.3333333 ], [ -100.7916667, 40.4583333 ], [ -100.875, 40.5833333 ], [ -101.3333333, 40.5833333 ], [ -101.5416667, 40.5 ], [ -101.3333333, 40.2916667 ], [ -101.4166667, 40.125 ], [ -101.625, 40.0416667 ], [ -101.7083333, 39.875 ], [ -102.0, 39.9583333 ], [ -102.0, 39.5833333 ], [ -102.2083333, 39.5833333 ], [ -102.125, 39.25 ], [ -101.8333333, 39.25 ], [ -102.2083333, 39.0416667 ], [ -102.0, 38.875 ], [ -101.6666667, 38.8333333 ], [ -101.4583333, 38.6666667 ], [ -101.6666667, 38.7083333 ], [ -101.7083333, 38.1666667 ], [ -101.625, 38.0833333 ], [ -101.8333333, 37.875 ], [ -101.5833333, 37.5833333 ], [ -101.9583333, 37.6666667 ], [ -102.25, 37.9583333 ], [ -102.5833333, 37.875 ], [ -102.75, 37.75 ], [ -102.5, 37.75 ], [ -102.2083333, 37.6666667 ], [ -102.375, 37.4583333 ], [ -102.5, 37.4166667 ], [ -102.4583333, 37.2916667 ], [ -102.375, 37.2916667 ], [ -102.4583333, 37.0416667 ], [ -102.7083333, 36.875 ], [ -102.4166667, 36.75 ], [ -102.5, 36.4166667 ], [ -102.4166667, 36.125 ], [ -102.2083333, 36.25 ], [ -101.9583333, 36.0416667 ], [ -102.2083333, 35.75 ], [ -102.4583333, 35.7916667 ], [ -102.9583333, 35.5833333 ], [ -103.0833333, 35.4583333 ], [ -103.375, 35.375 ], [ -103.7083333, 35.4583333 ], [ -104.0833333, 35.375 ], [ -104.0, 34.875 ], [ -103.0416667, 34.875 ], [ -102.7916667, 35.2083333 ], [ -102.3333333, 35.25 ], [ -102.1666667, 34.5 ], [ -102.0, 34.4583333 ], [ -102.125, 34.0833333 ], [ -102.25, 33.9166667 ], [ -102.3333333, 33.7083333 ], [ -102.2916667, 33.4583333 ], [ -102.2916667, 32.9583333 ], [ -102.4166667, 32.7083333 ], [ -102.6666667, 32.75 ], [ -102.7916667, 32.5 ], [ -102.9583333, 32.3333333 ], [ -102.75, 32.2083333 ], [ -102.75, 31.875 ], [ -102.4583333, 31.75 ], [ -102.3333333, 31.75 ], [ -102.25, 31.5833333 ], [ -102.2916667, 31.4166667 ], [ -102.4583333, 31.375 ], [ -102.3333333, 31.0833333 ], [ -101.75, 30.7083333 ], [ -101.3333333, 30.75 ], [ -101.2083333, 30.9583333 ], [ -101.0833333, 30.875 ], [ -101.25, 30.5416667 ], [ -101.5, 30.3333333 ], [ -101.5833333, 30.1666667 ], [ -101.625, 29.8333333 ], [ -101.5833333, 29.4166667 ], [ -101.2916667, 29.2083333 ], [ -101.375, 29.0833333 ], [ -101.2916667, 29.0 ], [ -101.25, 29.0 ], [ -101.25, 28.9583333 ], [ -101.2083333, 28.9583333 ], [ -101.2083333, 29.0 ], [ -101.1666667, 28.9583333 ], [ -101.0, 28.9583333 ], [ -101.0, 28.8333333 ], [ -100.9583333, 28.875 ], [ -100.9166667, 28.9166667 ], [ -100.875, 28.9583333 ], [ -100.9166667, 28.9583333 ], [ -101.0416667, 29.2083333 ], [ -101.0416667, 29.25 ], [ -101.0833333, 29.375 ], [ -101.1666667, 29.4166667 ], [ -101.25, 29.625 ], [ -101.1666667, 29.5833333 ], [ -101.1666667, 29.5416667 ], [ -101.125, 29.5416667 ], [ -101.125, 29.5833333 ], [ -101.0833333, 29.5833333 ], [ -101.125, 29.7083333 ], [ -100.9583333, 29.7083333 ], [ -100.7916667, 29.9583333 ], [ -100.5, 30.0833333 ], [ -100.375, 30.0416667 ], [ -100.2083333, 30.0833333 ], [ -100.1666667, 30.0833333 ], [ -99.875, 30.0833333 ], [ -99.625, 30.0833333 ], [ -99.5833333, 30.0833333 ], [ -99.5416667, 30.125 ], [ -99.5416667, 30.0833333 ], [ -99.375, 30.1666667 ], [ -99.25, 30.25 ], [ -99.1666667, 30.2916667 ], [ -99.2083333, 30.2916667 ], [ -99.0, 30.5 ], [ -99.0, 30.5416667 ], [ -98.875, 30.5416667 ], [ -98.7916667, 30.5416667 ], [ -98.7916667, 30.4583333 ], [ -98.5833333, 30.6666667 ], [ -98.5833333, 30.7083333 ], [ -98.4583333, 30.625 ], [ -98.4166667, 30.7083333 ], [ -98.4166667, 30.75 ], [ -98.4583333, 30.75 ], [ -98.4583333, 30.7916667 ], [ -98.5, 30.7916667 ], [ -98.5, 30.875 ], [ -98.5416667, 30.9166667 ], [ -98.8333333, 30.9583333 ], [ -98.7916667, 31.1666667 ], [ -98.625, 31.2083333 ], [ -98.7083333, 31.4166667 ], [ -98.75, 31.8333333 ], [ -98.6666667, 31.9166667 ], [ -98.2916667, 31.625 ], [ -97.9166667, 31.5833333 ], [ -97.8333333, 31.7083333 ], [ -97.3333333, 31.6666667 ], [ -96.9583333, 31.875 ], [ -96.75, 32.0 ], [ -96.7083333, 32.2916667 ], [ -96.9583333, 32.1666667 ], [ -97.0833333, 31.9166667 ], [ -97.0416667, 32.25 ], [ -97.0833333, 32.5 ], [ -97.2916667, 32.6666667 ], [ -97.25, 33.125 ], [ -97.125, 33.375 ], [ -97.0416667, 33.75 ], [ -97.125, 34.125 ], [ -97.0, 34.3333333 ], [ -96.875, 34.7083333 ], [ -96.7083333, 34.7083333 ], [ -96.5, 34.4583333 ], [ -96.5416667, 34.25 ], [ -96.3333333, 33.9166667 ], [ -96.1666667, 33.9166667 ], [ -96.0833333, 34.0833333 ], [ -95.9166667, 34.0833333 ], [ -95.7083333, 33.875 ], [ -95.125, 33.9166667 ], [ -94.875, 33.8333333 ], [ -94.7083333, 34.0 ], [ -95.0416667, 34.125 ], [ -95.1666667, 34.2916667 ], [ -95.125, 34.0416667 ], [ -95.3333333, 34.0416667 ], [ -95.2916667, 34.2916667 ], [ -95.5, 34.4583333 ], [ -95.5416667, 34.3333333 ], [ -95.8333333, 34.2916667 ], [ -96.125, 34.4166667 ], [ -95.9583333, 34.7083333 ], [ -96.3333333, 34.8333333 ], [ -96.2083333, 35.1666667 ], [ -95.9166667, 35.2083333 ], [ -95.875, 35.4583333 ], [ -95.5416667, 35.4583333 ], [ -95.5416667, 35.625 ], [ -95.625, 35.9583333 ], [ -95.3333333, 36.25 ], [ -95.2083333, 36.2916667 ], [ -95.2083333, 36.5416667 ], [ -94.9583333, 36.625 ], [ -94.75, 36.7916667 ], [ -94.7916667, 36.9583333 ], [ -95.2083333, 36.875 ], [ -95.2916667, 36.4166667 ], [ -95.4166667, 36.25 ], [ -95.6666667, 36.5 ], [ -95.4583333, 36.5833333 ], [ -95.375, 36.625 ], [ -95.3333333, 36.9583333 ], [ -95.375, 37.25 ], [ -95.5, 37.5416667 ], [ -95.3333333, 37.5833333 ], [ -95.4166667, 37.7916667 ], [ -95.25, 37.9166667 ], [ -95.25, 38.125 ], [ -94.6666667, 38.125 ], [ -94.4166667, 38.1666667 ], [ -94.25, 38.5 ], [ -94.4166667, 38.6666667 ], [ -94.5, 38.625 ], [ -94.5, 38.4583333 ], [ -94.6666667, 38.375 ], [ -94.7916667, 38.6666667 ], [ -94.8333333, 38.6666667 ], [ -94.7083333, 38.8333333 ], [ -94.3333333, 38.8333333 ], [ -94.3333333, 38.9583333 ], [ -94.0, 39.0 ], [ -93.875, 39.2083333 ], [ -93.6666667, 39.2083333 ], [ -93.5, 39.3333333 ], [ -93.625, 39.4166667 ], [ -93.625, 39.625 ], [ -93.2916667, 39.7916667 ], [ -93.3333333, 40.3333333 ], [ -93.5833333, 40.5833333 ], [ -93.4583333, 40.8333333 ], [ -93.6666667, 40.875 ], [ -93.7916667, 40.7083333 ], [ -93.875, 40.7083333 ], [ -93.8333333, 40.5416667 ], [ -93.9583333, 40.4166667 ], [ -94.0, 40.4166667 ], [ -94.125, 40.4166667 ], [ -94.5, 40.7916667 ], [ -94.25, 40.9583333 ], [ -94.0416667, 41.0 ], [ -94.0416667, 41.1666667 ], [ -93.7916667, 41.25 ], [ -93.7083333, 41.3333333 ], [ -93.2916667, 41.3333333 ], [ -93.3333333, 41.6666667 ], [ -93.4166667, 41.7083333 ], [ -93.3333333, 41.7083333 ], [ -93.5, 41.875 ], [ -93.5416667, 42.0833333 ], [ -93.5416667, 42.375 ], [ -93.25, 42.375 ], [ -93.2083333, 42.375 ], [ -93.0, 42.375 ], [ -92.875, 42.5416667 ], [ -92.5, 42.6666667 ], [ -92.4583333, 42.9583333 ], [ -92.25, 42.9583333 ], [ -92.0416667, 43.2916667 ], [ -91.75, 43.25 ], [ -91.625, 43.3333333 ], [ -91.5416667, 43.7083333 ], [ -91.2083333, 43.6666667 ], [ -91.125, 43.9583333 ], [ -91.1666667, 44.125 ], [ -91.4166667, 44.375 ], [ -91.2916667, 44.4583333 ], [ -90.9583333, 44.5 ], [ -90.9583333, 44.75 ], [ -90.8333333, 44.9166667 ], [ -90.9166667, 45.0416667 ], [ -91.0416667, 45.1666667 ], [ -91.2916667, 45.2916667 ], [ -91.4166667, 45.4583333 ], [ -91.2916667, 45.5833333 ], [ -90.8333333, 45.5 ], [ -90.9583333, 45.7916667 ], [ -90.75, 45.9166667 ], [ -90.875, 46.2916667 ], [ -90.625, 46.3333333 ], [ -90.5416667, 46.375 ], [ -90.5833333, 46.375 ], [ -90.5, 46.4166667 ], [ -90.625, 46.4583333 ], [ -90.625, 46.625 ], [ -90.9166667, 46.75 ], [ -90.875, 46.75 ], [ -90.8333333, 46.9166667 ], [ -91.375, 46.75 ], [ -92.0416667, 46.6666667 ], [ -92.125, 46.8333333 ], [ -91.2916667, 47.2916667 ], [ -91.1666667, 47.4166667 ], [ -90.9166667, 47.5833333 ], [ -90.7083333, 47.6666667 ], [ -90.7083333, 47.7083333 ], [ -90.625, 47.7083333 ], [ -90.5833333, 47.75 ], [ -90.5833333, 47.7916667 ], [ -90.6666667, 47.7916667 ], [ -90.8333333, 47.75 ], [ -90.8333333, 47.8333333 ], [ -90.9166667, 47.7916667 ], [ -90.7916667, 48.0 ], [ -90.75, 48.0833333 ], [ -90.75, 48.0416667 ], [ -90.7083333, 48.0416667 ], [ -90.7083333, 48.0833333 ], [ -90.5416667, 48.0416667 ], [ -90.4583333, 48.0833333 ], [ -90.5, 48.2916667 ], [ -90.75, 48.2916667 ], [ -90.75, 48.5416667 ], [ -90.625, 48.5 ], [ -90.625, 48.4583333 ], [ -90.5416667, 48.4166667 ], [ -90.5, 48.5 ], [ -90.5, 48.625 ], [ -90.6666667, 48.625 ], [ -90.6666667, 48.875 ], [ -90.7916667, 48.75 ], [ -90.9583333, 48.75 ], [ -91.3333333, 48.9166667 ], [ -91.7083333, 49.3333333 ], [ -91.625, 49.4166667 ], [ -91.5833333, 49.625 ] ], [ [ -90.7083333, 48.625 ], [ -90.75, 48.5416667 ], [ -90.8333333, 48.5833333 ], [ -90.7083333, 48.625 ] ], [ [ -101.1666667, 29.375 ], [ -101.0833333, 29.375 ], [ -101.1666667, 29.3333333 ], [ -101.1666667, 29.375 ] ], [ [ -95.4583333, 48.8333333 ], [ -94.9166667, 48.875 ], [ -94.5, 48.625 ], [ -94.5416667, 48.375 ], [ -95.0833333, 48.2916667 ], [ -95.0833333, 48.125 ], [ -95.3333333, 48.0833333 ], [ -95.4583333, 48.2916667 ], [ -95.7916667, 48.5 ], [ -95.7916667, 48.625 ], [ -95.4583333, 48.8333333 ] ], [ [ -102.8333333, 48.1666667 ], [ -102.75, 47.9166667 ], [ -102.5, 47.6666667 ], [ -102.75, 47.5416667 ], [ -103.0416667, 47.875 ], [ -103.0416667, 48.0833333 ], [ -102.8333333, 48.1666667 ] ], [ [ -104.0, 47.0833333 ], [ -103.75, 46.6666667 ], [ -104.0833333, 46.7083333 ], [ -104.1666667, 46.9583333 ], [ -104.0, 47.0833333 ] ], [ [ -97.375, 35.5 ], [ -97.2083333, 35.5 ], [ -97.0416667, 35.25 ], [ -97.2916667, 35.25 ], [ -97.375, 35.5 ] ], [ [ -100.3333333, 30.625 ], [ -100.2083333, 30.6666667 ], [ -100.2083333, 30.5 ], [ -100.2083333, 30.4166667 ], [ -100.25, 30.4166667 ], [ -100.4166667, 30.25 ], [ -100.75, 30.125 ], [ -100.8333333, 30.0833333 ], [ -100.7916667, 30.1666667 ], [ -100.6666667, 30.375 ], [ -100.6666667, 30.4166667 ], [ -100.625, 30.4166667 ], [ -100.5833333, 30.4583333 ], [ -100.5833333, 30.4166667 ], [ -100.4166667, 30.5 ], [ -100.3333333, 30.5833333 ], [ -100.25, 30.5416667 ], [ -100.3333333, 30.625 ] ], [ [ -99.5416667, 30.4583333 ], [ -99.5, 30.5416667 ], [ -99.5, 30.4583333 ], [ -99.5416667, 30.4583333 ] ], [ [ -100.2083333, 30.4166667 ], [ -100.0416667, 30.4583333 ], [ -100.0416667, 30.375 ], [ -100.2083333, 30.4166667 ] ], [ [ -99.75, 30.4166667 ], [ -99.625, 30.4583333 ], [ -99.6666667, 30.3333333 ], [ -99.7083333, 30.2916667 ], [ -99.7083333, 30.3333333 ], [ -99.75, 30.375 ], [ -99.7916667, 30.4166667 ], [ -99.75, 30.4166667 ] ], [ [ -101.0416667, 29.8333333 ], [ -101.0, 29.7916667 ], [ -100.9583333, 29.7916667 ], [ -101.0416667, 29.75 ], [ -101.0416667, 29.8333333 ] ] ], [ [ [ -100.25, 30.5416667 ], [ -100.25, 30.5 ], [ -100.2083333, 30.5 ], [ -100.25, 30.5416667 ] ] ], [ [ [ -100.625, 30.4166667 ], [ -100.6666667, 30.375 ], [ -100.5833333, 30.4166667 ], [ -100.625, 30.4166667 ] ] ], [ [ [ -99.75, 30.4166667 ], [ -99.75, 30.375 ], [ -99.7083333, 30.375 ], [ -99.75, 30.4166667 ] ] ], [ [ [ -99.7083333, 30.375 ], [ -99.7083333, 30.3333333 ], [ -99.6666667, 30.3333333 ], [ -99.7083333, 30.375 ] ] ] ] } },
{ "type": "Feature", "properties": { "ID": 14 }, "geometry": { "type": "MultiPolygon", "coordinates": [ [ [ [ -86.25, 42.4166667 ], [ -86.2916667, 42.375 ], [ -86.2916667, 42.2916667 ], [ -86.3333333, 42.2916667 ], [ -86.4583333, 42.125 ], [ -86.1666667, 42.25 ], [ -86.25, 42.4166667 ] ] ], [ [ [ -77.5416667, 41.5833333 ], [ -77.7083333, 41.4583333 ], [ -77.5416667, 41.5416667 ], [ -77.5416667, 41.5833333 ] ] ], [ [ [ -76.1666667, 41.4583333 ], [ -76.5, 41.375 ], [ -76.25, 41.2916667 ], [ -76.1666667, 41.4583333 ] ] ], [ [ [ -75.625, 41.0 ], [ -75.4166667, 41.0416667 ], [ -75.5, 41.25 ], [ -75.625, 41.0 ] ] ], [ [ [ -97.375, 35.5 ], [ -97.2916667, 35.25 ], [ -97.0416667, 35.25 ], [ -97.2083333, 35.5 ], [ -97.375, 35.5 ] ] ], [ [ [ -83.3333333, 32.5833333 ], [ -83.3333333, 32.5416667 ], [ -83.2916667, 32.5416667 ], [ -83.3333333, 32.5833333 ] ] ], [ [ [ -83.375, 32.5416667 ], [ -83.375, 32.5 ], [ -83.3333333, 32.5416667 ], [ -83.375, 32.5416667 ] ] ], [ [ [ -85.0416667, 32.5833333 ], [ -85.0, 32.4583333 ], [ -84.9166667, 32.4583333 ], [ -84.9166667, 32.5833333 ], [ -85.0416667, 32.5833333 ] ] ], [ [ [ -83.5416667, 32.4166667 ], [ -83.5416667, 32.375 ], [ -83.5, 32.375 ], [ -83.5416667, 32.4166667 ] ] ], [ [ [ -94.5833333, 31.7916667 ], [ -94.5833333, 31.75 ], [ -94.5, 31.7916667 ], [ -94.5833333, 31.7916667 ] ] ], [ [ [ -94.5833333, 31.8333333 ], [ -94.625, 31.75 ], [ -94.5833333, 31.7916667 ], [ -94.5833333, 31.8333333 ] ] ], [ [ [ -95.9166667, 31.25 ], [ -95.9166667, 31.1666667 ], [ -95.875, 31.1666667 ], [ -95.9166667, 31.25 ] ] ], [ [ [ -95.875, 31.1666667 ], [ -95.875, 31.125 ], [ -95.8333333, 31.1666667 ], [ -95.875, 31.1666667 ] ] ], [ [ [ -95.9166667, 31.1666667 ], [ -96.0416667, 31.0833333 ], [ -95.875, 31.0416667 ], [ -95.875, 31.125 ], [ -95.9166667, 31.1666667 ] ] ], [ [ [ -95.75, 31.0833333 ], [ -95.875, 31.0416667 ], [ -95.875, 30.9583333 ], [ -95.75, 31.0833333 ] ] ], [ [ [ -98.4583333, 30.9583333 ], [ -98.5, 30.9166667 ], [ -98.4583333, 30.9166667 ], [ -98.4583333, 30.9583333 ] ] ], [ [ [ -98.5416667, 30.9166667 ], [ -98.5, 30.875 ], [ -98.5, 30.9166667 ], [ -98.5416667, 30.9166667 ] ] ], [ [ [ -98.4583333, 30.9166667 ], [ -98.5, 30.875 ], [ -98.5, 30.7916667 ], [ -98.4166667, 30.7916667 ], [ -98.4166667, 30.9166667 ], [ -98.4583333, 30.9166667 ] ] ], [ [ [ -88.7083333, 45.8333333 ], [ -88.9583333, 46.0 ], [ -89.4583333, 46.0 ], [ -89.625, 46.2916667 ], [ -90.3333333, 46.3333333 ], [ -90.3333333, 46.375 ], [ -90.5416667, 46.375 ], [ -90.625, 46.3333333 ], [ -90.875, 46.2916667 ], [ -90.75, 45.9166667 ], [ -90.9583333, 45.7916667 ], [ -90.8333333, 45.5 ], [ -91.2916667, 45.5833333 ], [ -91.4166667, 45.4583333 ], [ -91.2916667, 45.2916667 ], [ -91.0416667, 45.1666667 ], [ -90.9166667, 45.0416667 ], [ -90.8333333, 44.9166667 ], [ -90.9583333, 44.75 ], [ -90.9583333, 44.5 ], [ -91.2916667, 44.4583333 ], [ -91.4166667, 44.375 ], [ -91.1666667, 44.125 ], [ -91.125, 43.9583333 ], [ -91.2083333, 43.6666667 ], [ -91.5416667, 43.7083333 ], [ -91.625, 43.3333333 ], [ -91.75, 43.25 ], [ -92.0416667, 43.2916667 ], [ -92.25, 42.9583333 ], [ -92.4583333, 42.9583333 ], [ -92.5, 42.6666667 ], [ -92.875, 42.5416667 ], [ -93.0, 42.375 ], [ -93.2083333, 42.375 ], [ -93.25, 42.375 ], [ -93.5416667, 42.375 ], [ -93.5416667, 42.0833333 ], [ -93.5, 41.875 ], [ -93.3333333, 41.7083333 ], [ -93.4166667, 41.7083333 ], [ -93.3333333, 41.6666667 ], [ -93.2916667, 41.3333333 ], [ -93.7083333, 41.3333333 ], [ -93.7916667, 41.25 ], [ -94.0416667, 41.1666667 ], [ -94.0416667, 41.0 ], [ -94.25, 40.9583333 ], [ -94.5, 40.7916667 ], [ -94.125, 40.4166667 ], [ -94.0, 40.4166667 ], [ -93.9583333, 40.4166667 ], [ -93.8333333, 40.5416667 ], [ -93.875, 40.7083333 ], [ -93.7916667, 40.7083333 ], [ -93.6666667, 40.875 ], [ -93.4583333, 40.8333333 ], [ -93.5833333, 40.5833333 ], [ -93.3333333, 40.3333333 ], [ -93.2916667, 39.7916667 ], [ -93.625, 39.625 ], [ -93.625, 39.4166667 ], [ -93.5, 39.3333333 ], [ -93.6666667, 39.2083333 ], [ -93.875, 39.2083333 ], [ -94.0, 39.0 ], [ -94.3333333, 38.9583333 ], [ -94.3333333, 38.8333333 ], [ -94.7083333, 38.8333333 ], [ -94.8333333, 38.6666667 ], [ -94.7916667, 38.6666667 ], [ -94.6666667, 38.375 ], [ -94.5, 38.4583333 ], [ -94.5, 38.625 ], [ -94.4166667, 38.6666667 ], [ -94.25, 38.5 ], [ -94.4166667, 38.1666667 ], [ -94.6666667, 38.125 ], [ -95.25, 38.125 ], [ -95.25, 37.9166667 ], [ -95.4166667, 37.7916667 ], [ -95.3333333, 37.5833333 ], [ -95.5, 37.5416667 ], [ -95.375, 37.25 ], [ -95.3333333, 36.9583333 ], [ -95.375, 36.625 ], [ -95.4583333, 36.5833333 ], [ -95.6666667, 36.5 ], [ -95.4166667, 36.25 ], [ -95.2916667, 36.4166667 ], [ -95.2083333, 36.875 ], [ -94.7916667, 36.9583333 ], [ -94.75, 36.7916667 ], [ -94.9583333, 36.625 ], [ -95.2083333, 36.5416667 ], [ -95.2083333, 36.2916667 ], [ -95.3333333, 36.25 ], [ -95.625, 35.9583333 ], [ -95.5416667, 35.625 ], [ -95.5416667, 35.4583333 ], [ -95.875, 35.4583333 ], [ -95.9166667, 35.2083333 ], [ -96.2083333, 35.1666667 ], [ -96.3333333, 34.8333333 ], [ -95.9583333, 34.7083333 ], [ -96.125, 34.4166667 ], [ -95.8333333, 34.2916667 ], [ -95.5416667, 34.3333333 ], [ -95.5, 34.4583333 ], [ -95.2916667, 34.2916667 ], [ -95.3333333, 34.0416667 ], [ -95.125, 34.0416667 ], [ -95.1666667, 34.2916667 ], [ -95.0416667, 34.125 ], [ -94.7083333, 34.0 ], [ -94.875, 33.8333333 ], [ -95.125, 33.9166667 ], [ -95.7083333, 33.875 ], [ -95.9166667, 34.0833333 ], [ -96.0833333, 34.0833333 ], [ -96.1666667, 33.9166667 ], [ -96.3333333, 33.9166667 ], [ -96.5416667, 34.25 ], [ -96.5, 34.4583333 ], [ -96.7083333, 34.7083333 ], [ -96.875, 34.7083333 ], [ -97.0, 34.3333333 ], [ -97.125, 34.125 ], [ -97.0416667, 33.75 ], [ -97.125, 33.375 ], [ -97.25, 33.125 ], [ -97.2916667, 32.6666667 ], [ -97.0833333, 32.5 ], [ -97.0416667, 32.25 ], [ -97.0833333, 31.9166667 ], [ -96.9583333, 32.1666667 ], [ -96.7083333, 32.2916667 ], [ -96.75, 32.0 ], [ -96.9583333, 31.875 ], [ -97.3333333, 31.6666667 ], [ -97.8333333, 31.7083333 ], [ -97.9166667, 31.5833333 ], [ -98.2916667, 31.625 ], [ -98.6666667, 31.9166667 ], [ -98.75, 31.8333333 ], [ -98.7083333, 31.4166667 ], [ -98.625, 31.2083333 ], [ -98.7916667, 31.1666667 ], [ -98.8333333, 30.9583333 ], [ -98.5416667, 30.9166667 ], [ -98.4583333, 30.9583333 ], [ -98.4166667, 30.9166667 ], [ -98.2916667, 30.9583333 ], [ -98.25, 30.9583333 ], [ -98.0833333, 30.7916667 ], [ -98.0416667, 30.7916667 ], [ -98.0, 30.7916667 ], [ -97.9583333, 30.7916667 ], [ -97.7083333, 30.9583333 ], [ -97.6666667, 31.125 ], [ -97.625, 30.75 ], [ -97.5416667, 30.7916667 ], [ -97.4583333, 30.7083333 ], [ -97.4166667, 30.7916667 ], [ -97.125, 31.0 ], [ -97.0, 30.9583333 ], [ -96.8333333, 31.0416667 ], [ -96.7916667, 31.0416667 ], [ -96.5, 31.1666667 ], [ -96.25, 31.1666667 ], [ -96.1666667, 31.2916667 ], [ -95.9166667, 31.25 ], [ -95.7916667, 31.2083333 ], [ -95.75, 31.0833333 ], [ -95.6666667, 31.0 ], [ -95.5416667, 31.25 ], [ -95.625, 31.3333333 ], [ -95.6666667, 31.75 ], [ -95.5, 31.8333333 ], [ -94.9583333, 31.9166667 ], [ -94.9166667, 31.9166667 ], [ -94.875, 31.9166667 ], [ -94.8333333, 31.9166667 ], [ -94.75, 31.9583333 ], [ -94.7083333, 32.0416667 ], [ -94.5833333, 31.8333333 ], [ -94.5, 31.7916667 ], [ -94.375, 31.625 ], [ -94.2916667, 31.5833333 ], [ -94.3333333, 31.625 ], [ -94.2916667, 31.625 ], [ -94.2083333, 31.7083333 ], [ -94.0416667, 31.75 ], [ -93.8333333, 31.8333333 ], [ -93.5416667, 31.625 ], [ -93.5833333, 31.7083333 ], [ -93.6666667, 31.8333333 ], [ -93.3333333, 31.875 ], [ -93.3333333, 31.75 ], [ -93.0833333, 31.7916667 ], [ -92.9583333, 31.6666667 ], [ -93.0, 31.9166667 ], [ -92.75, 32.0 ], [ -92.625, 31.9166667 ], [ -92.2083333, 32.3333333 ], [ -92.0416667, 32.375 ], [ -91.9166667, 32.5833333 ], [ -91.9166667, 32.375 ], [ -91.6666667, 32.4583333 ], [ -91.2083333, 32.375 ], [ -91.1666667, 32.5416667 ], [ -91.2083333, 33.0416667 ], [ -91.0416667, 33.0 ], [ -91.0, 32.5833333 ], [ -90.8333333, 32.4583333 ], [ -90.75, 32.5833333 ], [ -90.4166667, 32.625 ], [ -90.7083333, 32.2916667 ], [ -90.5833333, 32.25 ], [ -90.25, 32.2916667 ], [ -90.125, 32.0833333 ], [ -89.7083333, 32.0416667 ], [ -89.6666667, 32.125 ], [ -89.0416667, 32.1666667 ], [ -88.9166667, 32.0 ], [ -88.6666667, 32.0416667 ], [ -88.5416667, 32.125 ], [ -88.2916667, 32.0833333 ], [ -88.2916667, 32.0416667 ], [ -88.25, 32.125 ], [ -88.0833333, 32.0416667 ], [ -87.875, 32.0833333 ], [ -87.375, 32.0416667 ], [ -87.375, 32.2083333 ], [ -87.1666667, 32.3333333 ], [ -87.125, 32.5833333 ], [ -86.9583333, 32.6666667 ], [ -86.7916667, 32.5833333 ], [ -86.0833333, 32.5416667 ], [ -86.0, 32.4166667 ], [ -85.625, 32.4583333 ], [ -85.5833333, 32.5416667 ], [ -85.625, 32.5833333 ], [ -85.6666667, 32.5833333 ], [ -85.6666667, 32.875 ], [ -85.5416667, 32.9583333 ], [ -85.375, 33.0833333 ], [ -85.2916667, 33.125 ], [ -85.2083333, 32.9166667 ], [ -84.9166667, 33.0833333 ], [ -84.625, 33.0416667 ], [ -84.4583333, 33.125 ], [ -84.0833333, 33.125 ], [ -83.8333333, 33.0 ], [ -83.8333333, 32.7083333 ], [ -83.75, 32.5 ], [ -83.6666667, 32.4166667 ], [ -83.625, 32.4166667 ], [ -83.5833333, 32.5833333 ], [ -83.375, 32.5416667 ], [ -83.3333333, 32.5833333 ], [ -83.125, 32.75 ], [ -82.9166667, 32.7083333 ], [ -82.9166667, 32.9166667 ], [ -82.5833333, 33.0833333 ], [ -82.625, 33.3333333 ], [ -82.4583333, 33.375 ], [ -82.375, 33.5 ], [ -82.3333333, 33.4583333 ], [ -82.3333333, 33.5 ], [ -82.0416667, 33.5833333 ], [ -82.0416667, 33.625 ], [ -81.7916667, 33.8333333 ], [ -81.6666667, 33.7083333 ], [ -81.8333333, 33.375 ], [ -82.2916667, 33.0833333 ], [ -82.6666667, 32.625 ], [ -82.6666667, 32.4166667 ], [ -81.8333333, 32.4583333 ], [ -81.4166667, 32.625 ], [ -80.8333333, 32.625 ], [ -80.5833333, 32.8333333 ], [ -80.5416667, 32.875 ], [ -80.5416667, 32.8333333 ], [ -80.3333333, 32.9583333 ], [ -80.0833333, 32.9583333 ], [ -80.0, 33.125 ], [ -79.4583333, 33.3333333 ], [ -79.2916667, 33.3333333 ], [ -78.9583333, 33.75 ], [ -78.6666667, 33.8333333 ], [ -78.5833333, 33.8333333 ], [ -78.5, 33.8333333 ], [ -78.375, 33.875 ], [ -78.125, 33.9583333 ], [ -77.8333333, 34.1666667 ], [ -77.7083333, 34.2916667 ], [ -77.7083333, 34.3333333 ], [ -77.6666667, 34.375 ], [ -77.5, 34.4583333 ], [ -77.2916667, 34.6666667 ], [ -77.25, 34.6666667 ], [ -77.125, 34.75 ], [ -77.0, 34.875 ], [ -76.7083333, 35.0 ], [ -76.5833333, 35.125 ], [ -76.5416667, 35.125 ], [ -76.4583333, 35.3333333 ], [ -76.2083333, 35.3333333 ], [ -76.0833333, 35.5416667 ], [ -76.0416667, 35.8333333 ], [ -76.0833333, 35.875 ], [ -76.0833333, 35.9166667 ], [ -76.125, 35.9166667 ], [ -76.1666667, 36.0 ], [ -76.125, 36.125 ], [ -76.0833333, 36.1666667 ], [ -76.125, 36.2916667 ], [ -76.125, 36.6666667 ], [ -76.5, 36.9166667 ], [ -76.625, 36.9583333 ], [ -76.6666667, 37.0 ], [ -76.6666667, 37.125 ], [ -76.875, 37.0 ], [ -77.1666667, 37.0 ], [ -77.2083333, 37.125 ], [ -77.4583333, 37.1666667 ], [ -77.5, 37.4166667 ], [ -77.6666667, 37.4166667 ], [ -77.6666667, 37.9583333 ], [ -77.75, 38.125 ], [ -77.75, 38.2083333 ], [ -77.8333333, 38.25 ], [ -77.9166667, 38.375 ], [ -78.0, 38.6666667 ], [ -77.9166667, 39.0416667 ], [ -78.2083333, 38.9166667 ], [ -78.3333333, 39.5833333 ], [ -78.375, 39.5 ], [ -78.375, 39.5833333 ], [ -78.4166667, 39.5 ], [ -78.6666667, 39.5416667 ], [ -78.5, 39.625 ], [ -78.4166667, 39.75 ], [ -78.375, 39.75 ], [ -78.1666667, 39.875 ], [ -77.9583333, 40.3333333 ], [ -78.2083333, 40.2916667 ], [ -78.1666667, 40.4166667 ], [ -78.1666667, 40.5416667 ], [ -78.2916667, 40.6666667 ], [ -77.8333333, 41.0416667 ], [ -78.0, 41.0416667 ], [ -78.4583333, 41.0 ], [ -77.9583333, 41.2916667 ], [ -77.875, 41.5416667 ], [ -77.75, 41.6666667 ], [ -77.9166667, 42.0 ], [ -78.25, 41.75 ], [ -78.5, 41.7916667 ], [ -78.6666667, 41.8333333 ], [ -78.7083333, 42.0833333 ], [ -78.9583333, 42.0 ], [ -79.0833333, 41.75 ], [ -79.2916667, 41.75 ], [ -79.7083333, 41.7916667 ], [ -79.6666667, 41.5416667 ], [ -79.4583333, 41.5 ], [ -79.4166667, 41.7083333 ], [ -79.3333333, 41.7083333 ], [ -79.4166667, 41.5416667 ], [ -79.3333333, 41.4583333 ], [ -79.5416667, 41.4583333 ], [ -79.625, 41.4166667 ], [ -79.7916667, 41.25 ], [ -80.2916667, 41.4166667 ], [ -80.2916667, 40.875 ], [ -80.0416667, 40.8333333 ], [ -79.7083333, 40.5416667 ], [ -79.6666667, 40.3333333 ], [ -79.8333333, 40.2083333 ], [ -80.2083333, 40.25 ], [ -80.25, 40.5833333 ], [ -80.5, 40.7916667 ], [ -80.5, 40.875 ], [ -80.75, 40.875 ], [ -80.9583333, 41.0 ], [ -81.0416667, 41.0416667 ], [ -81.0833333, 41.4166667 ], [ -81.3333333, 41.25 ], [ -81.4166667, 41.0416667 ], [ -81.7916667, 41.25 ], [ -82.1666667, 41.2083333 ], [ -82.4583333, 41.25 ], [ -83.0416667, 41.25 ], [ -83.25, 41.3333333 ], [ -83.5833333, 41.3333333 ], [ -83.8333333, 41.2083333 ], [ -84.6666667, 41.1666667 ], [ -84.5833333, 41.5 ], [ -84.2916667, 41.8333333 ], [ -84.2916667, 41.9583333 ], [ -84.5, 42.125 ], [ -84.75, 42.1666667 ], [ -85.125, 42.125 ], [ -85.2916667, 41.9583333 ], [ -85.5416667, 42.0416667 ], [ -85.625, 42.2083333 ], [ -86.0, 42.1666667 ], [ -86.0833333, 42.0416667 ], [ -86.4583333, 42.0 ], [ -86.75, 41.75 ], [ -87.0833333, 41.625 ], [ -87.4583333, 41.625 ], [ -87.625, 41.7916667 ], [ -87.8333333, 42.1666667 ], [ -87.875, 42.9166667 ], [ -88.0833333, 42.9166667 ], [ -88.125, 43.25 ], [ -88.6666667, 43.4583333 ], [ -88.7916667, 43.7916667 ], [ -88.9583333, 43.9166667 ], [ -88.9583333, 44.1666667 ], [ -88.75, 44.2083333 ], [ -88.5416667, 44.4583333 ], [ -88.2083333, 44.7083333 ], [ -88.0416667, 45.0 ], [ -88.1666667, 45.375 ], [ -88.5416667, 45.4166667 ], [ -88.6666667, 45.7083333 ], [ -88.7083333, 45.8333333 ] ], [ [ -98.25, 30.9583333 ], [ -98.2916667, 31.0 ], [ -98.2916667, 31.0416667 ], [ -98.25, 30.9583333 ] ], [ [ -78.0833333, 41.7083333 ], [ -77.9166667, 41.625 ], [ -77.875, 41.5416667 ], [ -78.0833333, 41.7083333 ] ], [ [ -79.8333333, 38.1666667 ], [ -79.875, 38.125 ], [ -80.0833333, 38.0 ], [ -80.25, 38.125 ], [ -80.625, 38.0 ], [ -80.6666667, 38.2083333 ], [ -80.5, 38.4166667 ], [ -80.375, 38.5416667 ], [ -80.3333333, 38.6666667 ], [ -80.0416667, 38.8333333 ], [ -79.9583333, 38.7083333 ], [ -79.7083333, 38.9166667 ], [ -79.5833333, 38.8333333 ], [ -79.5, 38.9166667 ], [ -79.5, 38.5 ], [ -79.625, 38.2916667 ], [ -79.6666667, 38.2083333 ], [ -79.7916667, 38.125 ], [ -79.8333333, 38.125 ], [ -79.8333333, 38.1666667 ] ], [ [ -84.4166667, 35.2916667 ], [ -84.25, 35.3333333 ], [ -83.7916667, 35.875 ], [ -83.7083333, 35.7916667 ], [ -83.3333333, 35.8333333 ], [ -83.2916667, 35.8333333 ], [ -82.875, 35.9166667 ], [ -82.7083333, 36.0833333 ], [ -82.5, 36.0833333 ], [ -82.0833333, 36.2916667 ], [ -82.0833333, 36.4166667 ], [ -81.9583333, 36.5833333 ], [ -81.375, 36.7916667 ], [ -81.25, 36.75 ], [ -81.1666667, 36.5833333 ], [ -80.875, 36.5833333 ], [ -80.7916667, 36.75 ], [ -80.4166667, 37.0833333 ], [ -80.125, 36.9583333 ], [ -80.3333333, 36.8333333 ], [ -80.3333333, 36.6666667 ], [ -80.9166667, 36.5416667 ], [ -81.0416667, 36.375 ], [ -81.0833333, 36.2083333 ], [ -81.0833333, 36.1666667 ], [ -81.0833333, 36.125 ], [ -81.25, 36.125 ], [ -81.375, 36.1666667 ], [ -81.4583333, 36.125 ], [ -81.5, 36.0833333 ], [ -81.75, 36.0 ], [ -81.7916667, 35.9583333 ], [ -82.0, 35.8333333 ], [ -82.2083333, 35.6666667 ], [ -82.1666667, 35.5416667 ], [ -82.2916667, 35.2916667 ], [ -82.6666667, 34.9583333 ], [ -82.9166667, 34.9583333 ], [ -83.125, 34.75 ], [ -83.375, 34.7083333 ], [ -83.375, 34.5833333 ], [ -83.75, 34.5416667 ], [ -84.1666667, 34.5833333 ], [ -84.2916667, 34.4583333 ], [ -84.3333333, 34.5 ], [ -84.4166667, 34.75 ], [ -84.6666667, 34.75 ], [ -84.6666667, 34.9583333 ], [ -84.4583333, 35.25 ], [ -84.4166667, 35.2916667 ] ], [ [ -93.5, 36.6666667 ], [ -92.9166667, 36.7916667 ], [ -92.8333333, 36.625 ], [ -92.625, 36.625 ], [ -92.5833333, 36.4583333 ], [ -92.375, 36.2916667 ], [ -92.2083333, 36.5416667 ], [ -91.7916667, 36.5 ], [ -91.5833333, 36.625 ], [ -91.4583333, 36.375 ], [ -91.2916667, 36.25 ], [ -91.4583333, 36.0 ], [ -91.8333333, 36.0416667 ], [ -91.9166667, 35.9166667 ], [ -92.2916667, 36.1666667 ], [ -92.625, 36.25 ], [ -92.625, 36.375 ], [ -93.0, 36.375 ], [ -93.1666667, 36.5416667 ], [ -93.5416667, 36.5 ], [ -93.6666667, 36.5416667 ], [ -93.5, 36.6666667 ] ], [ [ -85.0833333, 35.9166667 ], [ -84.7083333, 35.9583333 ], [ -84.9166667, 35.625 ], [ -85.2083333, 35.4583333 ], [ -85.0416667, 35.6666667 ], [ -85.125, 35.75 ], [ -85.4166667, 35.4583333 ], [ -85.5833333, 35.5833333 ], [ -85.125, 35.9166667 ], [ -85.0833333, 35.9166667 ] ], [ [ -81.125, 35.75 ], [ -80.75, 35.875 ], [ -80.6666667, 35.75 ], [ -81.0833333, 35.75 ], [ -81.125, 35.75 ] ], [ [ -95.2083333, 35.375 ], [ -95.0833333, 35.5 ], [ -94.4583333, 35.5 ], [ -94.0833333, 35.5833333 ], [ -93.75, 35.5 ], [ -93.375, 35.5 ], [ -93.2916667, 35.3333333 ], [ -93.7916667, 35.2916667 ], [ -93.75, 35.125 ], [ -94.0, 35.0416667 ], [ -94.0833333, 34.8333333 ], [ -94.4166667, 35.0 ], [ -94.7083333, 34.8333333 ], [ -95.2916667, 34.8333333 ], [ -95.375, 35.0833333 ], [ -95.2083333, 35.2083333 ], [ -95.2083333, 35.375 ] ], [ [ -93.2916667, 35.3333333 ], [ -93.0833333, 35.4166667 ], [ -92.75, 35.2916667 ], [ -93.1666667, 35.0416667 ], [ -93.2916667, 35.3333333 ] ], [ [ -95.9166667, 35.2083333 ], [ -95.8333333, 35.0833333 ], [ -95.9166667, 35.0416667 ], [ -95.9166667, 35.2083333 ] ], [ [ -95.5416667, 34.4583333 ], [ -95.5, 34.5 ], [ -95.5, 34.4583333 ], [ -95.5416667, 34.4583333 ] ], [ [ -85.2916667, 33.625 ], [ -85.2083333, 33.5833333 ], [ -85.2083333, 33.5416667 ], [ -85.2916667, 33.625 ] ], [ [ -85.4166667, 33.375 ], [ -85.2083333, 33.4166667 ], [ -85.25, 33.2916667 ], [ -85.25, 33.25 ], [ -85.25, 33.2083333 ], [ -85.4166667, 33.375 ] ], [ [ -86.0, 33.125 ], [ -85.9583333, 33.2083333 ], [ -85.8333333, 33.2083333 ], [ -85.7083333, 33.2083333 ], [ -85.625, 33.0833333 ], [ -85.6666667, 32.875 ], [ -85.75, 32.9166667 ], [ -85.7916667, 32.9583333 ], [ -85.9166667, 33.0416667 ], [ -85.9166667, 33.125 ], [ -86.0, 33.125 ] ], [ [ -95.625, 31.875 ], [ -95.5, 31.8333333 ], [ -95.625, 31.8333333 ], [ -95.6666667, 31.875 ], [ -95.625, 31.875 ] ], [ [ -98.125, 31.0 ], [ -98.0833333, 31.0416667 ], [ -98.0833333, 31.0 ], [ -98.125, 31.0 ] ] ], [ [ [ -79.6666667, 38.2916667 ], [ -79.7083333, 38.2083333 ], [ -79.6666667, 38.2083333 ], [ -79.6666667, 38.2916667 ] ] ], [ [ [ -79.7916667, 38.1666667 ], [ -79.7916667, 38.125 ], [ -79.75, 38.1666667 ], [ -79.7916667, 38.1666667 ] ] ], [ [ [ -98.4166667, 30.75 ], [ -98.4166667, 30.7083333 ], [ -98.375, 30.7083333 ], [ -98.375, 30.75 ], [ -98.4166667, 30.75 ] ] ], [ [ [ -98.4166667, 30.7083333 ], [ -98.4583333, 30.625 ], [ -98.375, 30.625 ], [ -98.375, 30.6666667 ], [ -98.4166667, 30.7083333 ] ] ], [ [ [ -98.375, 30.625 ], [ -98.375, 30.5833333 ], [ -98.3333333, 30.5833333 ], [ -98.375, 30.625 ] ] ], [ [ [ -98.25, 30.625 ], [ -98.2916667, 30.5833333 ], [ -98.25, 30.5833333 ], [ -98.25, 30.625 ] ] ], [ [ [ -100.2083333, 30.6666667 ], [ -100.3333333, 30.625 ], [ -100.25, 30.5416667 ], [ -100.2083333, 30.5 ], [ -100.2083333, 30.6666667 ] ] ], [ [ [ -98.5833333, 30.7083333 ], [ -98.5833333, 30.625 ], [ -98.5833333, 30.5 ], [ -98.5416667, 30.5 ], [ -98.5, 30.5 ], [ -98.4583333, 30.5 ], [ -98.4166667, 30.5416667 ], [ -98.4166667, 30.5833333 ], [ -98.4583333, 30.625 ], [ -98.5833333, 30.7083333 ] ] ], [ [ [ -98.875, 30.5416667 ], [ -99.0, 30.5416667 ], [ -99.0, 30.5 ], [ -98.9166667, 30.5 ], [ -98.875, 30.5416667 ] ] ], [ [ [ -98.875, 30.5416667 ], [ -98.875, 30.5 ], [ -98.7916667, 30.5 ], [ -98.7916667, 30.5416667 ], [ -98.875, 30.5416667 ] ] ], [ [ [ -99.5, 30.5416667 ], [ -99.5416667, 30.4583333 ], [ -99.5, 30.4583333 ], [ -99.5, 30.5416667 ] ] ], [ [ [ -100.5833333, 30.4583333 ], [ -100.625, 30.4166667 ], [ -100.5833333, 30.4166667 ], [ -100.5833333, 30.4583333 ] ] ], [ [ [ -100.6666667, 30.4166667 ], [ -100.6666667, 30.375 ], [ -100.625, 30.4166667 ], [ -100.6666667, 30.4166667 ] ] ], [ [ [ -99.7916667, 30.4166667 ], [ -99.75, 30.375 ], [ -99.75, 30.4166667 ], [ -99.7916667, 30.4166667 ] ] ], [ [ [ -99.625, 30.4583333 ], [ -99.75, 30.4166667 ], [ -99.7083333, 30.375 ], [ -99.6666667, 30.3333333 ], [ -99.625, 30.4583333 ] ] ], [ [ [ -100.0416667, 30.4583333 ], [ -100.2083333, 30.4166667 ], [ -100.0416667, 30.375 ], [ -100.0416667, 30.4583333 ] ] ], [ [ [ -99.75, 30.375 ], [ -99.7083333, 30.3333333 ], [ -99.7083333, 30.375 ], [ -99.75, 30.375 ] ] ], [ [ [ -99.7083333, 30.3333333 ], [ -99.7083333, 30.2916667 ], [ -99.6666667, 30.3333333 ], [ -99.7083333, 30.3333333 ] ] ], [ [ [ -100.75, 30.125 ], [ -100.4166667, 30.25 ], [ -100.25, 30.4166667 ], [ -100.2083333, 30.4166667 ], [ -100.2083333, 30.5 ], [ -100.25, 30.5 ], [ -100.25, 30.5416667 ], [ -100.3333333, 30.5833333 ], [ -100.4166667, 30.5 ], [ -100.5833333, 30.4166667 ], [ -100.6666667, 30.375 ], [ -100.7916667, 30.1666667 ], [ -100.8333333, 30.0833333 ], [ -100.75, 30.125 ] ] ], [ [ [ -101.0416667, 29.8333333 ], [ -101.0416667, 29.7916667 ], [ -101.0, 29.7916667 ], [ -101.0416667, 29.8333333 ] ] ], [ [ [ -101.125, 29.7083333 ], [ -101.0833333, 29.5833333 ], [ -101.0, 29.5833333 ], [ -101.0, 29.6666667 ], [ -101.0416667, 29.7083333 ], [ -101.125, 29.7083333 ] ] ], [ [ [ -101.125, 29.5833333 ], [ -101.125, 29.5416667 ], [ -101.0833333, 29.5416667 ], [ -101.0833333, 29.5833333 ], [ -101.125, 29.5833333 ] ] ], [ [ [ -101.1666667, 29.375 ], [ -101.1666667, 29.3333333 ], [ -101.0833333, 29.375 ], [ -101.1666667, 29.375 ] ] ] ] } },
{ "type": "Feature", "properties": { "ID": 15 }, "geometry": { "type": "MultiPolygon", "coordinates": [ [ [ [ -68.9166667, 43.8333333 ], [ -68.875, 43.7916667 ], [ -68.875, 43.8333333 ], [ -68.9166667, 43.8333333 ] ] ], [ [ [ -65.8333333, 43.6666667 ], [ -65.8333333, 43.625 ], [ -65.7916667, 43.625 ], [ -65.7916667, 43.6666667 ], [ -65.8333333, 43.6666667 ] ] ], [ [ [ -65.4583333, 43.5416667 ], [ -65.4583333, 43.4583333 ], [ -65.4166667, 43.5 ], [ -65.4166667, 43.5416667 ], [ -65.4583333, 43.5416667 ] ] ], [ [ [ -65.7916667, 43.625 ], [ -65.6666667, 43.4166667 ], [ -65.5, 43.4583333 ], [ -65.5, 43.5 ], [ -65.625, 43.5416667 ], [ -65.7916667, 43.625 ] ] ], [ [ [ -70.0416667, 41.875 ], [ -70.0416667, 41.75 ], [ -69.9583333, 41.6666667 ], [ -70.0416667, 41.875 ] ] ], [ [ [ -75.75, 37.3333333 ], [ -75.7916667, 37.2916667 ], [ -75.75, 37.2916667 ], [ -75.75, 37.3333333 ] ] ], [ [ [ -75.7916667, 37.2916667 ], [ -75.8333333, 37.25 ], [ -75.8333333, 37.2083333 ], [ -75.7916667, 37.2916667 ] ] ], [ [ [ -75.9166667, 36.6666667 ], [ -75.9583333, 36.5416667 ], [ -76.0, 36.1666667 ], [ -75.7916667, 36.1666667 ], [ -75.75, 36.1666667 ], [ -75.875, 36.6666667 ], [ -75.9166667, 36.6666667 ] ] ], [ [ [ -75.75, 36.1666667 ], [ -75.75, 36.0 ], [ -76.0833333, 35.9166667 ], [ -76.0833333, 35.875 ], [ -76.0416667, 35.8333333 ], [ -76.0833333, 35.5416667 ], [ -76.2083333, 35.3333333 ], [ -76.0, 35.375 ], [ -75.9166667, 35.5416667 ], [ -75.7083333, 35.5833333 ], [ -75.7083333, 35.875 ], [ -75.5, 35.6666667 ], [ -75.5, 35.375 ], [ -75.4583333, 35.75 ], [ -75.75, 36.1666667 ] ] ], [ [ [ -75.8333333, 35.1666667 ], [ -76.1666667, 35.0416667 ], [ -76.7083333, 35.0 ], [ -77.0, 34.875 ], [ -77.125, 34.75 ], [ -77.25, 34.6666667 ], [ -77.2916667, 34.6666667 ], [ -77.5, 34.4583333 ], [ -77.0, 34.6666667 ], [ -76.5833333, 34.6666667 ], [ -76.375, 34.7916667 ], [ -75.8333333, 35.1666667 ] ] ], [ [ [ -77.8333333, 34.1666667 ], [ -78.125, 33.9583333 ], [ -78.375, 33.875 ], [ -78.0416667, 33.875 ], [ -77.875, 33.9583333 ], [ -77.8333333, 34.1666667 ] ] ], [ [ [ -83.5416667, 32.4166667 ], [ -83.4166667, 32.4583333 ], [ -83.375, 32.5 ], [ -83.375, 32.5416667 ], [ -83.5833333, 32.5833333 ], [ -83.625, 32.4166667 ], [ -83.5833333, 32.4166667 ], [ -83.5416667, 32.375 ], [ -83.5416667, 32.4166667 ] ] ], [ [ [ -95.5, 31.8333333 ], [ -95.625, 31.875 ], [ -95.6666667, 31.875 ], [ -95.625, 31.8333333 ], [ -95.5, 31.8333333 ] ] ], [ [ [ -94.5, 31.7916667 ], [ -94.5833333, 31.8333333 ], [ -94.5833333, 31.7916667 ], [ -94.5, 31.7916667 ] ] ], [ [ [ -87.2083333, 31.8333333 ], [ -86.75, 31.7916667 ], [ -86.2916667, 31.7916667 ], [ -86.0416667, 31.9166667 ], [ -85.9166667, 32.0416667 ], [ -85.4583333, 32.2916667 ], [ -85.5, 32.4583333 ], [ -85.4166667, 32.5 ], [ -85.5833333, 32.5416667 ], [ -85.625, 32.4583333 ], [ -86.0, 32.4166667 ], [ -86.0833333, 32.5416667 ], [ -86.7916667, 32.5833333 ], [ -86.9583333, 32.6666667 ], [ -87.125, 32.5833333 ], [ -87.1666667, 32.3333333 ], [ -87.375, 32.2083333 ], [ -87.375, 32.0416667 ], [ -87.875, 32.0833333 ], [ -88.0833333, 32.0416667 ], [ -88.25, 32.125 ], [ -88.125, 31.875 ], [ -87.7083333, 31.9583333 ], [ -87.5, 31.7083333 ], [ -87.3333333, 31.75 ], [ -87.2083333, 31.8333333 ] ], [ [ -87.2916667, 31.7916667 ], [ -87.2916667, 31.8333333 ], [ -87.25, 31.8333333 ], [ -87.2916667, 31.7916667 ] ] ], [ [ [ -95.7916667, 31.2083333 ], [ -95.9166667, 31.25 ], [ -95.875, 31.1666667 ], [ -95.8333333, 31.1666667 ], [ -95.875, 31.125 ], [ -95.875, 31.0416667 ], [ -95.75, 31.0833333 ], [ -95.7916667, 31.2083333 ] ] ], [ [ [ -95.9166667, 31.1666667 ], [ -95.875, 31.125 ], [ -95.875, 31.1666667 ], [ -95.9166667, 31.1666667 ] ] ], [ [ [ -82.1666667, 31.0 ], [ -82.4166667, 30.9166667 ], [ -82.1666667, 30.7916667 ], [ -82.1666667, 31.0 ] ] ], [ [ [ -78.6666667, 33.8333333 ], [ -78.9583333, 33.75 ], [ -79.2916667, 33.3333333 ], [ -79.4583333, 33.3333333 ], [ -80.0, 33.125 ], [ -80.0833333, 32.9583333 ], [ -80.3333333, 32.9583333 ], [ -80.5416667, 32.8333333 ], [ -80.5416667, 32.875 ], [ -80.5833333, 32.8333333 ], [ -80.8333333, 32.625 ], [ -81.4166667, 32.625 ], [ -81.8333333, 32.4583333 ], [ -82.6666667, 32.4166667 ], [ -82.6666667, 32.2083333 ], [ -82.8333333, 32.2083333 ], [ -83.2916667, 31.9583333 ], [ -83.4166667, 31.75 ], [ -83.375, 31.25 ], [ -83.2083333, 31.1666667 ], [ -82.9583333, 31.375 ], [ -82.625, 31.2916667 ], [ -82.3333333, 31.2916667 ], [ -82.1666667, 31.0 ], [ -82.0833333, 30.9583333 ], [ -82.1666667, 30.7916667 ], [ -81.9583333, 30.75 ], [ -81.9166667, 30.5416667 ], [ -81.7083333, 30.25 ], [ -81.625, 30.0 ], [ -81.5833333, 30.25 ], [ -81.375, 30.25 ], [ -81.4166667, 30.5 ], [ -81.375, 31.125 ], [ -81.25, 31.2083333 ], [ -81.0833333, 31.7083333 ], [ -80.8333333, 31.9583333 ], [ -80.7916667, 32.125 ], [ -80.4166667, 32.3333333 ], [ -80.4166667, 32.4166667 ], [ -79.9583333, 32.625 ], [ -79.5833333, 33.0 ], [ -79.3333333, 33.0 ], [ -79.0416667, 33.4166667 ], [ -79.0, 33.5833333 ], [ -78.6666667, 33.8333333 ] ] ], [ [ [ -101.0416667, 29.7916667 ], [ -101.0416667, 29.75 ], [ -100.9583333, 29.7916667 ], [ -101.0416667, 29.7916667 ] ] ], [ [ [ -101.2916667, 29.0 ], [ -101.25, 28.9583333 ], [ -101.25, 29.0 ], [ -101.2916667, 29.0 ] ] ], [ [ [ -101.2083333, 29.0 ], [ -101.2083333, 28.9583333 ], [ -101.1666667, 28.9583333 ], [ -101.2083333, 29.0 ] ] ], [ [ [ -90.8333333, 32.4583333 ], [ -91.0, 32.5833333 ], [ -91.0416667, 33.0 ], [ -91.2083333, 33.0416667 ], [ -91.1666667, 32.5416667 ], [ -91.2083333, 32.375 ], [ -91.6666667, 32.4583333 ], [ -91.9166667, 32.375 ], [ -91.9166667, 32.5833333 ], [ -92.0416667, 32.375 ], [ -92.2083333, 32.3333333 ], [ -92.625, 31.9166667 ], [ -92.75, 32.0 ], [ -93.0, 31.9166667 ], [ -92.9583333, 31.6666667 ], [ -93.0833333, 31.7916667 ], [ -93.3333333, 31.75 ], [ -93.3333333, 31.875 ], [ -93.6666667, 31.8333333 ], [ -93.5833333, 31.7083333 ], [ -93.5416667, 31.625 ], [ -93.8333333, 31.8333333 ], [ -94.0416667, 31.75 ], [ -94.2083333, 31.7083333 ], [ -94.2916667, 31.625 ], [ -94.3333333, 31.625 ], [ -94.2916667, 31.5833333 ], [ -94.375, 31.625 ], [ -94.5, 31.7916667 ], [ -94.5833333, 31.75 ], [ -94.5833333, 31.7916667 ], [ -94.625, 31.75 ], [ -94.5833333, 31.8333333 ], [ -94.7083333, 32.0416667 ], [ -94.75, 31.9583333 ], [ -94.8333333, 31.9166667 ], [ -94.875, 31.9166667 ], [ -94.9166667, 31.9166667 ], [ -94.9583333, 31.9166667 ], [ -95.5, 31.8333333 ], [ -95.6666667, 31.75 ], [ -95.625, 31.3333333 ], [ -95.5416667, 31.25 ], [ -95.6666667, 31.0 ], [ -95.75, 31.0833333 ], [ -95.875, 30.9583333 ], [ -95.875, 31.0416667 ], [ -96.0416667, 31.0833333 ], [ -95.9166667, 31.1666667 ], [ -95.9166667, 31.25 ], [ -96.1666667, 31.2916667 ], [ -96.25, 31.1666667 ], [ -96.5, 31.1666667 ], [ -96.7916667, 31.0416667 ], [ -96.8333333, 31.0416667 ], [ -97.0, 30.9583333 ], [ -97.125, 31.0 ], [ -97.4166667, 30.7916667 ], [ -97.4583333, 30.7083333 ], [ -97.5416667, 30.7916667 ], [ -97.625, 30.75 ], [ -97.6666667, 31.125 ], [ -97.7083333, 30.9583333 ], [ -97.9583333, 30.7916667 ], [ -98.0833333, 30.7916667 ], [ -98.25, 30.9583333 ], [ -98.2916667, 30.9583333 ], [ -98.4166667, 30.9166667 ], [ -98.4166667, 30.7916667 ], [ -98.4583333, 30.7916667 ], [ -98.4583333, 30.75 ], [ -98.375, 30.75 ], [ -98.375, 30.6666667 ], [ -98.25, 30.6666667 ], [ -98.25, 30.5833333 ], [ -98.375, 30.5833333 ], [ -98.375, 30.625 ], [ -98.4166667, 30.625 ], [ -98.4166667, 30.5416667 ], [ -98.4583333, 30.5 ], [ -98.5833333, 30.5 ], [ -98.5833333, 30.625 ], [ -98.5833333, 30.6666667 ], [ -98.7916667, 30.4583333 ], [ -98.7916667, 30.5 ], [ -98.9583333, 30.5 ], [ -99.0, 30.5 ], [ -99.2083333, 30.2916667 ], [ -99.1666667, 30.2916667 ], [ -99.25, 30.25 ], [ -99.375, 30.1666667 ], [ -99.5416667, 30.0833333 ], [ -99.5416667, 30.125 ], [ -99.5833333, 30.0833333 ], [ -99.625, 30.0833333 ], [ -99.875, 30.0833333 ], [ -100.1666667, 30.0833333 ], [ -100.2083333, 30.0833333 ], [ -100.375, 30.0416667 ], [ -100.5, 30.0833333 ], [ -100.7916667, 29.9583333 ], [ -100.9583333, 29.7083333 ], [ -101.0416667, 29.7083333 ], [ -101.0, 29.6666667 ], [ -101.0, 29.625 ], [ -100.6666667, 29.5833333 ], [ -100.9583333, 29.5833333 ], [ -101.0833333, 29.5833333 ], [ -101.0833333, 29.5416667 ], [ -101.1666667, 29.5416667 ], [ -101.1666667, 29.5833333 ], [ -101.25, 29.625 ], [ -101.1666667, 29.4166667 ], [ -101.0833333, 29.375 ], [ -101.0416667, 29.25 ], [ -101.0416667, 29.2083333 ], [ -100.9166667, 28.9583333 ], [ -100.875, 28.9583333 ], [ -100.9166667, 28.9166667 ], [ -100.9583333, 28.875 ], [ -100.1666667, 28.3333333 ], [ -100.125, 28.125 ], [ -99.8333333, 27.875 ], [ -99.7916667, 27.5833333 ], [ -99.625, 27.25 ], [ -99.375, 27.1666667 ], [ -98.875, 27.25 ], [ -98.7916667, 27.4166667 ], [ -98.4583333, 27.2916667 ], [ -98.25, 26.9583333 ], [ -97.7916667, 27.0 ], [ -97.5833333, 26.75 ], [ -97.4166667, 26.75 ], [ -97.375, 26.5 ], [ -97.3333333, 26.4583333 ], [ -97.2916667, 26.4583333 ], [ -97.2916667, 26.75 ], [ -97.375, 26.9166667 ], [ -97.3333333, 27.3333333 ], [ -97.0, 27.9166667 ], [ -96.6666667, 28.2083333 ], [ -96.25, 28.4166667 ], [ -96.125, 28.5416667 ], [ -95.5, 28.8333333 ], [ -95.375, 28.8333333 ], [ -95.0, 29.1666667 ], [ -94.6666667, 29.2916667 ], [ -94.6666667, 29.4166667 ], [ -94.0833333, 29.6666667 ], [ -93.7916667, 29.6666667 ], [ -93.6666667, 29.75 ], [ -93.0833333, 29.75 ], [ -92.625, 29.5416667 ], [ -92.25, 29.5 ], [ -92.1666667, 29.5833333 ], [ -91.75, 29.4583333 ], [ -91.625, 29.7083333 ], [ -91.375, 29.4166667 ], [ -91.2916667, 29.375 ], [ -91.125, 29.2083333 ], [ -90.7083333, 29.0833333 ], [ -90.4583333, 29.2916667 ], [ -90.375, 29.1666667 ], [ -90.4583333, 29.0833333 ], [ -90.25, 29.0833333 ], [ -89.9166667, 29.2916667 ], [ -89.625, 29.2916667 ], [ -89.3333333, 29.125 ], [ -89.1666667, 29.0 ], [ -89.0416667, 29.0833333 ], [ -89.125, 29.3333333 ], [ -89.5, 29.4166667 ], [ -89.5416667, 29.625 ], [ -89.375, 29.7083333 ], [ -89.2083333, 29.875 ], [ -89.1666667, 30.0833333 ], [ -89.5, 30.0833333 ], [ -89.3333333, 30.2916667 ], [ -89.0416667, 30.375 ], [ -88.875, 30.3333333 ], [ -88.2916667, 30.3333333 ], [ -88.0833333, 30.20833330000001 ], [ -88.0833333, 30.5 ], [ -87.9583333, 30.5416667 ], [ -87.8333333, 30.25 ], [ -87.2083333, 30.3333333 ], [ -86.9166667, 30.375 ], [ -86.375, 30.375 ], [ -85.9583333, 30.25 ], [ -85.5833333, 30.0416667 ], [ -85.4166667, 29.875 ], [ -85.4166667, 29.6666667 ], [ -84.9166667, 29.5833333 ], [ -84.7083333, 29.75 ], [ -84.625, 29.7916667 ], [ -84.5416667, 30.0 ], [ -84.625, 29.9583333 ], [ -84.6666667, 29.9583333 ], [ -84.9166667, 30.0833333 ], [ -85.0416667, 30.25 ], [ -85.5, 30.3333333 ], [ -85.5, 30.9166667 ], [ -85.3333333, 30.875 ], [ -85.2916667, 31.25 ], [ -85.5416667, 31.4166667 ], [ -85.75, 31.2916667 ], [ -85.7916667, 31.0833333 ], [ -86.0416667, 31.125 ], [ -86.25, 30.9166667 ], [ -86.3333333, 30.9583333 ], [ -86.75, 31.0833333 ], [ -87.0833333, 31.0 ], [ -87.25, 31.125 ], [ -87.7083333, 31.1666667 ], [ -88.4166667, 31.1666667 ], [ -88.625, 31.2083333 ], [ -88.9583333, 31.0833333 ], [ -89.4166667, 30.7916667 ], [ -89.7916667, 30.6666667 ], [ -90.375, 30.6666667 ], [ -91.0, 30.8333333 ], [ -90.875, 31.0833333 ], [ -90.5416667, 31.2083333 ], [ -90.4583333, 31.1666667 ], [ -90.4166667, 31.2083333 ], [ -90.25, 31.1666667 ], [ -89.9166667, 31.2083333 ], [ -89.7083333, 31.125 ], [ -89.5833333, 31.3333333 ], [ -89.3333333, 31.1666667 ], [ -89.25, 31.5416667 ], [ -88.75, 31.875 ], [ -88.6666667, 32.0416667 ], [ -88.9166667, 32.0 ], [ -89.0416667, 32.1666667 ], [ -89.6666667, 32.125 ], [ -89.7083333, 32.0416667 ], [ -90.125, 32.0833333 ], [ -90.25, 32.2916667 ], [ -90.5833333, 32.25 ], [ -90.7083333, 32.2916667 ], [ -90.4166667, 32.625 ], [ -90.75, 32.5833333 ], [ -90.8333333, 32.4583333 ] ], [ [ -94.7083333, 29.5 ], [ -95.0, 29.5833333 ], [ -94.7916667, 29.75 ], [ -94.7083333, 29.5 ] ], [ [ -99.5833333, 29.2916667 ], [ -99.5, 29.375 ], [ -99.4583333, 29.3333333 ], [ -99.5416667, 29.2916667 ], [ -99.5833333, 29.2916667 ] ], [ [ -99.7916667, 29.2083333 ], [ -99.8333333, 29.2083333 ], [ -99.7083333, 29.25 ], [ -99.7916667, 29.2083333 ] ] ], [ [ [ -97.375, 26.4583333 ], [ -97.3333333, 26.375 ], [ -97.3333333, 26.4583333 ], [ -97.375, 26.4583333 ] ] ], [ [ [ -97.2916667, 26.4583333 ], [ -97.2916667, 26.375 ], [ -97.25, 26.375 ], [ -97.2916667, 26.4583333 ] ] ], [ [ [ -97.3333333, 26.375 ], [ -97.2916667, 26.2916667 ], [ -97.2916667, 26.375 ], [ -97.3333333, 26.375 ] ] ] ] } }
]
}
