{
"type": "FeatureCollection",
"name": "Lithospermum_canescens",
"crs": { "type": "name", "properties": { "name": "urn:ogc:def:crs:OGC:1.3:CRS84" } },
"features": [
{ "type": "Feature", "properties": { "ID": 1 }, "geometry": { "type": "MultiPolygon", "coordinates": [ [ [ [ -98.91667, 51.20833 ], [ -98.95833, 51.125 ], [ -98.875, 51.125 ], [ -98.91667, 51.20833 ] ] ], [ [ [ -95.375, 50.33333 ], [ -95.375, 50.41667 ], [ -95.45833, 50.45833 ], [ -95.66667, 50.66667 ], [ -95.75, 50.70833 ], [ -95.83333, 50.79167 ], [ -96.0, 50.875 ], [ -96.125, 50.875 ], [ -96.125, 50.91667 ], [ -96.25, 50.91667 ], [ -96.33333, 50.95833 ], [ -96.33333, 50.66667 ], [ -96.29167, 50.625 ], [ -96.5, 50.625 ], [ -96.58333, 50.66667 ], [ -96.58333, 50.5 ], [ -96.54167, 50.41667 ], [ -96.625, 50.375 ], [ -96.83333, 50.375 ], [ -96.91667, 50.29167 ], [ -96.91667, 50.25 ], [ -96.75, 50.25 ], [ -96.75, 50.29167 ], [ -96.54167, 50.29167 ], [ -96.45833, 50.375 ], [ -96.20833, 50.375 ], [ -96.20833, 50.33333 ], [ -95.95833, 50.33333 ], [ -95.875, 50.375 ], [ -95.79167, 50.375 ], [ -95.79167, 50.29167 ], [ -95.625, 50.33333 ], [ -95.375, 50.33333 ] ] ], [ [ [ -96.25, 50.29167 ], [ -96.25, 50.16667 ], [ -96.16667, 50.20833 ], [ -96.25, 50.29167 ] ] ], [ [ [ -99.79167, 52.20833 ], [ -99.79167, 52.125 ], [ -99.70833, 52.08333 ], [ -99.70833, 51.91667 ], [ -99.79167, 51.875 ], [ -99.79167, 51.79167 ], [ -99.70833, 51.79167 ], [ -99.70833, 51.875 ], [ -99.625, 51.875 ], [ -99.625, 51.70833 ], [ -99.5, 51.83333 ], [ -99.375, 51.83333 ], [ -99.25, 51.75 ], [ -99.20833, 51.83333 ], [ -99.125, 51.83333 ], [ -99.125, 51.75 ], [ -99.0, 51.70833 ], [ -98.875, 51.70833 ], [ -98.70833, 51.625 ], [ -98.75, 51.54167 ], [ -98.75, 51.33333 ], [ -98.54167, 51.33333 ], [ -98.54167, 51.16667 ], [ -98.625, 51.16667 ], [ -98.625, 51.08333 ], [ -98.70833, 51.04167 ], [ -98.70833, 50.91667 ], [ -98.45833, 50.91667 ], [ -98.375, 50.875 ], [ -98.33333, 50.79167 ], [ -98.25, 50.79167 ], [ -97.91667, 50.45833 ], [ -97.91667, 50.29167 ], [ -98.0, 50.29167 ], [ -98.0, 50.25 ], [ -98.16667, 50.16667 ], [ -98.16667, 50.125 ], [ -97.75, 50.125 ], [ -97.66667, 50.20833 ], [ -97.08333, 50.20833 ], [ -97.08333, 50.33333 ], [ -96.95833, 50.33333 ], [ -96.95833, 50.54167 ], [ -97.0, 50.54167 ], [ -97.0, 50.95833 ], [ -96.95833, 50.95833 ], [ -96.95833, 51.125 ], [ -97.0, 51.20833 ], [ -97.16667, 51.20833 ], [ -97.16667, 51.25 ], [ -97.33333, 51.25 ], [ -97.41667, 51.29167 ], [ -97.45833, 51.375 ], [ -97.54167, 51.375 ], [ -97.625, 51.41667 ], [ -97.66667, 51.5 ], [ -97.75, 51.5 ], [ -97.79167, 51.58333 ], [ -98.04167, 51.70833 ], [ -98.16667, 51.70833 ], [ -98.20833, 51.79167 ], [ -98.375, 51.79167 ], [ -98.375, 51.83333 ], [ -98.5, 51.875 ], [ -98.66667, 51.875 ], [ -98.66667, 51.91667 ], [ -99.16667, 52.08333 ], [ -99.375, 52.08333 ], [ -99.45833, 52.16667 ], [ -99.625, 52.16667 ], [ -99.625, 52.20833 ], [ -99.79167, 52.20833 ] ] ], [ [ [ -100.79167, 49.83333 ], [ -100.83333, 49.75 ], [ -100.75, 49.75 ], [ -100.79167, 49.83333 ] ] ], [ [ [ -100.20833, 49.75 ], [ -100.25, 49.66667 ], [ -100.16667, 49.66667 ], [ -100.20833, 49.75 ] ] ], [ [ [ -100.75, 49.70833 ], [ -100.75, 49.625 ], [ -100.625, 49.625 ], [ -100.625, 49.70833 ], [ -100.75, 49.70833 ] ] ], [ [ [ -100.16667, 49.66667 ], [ -100.08333, 49.58333 ], [ -99.875, 49.58333 ], [ -99.83333, 49.625 ], [ -99.83333, 49.79167 ], [ -99.91667, 49.79167 ], [ -100.0, 49.70833 ], [ -100.0, 49.66667 ], [ -100.16667, 49.66667 ] ] ], [ [ [ -98.66667, 50.5 ], [ -98.66667, 50.66667 ], [ -98.70833, 50.75 ], [ -98.79167, 50.83333 ], [ -98.875, 50.83333 ], [ -98.875, 50.95833 ], [ -98.95833, 50.95833 ], [ -99.04167, 51.04167 ], [ -99.04167, 51.16667 ], [ -99.125, 51.29167 ], [ -99.125, 51.5 ], [ -99.29167, 51.5 ], [ -99.29167, 51.58333 ], [ -99.33333, 51.625 ], [ -99.45833, 51.625 ], [ -99.45833, 51.5 ], [ -99.54167, 51.5 ], [ -99.58333, 51.58333 ], [ -99.83333, 51.58333 ], [ -99.95833, 51.70833 ], [ -100.08333, 51.70833 ], [ -100.16667, 51.875 ], [ -100.16667, 52.16667 ], [ -100.20833, 52.20833 ], [ -100.5, 52.20833 ], [ -100.5, 52.16667 ], [ -100.75, 52.16667 ], [ -100.875, 52.20833 ], [ -100.95833, 52.29167 ], [ -101.16667, 52.29167 ], [ -101.29167, 52.33333 ], [ -101.375, 52.41667 ], [ -101.625, 52.5 ], [ -101.79167, 52.5 ], [ -101.91667, 52.54167 ], [ -101.95833, 52.58333 ], [ -101.875, 52.66667 ], [ -101.875, 52.75 ], [ -101.95833, 52.75 ], [ -101.95833, 52.83333 ], [ -102.08333, 52.875 ], [ -102.29167, 52.875 ], [ -102.29167, 52.91667 ], [ -103.0, 52.91667 ], [ -103.79167, 52.91667 ], [ -103.79167, 52.95833 ], [ -104.66667, 52.95833 ], [ -104.75, 52.91667 ], [ -104.875, 52.79167 ], [ -104.91667, 52.70833 ], [ -104.91667, 52.54167 ], [ -105.0, 52.45833 ], [ -104.91667, 52.41667 ], [ -104.91667, 52.33333 ], [ -104.79167, 52.20833 ], [ -104.70833, 52.20833 ], [ -104.70833, 52.08333 ], [ -104.58333, 52.08333 ], [ -104.45833, 51.83333 ], [ -104.45833, 51.75 ], [ -104.25, 51.625 ], [ -104.125, 51.625 ], [ -104.125, 51.54167 ], [ -104.0, 51.5 ], [ -103.79167, 51.5 ], [ -103.70833, 51.45833 ], [ -103.66667, 51.375 ], [ -103.58333, 51.375 ], [ -103.58333, 51.29167 ], [ -103.5, 51.29167 ], [ -103.41667, 51.20833 ], [ -103.41667, 51.125 ], [ -103.33333, 51.04167 ], [ -103.25, 50.91667 ], [ -103.16667, 50.91667 ], [ -103.125, 50.83333 ], [ -103.04167, 50.83333 ], [ -103.04167, 50.75 ], [ -102.95833, 50.70833 ], [ -102.95833, 50.625 ], [ -102.79167, 50.45833 ], [ -102.70833, 50.41667 ], [ -102.58333, 50.41667 ], [ -102.58333, 50.375 ], [ -102.25, 50.375 ], [ -102.25, 50.25 ], [ -102.16667, 50.08333 ], [ -102.08333, 50.08333 ], [ -102.04167, 50.0 ], [ -101.875, 49.91667 ], [ -101.75, 49.91667 ], [ -101.58333, 49.83333 ], [ -101.54167, 49.75 ], [ -101.45833, 49.75 ], [ -101.29167, 49.58333 ], [ -101.29167, 49.54167 ], [ -101.16667, 49.58333 ], [ -101.16667, 49.66667 ], [ -101.04167, 49.70833 ], [ -101.04167, 49.79167 ], [ -100.91667, 49.875 ], [ -100.79167, 49.875 ], [ -100.79167, 49.83333 ], [ -100.54167, 49.83333 ], [ -100.54167, 49.875 ], [ -100.45833, 49.95833 ], [ -100.33333, 49.95833 ], [ -100.29167, 49.91667 ], [ -100.29167, 49.83333 ], [ -100.20833, 49.75 ], [ -100.0, 49.75 ], [ -100.04167, 49.83333 ], [ -100.0, 49.875 ], [ -99.625, 49.875 ], [ -99.625, 49.83333 ], [ -99.45833, 49.83333 ], [ -99.375, 49.75 ], [ -99.125, 49.75 ], [ -99.04167, 49.70833 ], [ -99.0, 49.79167 ], [ -99.16667, 49.79167 ], [ -99.125, 49.875 ], [ -99.125, 50.0 ], [ -99.04167, 50.04167 ], [ -99.04167, 50.16667 ], [ -99.0, 50.25 ], [ -99.125, 50.29167 ], [ -99.125, 50.375 ], [ -99.0, 50.375 ], [ -99.0, 50.29167 ], [ -98.91667, 50.25 ], [ -98.66667, 50.25 ], [ -98.625, 50.29167 ], [ -98.625, 50.41667 ], [ -98.54167, 50.41667 ], [ -98.58333, 50.5 ], [ -98.66667, 50.5 ] ], [ [ -98.91667, 50.5 ], [ -98.83333, 50.41667 ], [ -98.91667, 50.375 ], [ -98.91667, 50.5 ] ] ], [ [ [ -98.75, 49.54167 ], [ -98.75, 49.41667 ], [ -98.58333, 49.41667 ], [ -98.5, 49.45833 ], [ -98.58333, 49.54167 ], [ -98.75, 49.54167 ] ] ], [ [ [ -98.83333, 49.33333 ], [ -98.83333, 49.29167 ], [ -98.95833, 49.29167 ], [ -99.0, 49.25 ], [ -99.0, 49.16667 ], [ -98.91667, 49.16667 ], [ -98.875, 49.08333 ], [ -98.95833, 49.08333 ], [ -99.0, 49.0 ], [ -98.83333, 49.0 ], [ -98.75, 49.04167 ], [ -98.79167, 49.125 ], [ -98.79167, 49.33333 ], [ -98.83333, 49.33333 ] ] ], [ [ [ -99.79167, 49.20833 ], [ -99.83333, 49.125 ], [ -100.5, 49.125 ], [ -100.54167, 49.08333 ], [ -100.54167, 48.95833 ], [ -100.45833, 48.875 ], [ -100.375, 48.83333 ], [ -99.91667, 48.83333 ], [ -99.91667, 48.79167 ], [ -99.625, 48.79167 ], [ -99.5, 48.875 ], [ -99.5, 49.0 ], [ -99.54167, 49.08333 ], [ -99.625, 49.08333 ], [ -99.66667, 49.16667 ], [ -99.79167, 49.20833 ] ] ], [ [ [ -98.25, 48.70833 ], [ -98.25, 48.95833 ], [ -98.33333, 49.0 ], [ -98.375, 48.91667 ], [ -98.29167, 48.91667 ], [ -98.33333, 48.83333 ], [ -98.25, 48.70833 ] ] ], [ [ [ -90.95833, 47.75 ], [ -90.33333, 47.75 ], [ -90.33333, 47.79167 ], [ -90.25, 47.83333 ], [ -90.33333, 47.875 ], [ -90.45833, 47.875 ], [ -90.45833, 47.91667 ], [ -90.54167, 47.95833 ], [ -90.75, 47.95833 ], [ -90.91667, 48.04167 ], [ -90.91667, 47.95833 ], [ -91.0, 47.95833 ], [ -91.08333, 47.875 ], [ -91.0, 47.83333 ], [ -90.95833, 47.75 ] ] ], [ [ [ -91.375, 47.625 ], [ -91.45833, 47.58333 ], [ -91.58333, 47.45833 ], [ -91.375, 47.45833 ], [ -91.375, 47.5 ], [ -91.29167, 47.54167 ], [ -91.375, 47.625 ] ] ] ] } },
{ "type": "Feature", "properties": { "ID": 2 }, "geometry": { "type": "MultiPolygon", "coordinates": [ [ [ [ -93.75, 49.08333 ], [ -93.70833, 49.0 ], [ -93.83333, 49.0 ], [ -93.91667, 49.04167 ], [ -93.95833, 49.0 ], [ -93.95833, 48.875 ], [ -94.04167, 48.875 ], [ -94.04167, 48.70833 ], [ -93.91667, 48.58333 ], [ -93.91667, 48.54167 ], [ -93.75, 48.54167 ], [ -93.66667, 48.58333 ], [ -93.625, 48.66667 ], [ -93.625, 48.79167 ], [ -93.66667, 48.79167 ], [ -93.66667, 48.95833 ], [ -93.625, 49.04167 ], [ -93.75, 49.08333 ] ] ], [ [ [ -92.5, 47.54167 ], [ -92.54167, 47.58333 ], [ -92.66667, 47.58333 ], [ -92.66667, 47.5 ], [ -92.5, 47.5 ], [ -92.5, 47.54167 ] ] ], [ [ [ -95.20833, 47.25 ], [ -95.25, 47.20833 ], [ -95.25, 47.125 ], [ -95.375, 47.125 ], [ -95.375, 47.08333 ], [ -94.95833, 47.08333 ], [ -94.95833, 47.16667 ], [ -95.04167, 47.20833 ], [ -95.16667, 47.20833 ], [ -95.20833, 47.25 ] ] ], [ [ [ -94.0, 46.375 ], [ -94.04167, 46.29167 ], [ -94.04167, 46.16667 ], [ -93.95833, 46.16667 ], [ -93.83333, 46.25 ], [ -93.83333, 46.33333 ], [ -93.91667, 46.33333 ], [ -94.0, 46.375 ] ] ], [ [ [ -87.125, 45.16667 ], [ -87.25, 45.16667 ], [ -87.25, 45.04167 ], [ -87.33333, 44.95833 ], [ -87.375, 44.875 ], [ -87.29167, 44.83333 ], [ -87.20833, 44.91667 ], [ -87.20833, 45.04167 ], [ -87.16667, 45.08333 ], [ -87.08333, 45.08333 ], [ -87.125, 45.16667 ] ] ], [ [ [ -90.125, 44.33333 ], [ -90.04167, 44.375 ], [ -89.91667, 44.375 ], [ -89.875, 44.45833 ], [ -89.75, 44.45833 ], [ -89.66667, 44.54167 ], [ -89.66667, 44.70833 ], [ -89.58333, 44.625 ], [ -89.5, 44.58333 ], [ -89.375, 44.58333 ], [ -89.375, 44.54167 ], [ -89.0, 44.54167 ], [ -89.0, 44.58333 ], [ -88.79167, 44.58333 ], [ -88.75, 44.66667 ], [ -88.66667, 44.66667 ], [ -88.66667, 44.58333 ], [ -88.5, 44.58333 ], [ -88.45833, 44.5 ], [ -88.29167, 44.5 ], [ -88.25, 44.5 ], [ -88.20833, 44.58333 ], [ -88.125, 44.58333 ], [ -88.08333, 44.66667 ], [ -88.0, 44.66667 ], [ -88.0, 44.75 ], [ -87.95833, 44.83333 ], [ -87.875, 44.875 ], [ -87.875, 44.95833 ], [ -87.79167, 45.0 ], [ -87.66667, 45.0 ], [ -87.66667, 45.125 ], [ -87.625, 45.125 ], [ -87.625, 45.20833 ], [ -87.54167, 45.20833 ], [ -87.5, 45.29167 ], [ -87.33333, 45.45833 ], [ -87.29167, 45.54167 ], [ -87.20833, 45.625 ], [ -87.20833, 45.70833 ], [ -87.125, 45.70833 ], [ -87.08333, 45.75 ], [ -87.08333, 45.875 ], [ -87.33333, 45.875 ], [ -87.375, 45.95833 ], [ -87.45833, 45.95833 ], [ -87.5, 46.04167 ], [ -87.58333, 46.08333 ], [ -87.66667, 46.16667 ], [ -87.75, 46.16667 ], [ -87.83333, 46.20833 ], [ -87.875, 46.29167 ], [ -87.95833, 46.33333 ], [ -88.08333, 46.33333 ], [ -88.08333, 46.375 ], [ -88.20833, 46.375 ], [ -88.54167, 46.54167 ], [ -88.54167, 46.625 ], [ -88.625, 46.66667 ], [ -88.625, 46.75 ], [ -88.66667, 46.79167 ], [ -88.91667, 46.79167 ], [ -89.0, 46.83333 ], [ -89.0, 46.91667 ], [ -89.04167, 47.0 ], [ -89.125, 47.0 ], [ -89.16667, 46.91667 ], [ -89.33333, 46.83333 ], [ -89.75, 46.83333 ], [ -89.75, 46.79167 ], [ -89.875, 46.79167 ], [ -89.91667, 46.70833 ], [ -90.0, 46.66667 ], [ -90.125, 46.66667 ], [ -90.125, 46.625 ], [ -90.25, 46.625 ], [ -90.25, 46.58333 ], [ -90.625, 46.58333 ], [ -90.625, 46.625 ], [ -90.79167, 46.625 ], [ -90.79167, 46.58333 ], [ -90.95833, 46.58333 ], [ -90.95833, 46.66667 ], [ -90.875, 46.70833 ], [ -90.875, 46.83333 ], [ -90.79167, 46.91667 ], [ -91.04167, 46.91667 ], [ -91.08333, 46.83333 ], [ -91.29167, 46.83333 ], [ -91.375, 46.79167 ], [ -91.375, 46.75 ], [ -91.625, 46.75 ], [ -91.625, 46.70833 ], [ -91.79167, 46.70833 ], [ -91.79167, 46.66667 ], [ -92.04167, 46.66667 ], [ -92.125, 46.70833 ], [ -92.125, 46.83333 ], [ -92.08333, 46.875 ], [ -91.95833, 46.875 ], [ -91.79167, 46.95833 ], [ -91.75, 47.04167 ], [ -91.66667, 47.04167 ], [ -91.625, 47.125 ], [ -91.45833, 47.20833 ], [ -91.375, 47.29167 ], [ -91.29167, 47.29167 ], [ -91.25, 47.375 ], [ -91.16667, 47.41667 ], [ -91.08333, 47.5 ], [ -91.0, 47.5 ], [ -90.91667, 47.54167 ], [ -90.875, 47.625 ], [ -90.79167, 47.66667 ], [ -90.66667, 47.66667 ], [ -90.66667, 47.70833 ], [ -90.54167, 47.70833 ], [ -90.54167, 47.75 ], [ -90.95833, 47.75 ], [ -91.0, 47.83333 ], [ -91.08333, 47.875 ], [ -91.0, 47.95833 ], [ -90.91667, 47.95833 ], [ -90.91667, 48.08333 ], [ -91.04167, 48.16667 ], [ -91.20833, 48.16667 ], [ -91.29167, 48.20833 ], [ -91.33333, 48.29167 ], [ -91.5, 48.29167 ], [ -91.5, 48.33333 ], [ -91.58333, 48.375 ], [ -91.70833, 48.375 ], [ -91.70833, 48.41667 ], [ -91.83333, 48.41667 ], [ -91.83333, 48.45833 ], [ -92.0, 48.54167 ], [ -92.125, 48.54167 ], [ -92.375, 48.66667 ], [ -92.41667, 48.75 ], [ -92.5, 48.75 ], [ -92.58333, 48.79167 ], [ -92.625, 48.875 ], [ -92.70833, 48.91667 ], [ -92.79167, 49.0 ], [ -92.875, 49.0 ], [ -92.79167, 48.91667 ], [ -92.79167, 48.625 ], [ -92.66667, 48.58333 ], [ -92.66667, 48.41667 ], [ -92.75, 48.33333 ], [ -92.79167, 48.25 ], [ -92.79167, 48.16667 ], [ -92.70833, 48.16667 ], [ -92.70833, 48.04167 ], [ -92.75, 47.95833 ], [ -92.58333, 47.875 ], [ -92.58333, 47.83333 ], [ -92.58333, 47.75 ], [ -92.5, 47.66667 ], [ -92.45833, 47.58333 ], [ -92.5, 47.54167 ], [ -92.41667, 47.5 ], [ -92.16667, 47.5 ], [ -92.20833, 47.45833 ], [ -92.20833, 47.375 ], [ -92.125, 47.29167 ], [ -92.20833, 47.25 ], [ -92.20833, 47.20833 ], [ -92.375, 47.20833 ], [ -92.41667, 47.125 ], [ -92.625, 47.125 ], [ -92.70833, 47.08333 ], [ -92.83333, 47.08333 ], [ -92.83333, 47.04167 ], [ -93.0, 47.04167 ], [ -93.0, 47.08333 ], [ -93.16667, 47.08333 ], [ -93.20833, 47.20833 ], [ -93.29167, 47.20833 ], [ -93.25, 47.29167 ], [ -93.125, 47.29167 ], [ -93.125, 47.33333 ], [ -93.0, 47.33333 ], [ -92.875, 47.41667 ], [ -92.875, 47.5 ], [ -93.04167, 47.5 ], [ -93.08333, 47.41667 ], [ -93.16667, 47.375 ], [ -93.45833, 47.375 ], [ -93.45833, 47.5 ], [ -93.5, 47.58333 ], [ -93.625, 47.58333 ], [ -93.625, 47.66667 ], [ -93.70833, 47.66667 ], [ -93.70833, 47.58333 ], [ -93.66667, 47.54167 ], [ -93.75, 47.5 ], [ -93.75, 47.41667 ], [ -93.95833, 47.41667 ], [ -93.95833, 47.5 ], [ -93.875, 47.5 ], [ -93.875, 47.58333 ], [ -93.95833, 47.58333 ], [ -93.95833, 47.66667 ], [ -94.04167, 47.66667 ], [ -94.04167, 47.5 ], [ -94.125, 47.5 ], [ -94.08333, 47.41667 ], [ -94.08333, 47.29167 ], [ -94.125, 47.29167 ], [ -94.125, 47.16667 ], [ -94.20833, 47.16667 ], [ -94.29167, 47.08333 ], [ -94.375, 47.04167 ], [ -94.45833, 47.08333 ], [ -94.5, 47.16667 ], [ -94.5, 47.25 ], [ -94.625, 47.25 ], [ -94.625, 47.20833 ], [ -94.66667, 47.20833 ], [ -94.75, 47.125 ], [ -94.83333, 47.08333 ], [ -94.875, 47.0 ], [ -94.79167, 47.0 ], [ -94.75, 46.95833 ], [ -94.75, 46.79167 ], [ -94.79167, 46.70833 ], [ -94.79167, 46.625 ], [ -94.70833, 46.54167 ], [ -94.625, 46.41667 ], [ -94.41667, 46.41667 ], [ -94.375, 46.45833 ], [ -94.375, 46.625 ], [ -94.29167, 46.70833 ], [ -94.125, 46.70833 ], [ -94.04167, 46.58333 ], [ -94.04167, 46.5 ], [ -93.875, 46.5 ], [ -93.75, 46.41667 ], [ -93.79167, 46.375 ], [ -93.79167, 46.29167 ], [ -93.70833, 46.25 ], [ -93.75, 46.16667 ], [ -93.83333, 46.25 ], [ -93.83333, 46.125 ], [ -93.91667, 46.08333 ], [ -93.91667, 46.0 ], [ -93.79167, 46.0 ], [ -93.70833, 45.91667 ], [ -93.625, 45.875 ], [ -93.625, 45.83333 ], [ -93.5, 45.83333 ], [ -93.5, 45.875 ], [ -93.41667, 45.91667 ], [ -93.25, 45.91667 ], [ -93.20833, 45.83333 ], [ -93.125, 45.83333 ], [ -93.08333, 45.75 ], [ -92.91667, 45.75 ], [ -92.83333, 45.70833 ], [ -92.83333, 45.625 ], [ -92.625, 45.625 ], [ -92.625, 45.54167 ], [ -92.625, 45.45833 ], [ -92.54167, 45.45833 ], [ -92.45833, 45.375 ], [ -92.41667, 45.41667 ], [ -92.33333, 45.375 ], [ -92.25, 45.375 ], [ -92.25, 45.25 ], [ -92.16667, 45.20833 ], [ -91.91667, 45.20833 ], [ -91.91667, 45.25 ], [ -91.70833, 45.25 ], [ -91.70833, 45.41667 ], [ -91.625, 45.33333 ], [ -91.66667, 45.29167 ], [ -91.66667, 45.20833 ], [ -91.58333, 45.125 ], [ -91.54167, 45.16667 ], [ -91.375, 45.16667 ], [ -91.33333, 45.08333 ], [ -91.25, 45.08333 ], [ -91.125, 44.95833 ], [ -91.20833, 44.875 ], [ -91.16667, 44.79167 ], [ -91.08333, 44.79167 ], [ -91.08333, 44.70833 ], [ -91.04167, 44.66667 ], [ -90.91667, 44.66667 ], [ -90.875, 44.58333 ], [ -90.79167, 44.54167 ], [ -90.66667, 44.54167 ], [ -90.58333, 44.5 ], [ -90.58333, 44.41667 ], [ -90.5, 44.375 ], [ -90.29167, 44.375 ], [ -90.20833, 44.29167 ], [ -90.16667, 44.33333 ], [ -90.16667, 44.29167 ], [ -90.125, 44.33333 ] ], [ [ -91.875, 47.91667 ], [ -91.66667, 48.0 ], [ -91.70833, 47.95833 ], [ -91.70833, 47.875 ], [ -91.875, 47.875 ], [ -91.875, 47.91667 ] ], [ [ -91.375, 47.625 ], [ -91.29167, 47.54167 ], [ -91.375, 47.5 ], [ -91.375, 47.45833 ], [ -91.58333, 47.45833 ], [ -91.45833, 47.58333 ], [ -91.375, 47.625 ] ] ], [ [ [ -87.875, 44.125 ], [ -87.625, 44.125 ], [ -87.54167, 44.16667 ], [ -87.54167, 44.45833 ], [ -87.5, 44.45833 ], [ -87.5, 44.58333 ], [ -87.41667, 44.625 ], [ -87.41667, 44.70833 ], [ -87.375, 44.79167 ], [ -87.41667, 44.83333 ], [ -87.625, 44.83333 ], [ -87.70833, 44.75 ], [ -87.70833, 44.66667 ], [ -87.75, 44.625 ], [ -87.83333, 44.625 ], [ -87.875, 44.58333 ], [ -87.875, 44.45833 ], [ -87.91667, 44.45833 ], [ -87.91667, 44.20833 ], [ -87.95833, 44.16667 ], [ -87.875, 44.16667 ], [ -87.875, 44.125 ] ] ], [ [ [ -85.625, 44.70833 ], [ -85.625, 44.79167 ], [ -85.66667, 44.875 ], [ -85.79167, 44.875 ], [ -85.79167, 44.83333 ], [ -85.83333, 44.83333 ], [ -85.83333, 44.75 ], [ -85.70833, 44.625 ], [ -85.75, 44.54167 ], [ -85.70833, 44.45833 ], [ -85.58333, 44.45833 ], [ -85.625, 44.375 ], [ -85.75, 44.375 ], [ -85.75, 44.20833 ], [ -85.66667, 44.125 ], [ -85.66667, 43.95833 ], [ -85.625, 43.95833 ], [ -85.625, 43.91667 ], [ -85.29167, 43.91667 ], [ -85.25, 43.875 ], [ -85.25, 43.79167 ], [ -85.16667, 43.79167 ], [ -85.16667, 43.70833 ], [ -84.95833, 43.70833 ], [ -84.95833, 43.75 ], [ -84.83333, 43.75 ], [ -84.83333, 43.79167 ], [ -84.75, 43.875 ], [ -84.625, 43.875 ], [ -84.625, 43.83333 ], [ -84.5, 43.83333 ], [ -84.45833, 43.875 ], [ -84.375, 43.875 ], [ -84.29167, 43.75 ], [ -84.16667, 43.75 ], [ -84.125, 43.83333 ], [ -84.16667, 43.875 ], [ -84.25, 43.875 ], [ -84.25, 43.95833 ], [ -84.33333, 43.95833 ], [ -84.33333, 44.04167 ], [ -84.375, 44.08333 ], [ -84.5, 44.08333 ], [ -84.5, 44.125 ], [ -84.66667, 44.125 ], [ -84.66667, 44.25 ], [ -84.625, 44.29167 ], [ -84.70833, 44.375 ], [ -85.0, 44.375 ], [ -85.0, 44.41667 ], [ -85.16667, 44.41667 ], [ -85.16667, 44.5 ], [ -85.20833, 44.54167 ], [ -85.29167, 44.54167 ], [ -85.5, 44.75 ], [ -85.54167, 44.75 ], [ -85.625, 44.70833 ] ] ] ] } },
{ "type": "Feature", "properties": { "ID": 3 }, "geometry": { "type": "MultiPolygon", "coordinates": [ [ [ [ -98.91667, 50.5 ], [ -98.91667, 50.375 ], [ -98.83333, 50.41667 ], [ -98.91667, 50.5 ] ] ], [ [ [ -91.66667, 48.0 ], [ -91.875, 47.91667 ], [ -91.875, 47.875 ], [ -91.70833, 47.875 ], [ -91.70833, 47.95833 ], [ -91.66667, 48.0 ] ] ], [ [ [ -92.91667, 44.79167 ], [ -92.91667, 44.75 ], [ -92.79167, 44.75 ], [ -92.79167, 44.79167 ], [ -92.91667, 44.79167 ] ] ], [ [ [ -94.125, 44.41667 ], [ -94.25, 44.33333 ], [ -94.16667, 44.29167 ], [ -94.08333, 44.29167 ], [ -94.08333, 44.41667 ], [ -94.125, 44.41667 ] ] ], [ [ [ -88.08333, 44.66667 ], [ -88.125, 44.58333 ], [ -88.20833, 44.58333 ], [ -88.25, 44.5 ], [ -88.33333, 44.5 ], [ -88.375, 44.45833 ], [ -88.375, 44.33333 ], [ -88.33333, 44.29167 ], [ -88.33333, 44.20833 ], [ -88.29167, 44.16667 ], [ -88.20833, 44.16667 ], [ -88.16667, 44.125 ], [ -88.04167, 44.125 ], [ -87.95833, 44.08333 ], [ -87.91667, 44.16667 ], [ -87.95833, 44.16667 ], [ -87.91667, 44.20833 ], [ -87.91667, 44.45833 ], [ -87.875, 44.45833 ], [ -87.875, 44.54167 ], [ -87.95833, 44.54167 ], [ -87.95833, 44.5 ], [ -88.08333, 44.5 ], [ -88.08333, 44.54167 ], [ -88.04167, 44.54167 ], [ -88.04167, 44.66667 ], [ -88.08333, 44.66667 ] ] ], [ [ [ -84.08333, 43.75 ], [ -84.08333, 43.70833 ], [ -84.20833, 43.70833 ], [ -84.16667, 43.625 ], [ -84.16667, 43.5 ], [ -84.125, 43.5 ], [ -84.08333, 43.58333 ], [ -83.95833, 43.58333 ], [ -83.95833, 43.625 ], [ -83.95833, 43.75 ], [ -84.08333, 43.75 ] ] ], [ [ [ -98.54167, 50.41667 ], [ -98.625, 50.41667 ], [ -98.625, 50.29167 ], [ -98.66667, 50.25 ], [ -98.91667, 50.25 ], [ -99.0, 50.29167 ], [ -99.0, 50.375 ], [ -99.125, 50.375 ], [ -99.125, 50.29167 ], [ -99.0, 50.25 ], [ -99.04167, 50.16667 ], [ -99.04167, 50.04167 ], [ -99.125, 50.0 ], [ -99.125, 49.875 ], [ -99.16667, 49.79167 ], [ -99.0, 49.79167 ], [ -99.04167, 49.70833 ], [ -99.125, 49.75 ], [ -99.375, 49.75 ], [ -99.45833, 49.83333 ], [ -99.625, 49.83333 ], [ -99.625, 49.875 ], [ -100.0, 49.875 ], [ -100.04167, 49.83333 ], [ -100.0, 49.75 ], [ -100.20833, 49.75 ], [ -100.29167, 49.83333 ], [ -100.29167, 49.91667 ], [ -100.33333, 49.95833 ], [ -100.45833, 49.95833 ], [ -100.54167, 49.875 ], [ -100.54167, 49.83333 ], [ -100.79167, 49.83333 ], [ -100.79167, 49.875 ], [ -100.91667, 49.875 ], [ -101.04167, 49.79167 ], [ -101.04167, 49.70833 ], [ -101.16667, 49.66667 ], [ -101.16667, 49.58333 ], [ -101.29167, 49.54167 ], [ -101.08333, 49.16667 ], [ -101.08333, 49.08333 ], [ -101.0, 49.0 ], [ -100.91667, 49.0 ], [ -100.875, 48.91667 ], [ -100.79167, 48.875 ], [ -100.70833, 48.875 ], [ -100.625, 48.79167 ], [ -100.54167, 48.75 ], [ -100.54167, 48.66667 ], [ -100.45833, 48.58333 ], [ -100.41667, 48.5 ], [ -100.29167, 48.375 ], [ -100.25, 48.29167 ], [ -100.125, 48.16667 ], [ -100.08333, 48.08333 ], [ -100.0, 48.08333 ], [ -100.0, 48.0 ], [ -99.5, 47.5 ], [ -99.375, 47.25 ], [ -99.33333, 47.25 ], [ -99.33333, 47.125 ], [ -99.29167, 47.04167 ], [ -99.20833, 46.95833 ], [ -99.16667, 46.875 ], [ -99.08333, 46.875 ], [ -99.08333, 46.79167 ], [ -99.0, 46.70833 ], [ -98.95833, 46.625 ], [ -98.875, 46.58333 ], [ -98.875, 46.5 ], [ -98.79167, 46.45833 ], [ -98.79167, 46.375 ], [ -98.70833, 46.375 ], [ -98.58333, 46.25 ], [ -98.58333, 46.16667 ], [ -98.5, 46.125 ], [ -98.41667, 45.95833 ], [ -98.41667, 45.83333 ], [ -98.375, 45.83333 ], [ -98.375, 45.70833 ], [ -98.29167, 45.70833 ], [ -98.29167, 45.79167 ], [ -98.20833, 45.79167 ], [ -98.16667, 45.875 ], [ -98.08333, 45.83333 ], [ -97.95833, 45.83333 ], [ -97.95833, 45.91667 ], [ -97.875, 45.95833 ], [ -97.54167, 45.95833 ], [ -97.54167, 45.875 ], [ -97.625, 45.83333 ], [ -97.70833, 45.66667 ], [ -97.70833, 45.58333 ], [ -97.79167, 45.54167 ], [ -97.91667, 45.29167 ], [ -97.91667, 45.08333 ], [ -97.83333, 45.04167 ], [ -97.83333, 44.875 ], [ -97.79167, 44.875 ], [ -97.79167, 44.75 ], [ -97.54167, 44.5 ], [ -97.54167, 44.375 ], [ -97.45833, 44.375 ], [ -97.45833, 44.08333 ], [ -97.375, 44.08333 ], [ -97.375, 43.95833 ], [ -97.33333, 43.91667 ], [ -97.25, 43.91667 ], [ -97.125, 43.79167 ], [ -97.125, 43.70833 ], [ -96.66667, 43.70833 ], [ -96.66667, 43.66667 ], [ -96.54167, 43.66667 ], [ -96.45833, 43.58333 ], [ -96.45833, 43.45833 ], [ -96.29167, 43.45833 ], [ -96.25, 43.375 ], [ -96.16667, 43.41667 ], [ -96.16667, 43.45833 ], [ -96.16667, 43.5 ], [ -96.04167, 43.375 ], [ -95.95833, 43.33333 ], [ -95.91667, 43.25 ], [ -95.79167, 43.25 ], [ -95.75, 43.16667 ], [ -95.58333, 43.16667 ], [ -95.58333, 43.20833 ], [ -95.45833, 43.20833 ], [ -95.45833, 43.25 ], [ -95.33333, 43.25 ], [ -95.33333, 43.29167 ], [ -95.20833, 43.29167 ], [ -95.20833, 43.33333 ], [ -95.08333, 43.33333 ], [ -95.08333, 43.25 ], [ -94.91667, 43.25 ], [ -94.91667, 43.29167 ], [ -94.79167, 43.29167 ], [ -94.75, 43.375 ], [ -94.75, 43.625 ], [ -94.70833, 43.70833 ], [ -94.625, 43.70833 ], [ -94.58333, 43.79167 ], [ -94.45833, 43.91667 ], [ -94.41667, 44.0 ], [ -94.41667, 44.16667 ], [ -94.45833, 44.25 ], [ -94.54167, 44.33333 ], [ -94.5, 44.375 ], [ -94.41667, 44.375 ], [ -94.41667, 44.45833 ], [ -94.375, 44.5 ], [ -94.25, 44.5 ], [ -94.16667, 44.54167 ], [ -94.08333, 44.54167 ], [ -94.0, 44.45833 ], [ -94.0, 44.41667 ], [ -93.95833, 44.41667 ], [ -93.875, 44.5 ], [ -93.83333, 44.33333 ], [ -93.83333, 44.16667 ], [ -93.75, 44.16667 ], [ -93.79167, 44.08333 ], [ -93.79167, 43.875 ], [ -93.70833, 43.79167 ], [ -93.66667, 43.70833 ], [ -93.58333, 43.75 ], [ -93.58333, 43.875 ], [ -93.66667, 43.95833 ], [ -93.66667, 44.125 ], [ -93.625, 44.125 ], [ -93.58333, 44.16667 ], [ -93.58333, 44.25 ], [ -93.66667, 44.25 ], [ -93.66667, 44.33333 ], [ -93.58333, 44.33333 ], [ -93.54167, 44.29167 ], [ -93.45833, 44.375 ], [ -93.45833, 44.5 ], [ -93.54167, 44.54167 ], [ -93.70833, 44.54167 ], [ -93.75, 44.45833 ], [ -93.79167, 44.45833 ], [ -93.79167, 44.79167 ], [ -93.70833, 44.79167 ], [ -93.625, 44.91667 ], [ -93.5, 44.91667 ], [ -93.5, 45.125 ], [ -93.41667, 45.125 ], [ -93.41667, 45.20833 ], [ -93.375, 45.25 ], [ -93.20833, 45.16667 ], [ -93.125, 45.16667 ], [ -93.08333, 45.08333 ], [ -92.91667, 45.08333 ], [ -92.91667, 45.125 ], [ -92.79167, 45.25 ], [ -92.79167, 45.29167 ], [ -92.79167, 45.33333 ], [ -92.66667, 45.33333 ], [ -92.625, 45.375 ], [ -92.625, 45.5 ], [ -92.70833, 45.58333 ], [ -92.66667, 45.625 ], [ -92.83333, 45.625 ], [ -92.83333, 45.70833 ], [ -92.91667, 45.75 ], [ -93.08333, 45.75 ], [ -93.125, 45.83333 ], [ -93.20833, 45.83333 ], [ -93.25, 45.91667 ], [ -93.41667, 45.91667 ], [ -93.5, 45.875 ], [ -93.5, 45.83333 ], [ -93.625, 45.83333 ], [ -93.625, 45.875 ], [ -93.70833, 45.91667 ], [ -93.79167, 46.0 ], [ -93.91667, 46.0 ], [ -93.91667, 46.08333 ], [ -93.83333, 46.125 ], [ -93.83333, 46.25 ], [ -93.75, 46.16667 ], [ -93.70833, 46.25 ], [ -93.79167, 46.29167 ], [ -93.79167, 46.375 ], [ -93.75, 46.41667 ], [ -93.875, 46.5 ], [ -94.04167, 46.5 ], [ -94.04167, 46.58333 ], [ -94.125, 46.70833 ], [ -94.29167, 46.70833 ], [ -94.375, 46.625 ], [ -94.375, 46.45833 ], [ -94.41667, 46.41667 ], [ -94.625, 46.41667 ], [ -94.70833, 46.54167 ], [ -94.79167, 46.625 ], [ -94.79167, 46.70833 ], [ -94.75, 46.79167 ], [ -94.75, 46.95833 ], [ -94.79167, 47.0 ], [ -94.875, 47.0 ], [ -94.83333, 47.08333 ], [ -94.75, 47.125 ], [ -94.66667, 47.20833 ], [ -94.625, 47.20833 ], [ -94.625, 47.25 ], [ -94.5, 47.25 ], [ -94.5, 47.16667 ], [ -94.45833, 47.08333 ], [ -94.375, 47.04167 ], [ -94.29167, 47.08333 ], [ -94.20833, 47.16667 ], [ -94.125, 47.16667 ], [ -94.125, 47.29167 ], [ -94.08333, 47.29167 ], [ -94.08333, 47.41667 ], [ -94.125, 47.5 ], [ -94.04167, 47.5 ], [ -94.04167, 47.66667 ], [ -93.95833, 47.66667 ], [ -93.95833, 47.58333 ], [ -93.875, 47.58333 ], [ -93.875, 47.5 ], [ -93.95833, 47.5 ], [ -93.95833, 47.41667 ], [ -93.75, 47.41667 ], [ -93.75, 47.5 ], [ -93.66667, 47.54167 ], [ -93.70833, 47.58333 ], [ -93.70833, 47.66667 ], [ -93.625, 47.66667 ], [ -93.625, 47.58333 ], [ -93.5, 47.58333 ], [ -93.45833, 47.5 ], [ -93.45833, 47.375 ], [ -93.16667, 47.375 ], [ -93.08333, 47.41667 ], [ -93.04167, 47.5 ], [ -92.875, 47.5 ], [ -92.875, 47.41667 ], [ -93.0, 47.33333 ], [ -93.125, 47.33333 ], [ -93.125, 47.29167 ], [ -93.25, 47.29167 ], [ -93.29167, 47.20833 ], [ -93.20833, 47.20833 ], [ -93.16667, 47.08333 ], [ -93.0, 47.08333 ], [ -93.0, 47.04167 ], [ -92.83333, 47.04167 ], [ -92.83333, 47.08333 ], [ -92.70833, 47.08333 ], [ -92.625, 47.125 ], [ -92.41667, 47.125 ], [ -92.375, 47.20833 ], [ -92.20833, 47.20833 ], [ -92.20833, 47.25 ], [ -92.125, 47.29167 ], [ -92.20833, 47.375 ], [ -92.20833, 47.45833 ], [ -92.16667, 47.5 ], [ -92.41667, 47.5 ], [ -92.5, 47.54167 ], [ -92.45833, 47.58333 ], [ -92.5, 47.66667 ], [ -92.58333, 47.75 ], [ -92.58333, 47.83333 ], [ -92.58333, 47.875 ], [ -92.75, 47.95833 ], [ -92.70833, 48.04167 ], [ -92.70833, 48.16667 ], [ -92.79167, 48.16667 ], [ -92.79167, 48.25 ], [ -92.75, 48.33333 ], [ -92.66667, 48.41667 ], [ -92.66667, 48.58333 ], [ -92.79167, 48.625 ], [ -92.79167, 48.91667 ], [ -92.875, 49.0 ], [ -92.91667, 49.04167 ], [ -93.58333, 49.375 ], [ -93.70833, 49.375 ], [ -93.875, 49.45833 ], [ -93.91667, 49.54167 ], [ -94.04167, 49.54167 ], [ -94.04167, 49.58333 ], [ -94.125, 49.66667 ], [ -94.20833, 49.66667 ], [ -94.25, 49.75 ], [ -94.375, 49.75 ], [ -94.375, 49.83333 ], [ -94.625, 49.95833 ], [ -94.75, 49.95833 ], [ -94.79167, 50.04167 ], [ -94.875, 50.04167 ], [ -94.91667, 50.125 ], [ -95.0, 50.125 ], [ -95.16667, 50.20833 ], [ -95.20833, 50.29167 ], [ -95.29167, 50.29167 ], [ -95.375, 50.33333 ], [ -95.625, 50.33333 ], [ -95.79167, 50.29167 ], [ -95.79167, 50.375 ], [ -95.875, 50.375 ], [ -95.95833, 50.33333 ], [ -96.20833, 50.33333 ], [ -96.20833, 50.375 ], [ -96.45833, 50.375 ], [ -96.54167, 50.29167 ], [ -96.75, 50.29167 ], [ -96.75, 50.25 ], [ -96.91667, 50.25 ], [ -96.91667, 50.29167 ], [ -96.83333, 50.375 ], [ -96.95833, 50.33333 ], [ -97.08333, 50.33333 ], [ -97.08333, 50.20833 ], [ -97.66667, 50.20833 ], [ -97.75, 50.125 ], [ -98.16667, 50.125 ], [ -98.16667, 50.16667 ], [ -98.29167, 50.16667 ], [ -98.375, 50.16667 ], [ -98.5, 50.16667 ], [ -98.58333, 50.20833 ], [ -98.58333, 50.375 ], [ -98.54167, 50.41667 ] ], [ [ -96.25, 50.29167 ], [ -96.16667, 50.20833 ], [ -96.25, 50.16667 ], [ -96.25, 50.29167 ] ], [ [ -100.79167, 49.83333 ], [ -100.75, 49.75 ], [ -100.83333, 49.75 ], [ -100.79167, 49.83333 ] ], [ [ -100.16667, 49.66667 ], [ -100.0, 49.66667 ], [ -100.0, 49.70833 ], [ -99.91667, 49.79167 ], [ -99.83333, 49.79167 ], [ -99.83333, 49.625 ], [ -99.875, 49.58333 ], [ -100.08333, 49.58333 ], [ -100.16667, 49.66667 ] ], [ [ -100.16667, 49.66667 ], [ -100.25, 49.66667 ], [ -100.20833, 49.75 ], [ -100.16667, 49.66667 ] ], [ [ -100.75, 49.70833 ], [ -100.625, 49.70833 ], [ -100.625, 49.625 ], [ -100.75, 49.625 ], [ -100.75, 49.70833 ] ], [ [ -98.75, 49.54167 ], [ -98.58333, 49.54167 ], [ -98.5, 49.45833 ], [ -98.58333, 49.41667 ], [ -98.75, 49.41667 ], [ -98.75, 49.54167 ] ], [ [ -98.83333, 49.33333 ], [ -98.79167, 49.33333 ], [ -98.79167, 49.125 ], [ -98.75, 49.04167 ], [ -98.83333, 49.0 ], [ -99.0, 49.0 ], [ -98.95833, 49.08333 ], [ -98.875, 49.08333 ], [ -98.91667, 49.16667 ], [ -99.0, 49.16667 ], [ -99.0, 49.25 ], [ -98.95833, 49.29167 ], [ -98.83333, 49.29167 ], [ -98.83333, 49.33333 ] ], [ [ -99.79167, 49.20833 ], [ -99.66667, 49.16667 ], [ -99.625, 49.08333 ], [ -99.54167, 49.08333 ], [ -99.5, 49.0 ], [ -99.5, 48.875 ], [ -99.625, 48.79167 ], [ -99.91667, 48.79167 ], [ -99.91667, 48.83333 ], [ -100.375, 48.83333 ], [ -100.45833, 48.875 ], [ -100.54167, 48.95833 ], [ -100.54167, 49.08333 ], [ -100.5, 49.125 ], [ -99.83333, 49.125 ], [ -99.79167, 49.20833 ] ], [ [ -98.33333, 48.83333 ], [ -98.29167, 48.91667 ], [ -98.375, 48.91667 ], [ -98.33333, 49.0 ], [ -98.25, 48.95833 ], [ -98.25, 48.70833 ], [ -98.33333, 48.83333 ] ], [ [ -93.75, 49.08333 ], [ -93.625, 49.04167 ], [ -93.66667, 48.95833 ], [ -93.66667, 48.79167 ], [ -93.625, 48.79167 ], [ -93.625, 48.66667 ], [ -93.66667, 48.58333 ], [ -93.75, 48.54167 ], [ -93.91667, 48.54167 ], [ -93.91667, 48.58333 ], [ -94.04167, 48.70833 ], [ -94.04167, 48.875 ], [ -93.95833, 48.875 ], [ -93.95833, 49.0 ], [ -93.91667, 49.04167 ], [ -93.83333, 49.0 ], [ -93.70833, 49.0 ], [ -93.75, 49.08333 ] ], [ [ -92.5, 47.54167 ], [ -92.5, 47.5 ], [ -92.66667, 47.5 ], [ -92.66667, 47.58333 ], [ -92.54167, 47.58333 ], [ -92.5, 47.54167 ] ], [ [ -95.20833, 47.25 ], [ -95.16667, 47.20833 ], [ -95.04167, 47.20833 ], [ -94.95833, 47.16667 ], [ -94.95833, 47.08333 ], [ -95.375, 47.08333 ], [ -95.375, 47.125 ], [ -95.25, 47.125 ], [ -95.25, 47.20833 ], [ -95.20833, 47.25 ] ], [ [ -96.875, 46.91667 ], [ -96.75, 46.91667 ], [ -96.79167, 46.83333 ], [ -96.875, 46.83333 ], [ -96.875, 46.91667 ] ], [ [ -94.0, 46.375 ], [ -93.91667, 46.33333 ], [ -93.83333, 46.33333 ], [ -93.83333, 46.25 ], [ -93.95833, 46.16667 ], [ -94.04167, 46.16667 ], [ -94.04167, 46.29167 ], [ -94.0, 46.375 ] ], [ [ -97.54167, 45.95833 ], [ -97.54167, 46.0 ], [ -97.16667, 46.0 ], [ -97.16667, 45.95833 ], [ -96.875, 45.95833 ], [ -96.79167, 45.875 ], [ -96.79167, 45.83333 ], [ -96.70833, 45.66667 ], [ -96.75, 45.58333 ], [ -96.66667, 45.58333 ], [ -96.66667, 45.45833 ], [ -96.58333, 45.375 ], [ -96.70833, 45.375 ], [ -96.70833, 45.33333 ], [ -96.58333, 45.33333 ], [ -96.54167, 45.25 ], [ -96.5, 45.20833 ], [ -96.54167, 45.20833 ], [ -96.58333, 45.125 ], [ -96.54167, 45.04167 ], [ -96.66667, 45.04167 ], [ -96.66667, 45.125 ], [ -96.75, 45.125 ], [ -96.79167, 45.16667 ], [ -96.79167, 45.25 ], [ -96.875, 45.29167 ], [ -96.875, 45.375 ], [ -96.95833, 45.375 ], [ -96.95833, 45.45833 ], [ -97.04167, 45.5 ], [ -97.04167, 45.625 ], [ -97.125, 45.66667 ], [ -97.125, 45.75 ], [ -97.20833, 45.75 ], [ -97.25, 45.83333 ], [ -97.33333, 45.875 ], [ -97.41667, 45.95833 ], [ -97.54167, 45.95833 ] ], [ [ -95.70833, 45.45833 ], [ -95.58333, 45.45833 ], [ -95.58333, 45.41667 ], [ -95.45833, 45.41667 ], [ -95.41667, 45.375 ], [ -95.41667, 45.29167 ], [ -95.29167, 45.25 ], [ -95.29167, 45.0 ], [ -95.375, 44.91667 ], [ -95.45833, 44.875 ], [ -95.625, 44.95833 ], [ -95.70833, 45.04167 ], [ -95.79167, 45.04167 ], [ -95.83333, 45.08333 ], [ -95.83333, 45.20833 ], [ -95.875, 45.29167 ], [ -95.83333, 45.33333 ], [ -95.75, 45.33333 ], [ -95.75, 45.41667 ], [ -95.70833, 45.45833 ] ] ], [ [ [ -83.16667, 42.95833 ], [ -83.0, 42.95833 ], [ -83.0, 43.08333 ], [ -83.08333, 43.16667 ], [ -83.16667, 43.16667 ], [ -83.20833, 43.25 ], [ -83.29167, 43.29167 ], [ -83.41667, 43.29167 ], [ -83.41667, 43.375 ], [ -83.45833, 43.41667 ], [ -83.54167, 43.41667 ], [ -83.54167, 43.54167 ], [ -83.625, 43.58333 ], [ -83.75, 43.58333 ], [ -83.83333, 43.625 ], [ -83.79167, 43.58333 ], [ -83.79167, 43.45833 ], [ -83.75, 43.375 ], [ -83.875, 43.375 ], [ -83.91667, 43.33333 ], [ -83.91667, 43.16667 ], [ -83.95833, 43.16667 ], [ -83.95833, 42.95833 ], [ -83.91667, 42.875 ], [ -84.0, 42.83333 ], [ -84.0, 42.66667 ], [ -83.625, 42.66667 ], [ -83.625, 42.70833 ], [ -83.45833, 42.70833 ], [ -83.41667, 42.75 ], [ -83.41667, 42.91667 ], [ -83.33333, 42.95833 ], [ -83.16667, 42.95833 ] ], [ [ -83.70833, 43.125 ], [ -83.66667, 43.08333 ], [ -83.58333, 43.08333 ], [ -83.58333, 42.91667 ], [ -83.66667, 42.83333 ], [ -83.66667, 42.79167 ], [ -83.79167, 42.79167 ], [ -83.79167, 42.875 ], [ -83.83333, 42.91667 ], [ -83.83333, 43.04167 ], [ -83.70833, 43.125 ] ], [ [ -83.5, 42.875 ], [ -83.45833, 42.79167 ], [ -83.54167, 42.79167 ], [ -83.5, 42.875 ] ] ] ] } },
{ "type": "Feature", "properties": { "ID": 4 }, "geometry": { "type": "MultiPolygon", "coordinates": [ [ [ [ -92.66667, 45.625 ], [ -92.70833, 45.58333 ], [ -92.625, 45.5 ], [ -92.625, 45.54167 ], [ -92.625, 45.625 ], [ -92.66667, 45.625 ] ] ], [ [ [ -88.08333, 44.54167 ], [ -88.08333, 44.5 ], [ -87.95833, 44.5 ], [ -87.95833, 44.54167 ], [ -88.08333, 44.54167 ] ] ], [ [ [ -83.70833, 43.125 ], [ -83.83333, 43.04167 ], [ -83.83333, 42.91667 ], [ -83.79167, 42.875 ], [ -83.79167, 42.79167 ], [ -83.66667, 42.79167 ], [ -83.66667, 42.83333 ], [ -83.58333, 42.91667 ], [ -83.58333, 43.08333 ], [ -83.66667, 43.08333 ], [ -83.70833, 43.125 ] ] ], [ [ [ -83.5, 42.875 ], [ -83.54167, 42.79167 ], [ -83.45833, 42.79167 ], [ -83.5, 42.875 ] ] ], [ [ [ -83.08333, 42.29167 ], [ -83.08333, 42.08333 ], [ -83.04167, 42.08333 ], [ -83.04167, 42.29167 ], [ -83.08333, 42.29167 ] ] ], [ [ [ -81.625, 39.83333 ], [ -81.5, 39.70833 ], [ -81.5, 39.79167 ], [ -81.45833, 39.875 ], [ -81.29167, 39.875 ], [ -81.25, 39.95833 ], [ -81.25, 40.125 ], [ -81.45833, 40.125 ], [ -81.625, 39.83333 ] ] ], [ [ [ -87.04167, 39.33333 ], [ -87.04167, 39.29167 ], [ -86.95833, 39.29167 ], [ -86.95833, 39.33333 ], [ -87.04167, 39.33333 ] ] ], [ [ [ -84.75, 39.125 ], [ -84.79167, 39.08333 ], [ -84.79167, 39.0 ], [ -84.66667, 39.0 ], [ -84.66667, 39.08333 ], [ -84.70833, 39.125 ], [ -84.75, 39.125 ] ] ], [ [ [ -92.625, 45.45833 ], [ -92.625, 45.375 ], [ -92.66667, 45.33333 ], [ -92.79167, 45.33333 ], [ -92.79167, 45.29167 ], [ -92.79167, 45.25 ], [ -92.91667, 45.125 ], [ -92.91667, 45.08333 ], [ -93.08333, 45.08333 ], [ -93.125, 45.16667 ], [ -93.20833, 45.16667 ], [ -93.375, 45.25 ], [ -93.41667, 45.20833 ], [ -93.41667, 45.125 ], [ -93.5, 45.125 ], [ -93.5, 44.91667 ], [ -93.625, 44.91667 ], [ -93.70833, 44.79167 ], [ -93.79167, 44.79167 ], [ -93.79167, 44.45833 ], [ -93.75, 44.45833 ], [ -93.70833, 44.54167 ], [ -93.54167, 44.54167 ], [ -93.45833, 44.5 ], [ -93.45833, 44.375 ], [ -93.54167, 44.29167 ], [ -93.58333, 44.33333 ], [ -93.66667, 44.33333 ], [ -93.66667, 44.25 ], [ -93.58333, 44.25 ], [ -93.58333, 44.16667 ], [ -93.625, 44.125 ], [ -93.66667, 44.125 ], [ -93.66667, 43.95833 ], [ -93.58333, 43.875 ], [ -93.58333, 43.75 ], [ -93.66667, 43.70833 ], [ -93.70833, 43.79167 ], [ -93.79167, 43.875 ], [ -93.79167, 44.08333 ], [ -93.75, 44.16667 ], [ -93.83333, 44.16667 ], [ -93.83333, 44.33333 ], [ -93.875, 44.5 ], [ -93.95833, 44.41667 ], [ -94.0, 44.41667 ], [ -94.0, 44.45833 ], [ -94.08333, 44.54167 ], [ -94.16667, 44.54167 ], [ -94.25, 44.5 ], [ -94.375, 44.5 ], [ -94.41667, 44.45833 ], [ -94.41667, 44.375 ], [ -94.5, 44.375 ], [ -94.54167, 44.33333 ], [ -94.45833, 44.25 ], [ -94.41667, 44.16667 ], [ -94.41667, 44.0 ], [ -94.45833, 43.91667 ], [ -94.58333, 43.79167 ], [ -94.625, 43.70833 ], [ -94.70833, 43.70833 ], [ -94.75, 43.625 ], [ -94.75, 43.375 ], [ -94.79167, 43.29167 ], [ -94.91667, 43.29167 ], [ -94.91667, 43.25 ], [ -95.08333, 43.25 ], [ -95.08333, 43.33333 ], [ -95.20833, 43.33333 ], [ -95.20833, 43.29167 ], [ -95.33333, 43.29167 ], [ -95.33333, 43.25 ], [ -95.45833, 43.25 ], [ -95.45833, 43.20833 ], [ -95.58333, 43.20833 ], [ -95.58333, 43.16667 ], [ -95.75, 43.16667 ], [ -95.79167, 43.25 ], [ -95.91667, 43.25 ], [ -95.95833, 43.33333 ], [ -96.04167, 43.375 ], [ -96.16667, 43.5 ], [ -96.16667, 43.41667 ], [ -96.08333, 43.33333 ], [ -96.0, 43.25 ], [ -96.04167, 43.16667 ], [ -95.95833, 43.125 ], [ -95.83333, 43.125 ], [ -95.79167, 43.125 ], [ -95.70833, 43.125 ], [ -95.70833, 43.0 ], [ -95.79167, 43.0 ], [ -95.875, 42.91667 ], [ -95.83333, 42.875 ], [ -95.83333, 42.79167 ], [ -95.79167, 42.75 ], [ -95.70833, 42.75 ], [ -95.66667, 42.66667 ], [ -95.66667, 42.375 ], [ -95.54167, 42.375 ], [ -95.54167, 42.125 ], [ -95.70833, 41.95833 ], [ -95.70833, 41.875 ], [ -95.75, 41.83333 ], [ -95.83333, 41.83333 ], [ -95.875, 41.75 ], [ -95.79167, 41.75 ], [ -95.75, 41.75 ], [ -95.66667, 41.83333 ], [ -95.625, 41.83333 ], [ -95.70833, 41.66667 ], [ -95.70833, 41.54167 ], [ -95.66667, 41.5 ], [ -95.58333, 41.5 ], [ -95.58333, 41.33333 ], [ -95.41667, 41.33333 ], [ -95.33333, 41.20833 ], [ -95.375, 41.16667 ], [ -95.29167, 41.08333 ], [ -95.20833, 41.08333 ], [ -95.20833, 40.95833 ], [ -95.08333, 40.91667 ], [ -95.0, 40.95833 ], [ -94.875, 40.95833 ], [ -94.875, 40.83333 ], [ -94.91667, 40.75 ], [ -94.29167, 40.75 ], [ -94.25, 40.66667 ], [ -94.16667, 40.70833 ], [ -94.08333, 40.70833 ], [ -94.0, 40.79167 ], [ -93.75, 40.79167 ], [ -93.75, 40.75 ], [ -93.58333, 40.75 ], [ -93.54167, 40.70833 ], [ -93.33333, 40.70833 ], [ -93.25, 40.625 ], [ -93.25, 40.79167 ], [ -93.08333, 40.875 ], [ -93.0, 40.875 ], [ -92.95833, 40.95833 ], [ -92.875, 40.83333 ], [ -92.79167, 40.83333 ], [ -92.83333, 40.91667 ], [ -92.75, 41.0 ], [ -92.875, 41.0 ], [ -92.91667, 41.08333 ], [ -92.79167, 41.08333 ], [ -92.79167, 41.16667 ], [ -92.83333, 41.20833 ], [ -92.91667, 41.20833 ], [ -92.95833, 41.125 ], [ -92.95833, 41.33333 ], [ -93.0, 41.33333 ], [ -93.0, 41.375 ], [ -92.91667, 41.375 ], [ -92.875, 41.29167 ], [ -92.66667, 41.29167 ], [ -92.625, 41.33333 ], [ -92.54167, 41.29167 ], [ -92.54167, 41.33333 ], [ -92.41667, 41.33333 ], [ -92.33333, 41.29167 ], [ -92.25, 41.375 ], [ -92.16667, 41.41667 ], [ -92.08333, 41.375 ], [ -92.04167, 41.33333 ], [ -91.75, 41.33333 ], [ -91.75, 41.375 ], [ -91.625, 41.375 ], [ -91.625, 41.29167 ], [ -91.45833, 41.29167 ], [ -91.45833, 41.41667 ], [ -91.5, 41.45833 ], [ -91.70833, 41.45833 ], [ -91.75, 41.5 ], [ -91.54167, 41.5 ], [ -91.54167, 41.625 ], [ -91.58333, 41.70833 ], [ -91.5, 41.70833 ], [ -91.5, 41.625 ], [ -91.45833, 41.54167 ], [ -91.45833, 41.45833 ], [ -91.29167, 41.45833 ], [ -91.29167, 41.29167 ], [ -91.20833, 41.29167 ], [ -91.16667, 41.41667 ], [ -91.0, 41.41667 ], [ -91.0, 41.25 ], [ -90.83333, 41.08333 ], [ -90.70833, 41.08333 ], [ -90.70833, 41.0 ], [ -90.83333, 41.0 ], [ -90.875, 40.95833 ], [ -90.79167, 40.875 ], [ -90.70833, 40.83333 ], [ -90.70833, 40.79167 ], [ -90.66667, 40.75 ], [ -90.20833, 40.75 ], [ -90.25, 40.70833 ], [ -90.25, 40.58333 ], [ -89.75, 40.58333 ], [ -89.66667, 40.66667 ], [ -89.66667, 40.75 ], [ -89.58333, 40.79167 ], [ -89.54167, 40.875 ], [ -89.45833, 40.95833 ], [ -89.5, 40.875 ], [ -89.5, 40.66667 ], [ -89.54167, 40.66667 ], [ -89.54167, 40.54167 ], [ -89.45833, 40.54167 ], [ -89.41667, 40.45833 ], [ -89.20833, 40.45833 ], [ -89.125, 40.41667 ], [ -89.125, 40.33333 ], [ -89.0, 40.33333 ], [ -88.91667, 40.25 ], [ -88.91667, 40.20833 ], [ -88.66667, 40.20833 ], [ -88.58333, 40.25 ], [ -88.54167, 40.16667 ], [ -88.45833, 40.16667 ], [ -88.41667, 40.125 ], [ -88.33333, 40.16667 ], [ -88.16667, 40.16667 ], [ -88.125, 40.08333 ], [ -88.0, 40.08333 ], [ -88.0, 40.0 ], [ -87.83333, 40.0 ], [ -87.75, 39.91667 ], [ -87.75, 39.875 ], [ -87.625, 39.875 ], [ -87.625, 39.83333 ], [ -87.45833, 39.83333 ], [ -87.5, 39.75 ], [ -87.41667, 39.75 ], [ -87.41667, 39.875 ], [ -87.45833, 39.95833 ], [ -87.375, 40.0 ], [ -87.33333, 39.95833 ], [ -87.33333, 39.70833 ], [ -87.29167, 39.625 ], [ -87.25, 39.625 ], [ -87.25, 39.5 ], [ -87.20833, 39.41667 ], [ -87.16667, 39.41667 ], [ -87.08333, 39.5 ], [ -87.08333, 39.375 ], [ -86.95833, 39.375 ], [ -86.83333, 39.25 ], [ -86.91667, 39.25 ], [ -86.95833, 39.29167 ], [ -86.95833, 39.20833 ], [ -86.79167, 39.20833 ], [ -86.75, 39.25 ], [ -86.375, 39.25 ], [ -86.33333, 39.16667 ], [ -86.0, 39.16667 ], [ -86.0, 39.125 ], [ -85.54167, 39.125 ], [ -85.54167, 39.16667 ], [ -84.95833, 39.16667 ], [ -84.95833, 39.08333 ], [ -84.875, 39.08333 ], [ -84.875, 39.125 ], [ -84.79167, 39.16667 ], [ -84.79167, 39.125 ], [ -84.75, 39.125 ], [ -84.75, 39.16667 ], [ -84.70833, 39.125 ], [ -84.625, 39.125 ], [ -84.58333, 39.16667 ], [ -84.58333, 39.25 ], [ -84.5, 39.375 ], [ -84.41667, 39.375 ], [ -84.375, 39.33333 ], [ -84.375, 39.20833 ], [ -84.25, 39.20833 ], [ -84.25, 39.16667 ], [ -84.25, 39.125 ], [ -84.16667, 39.04167 ], [ -83.91667, 39.04167 ], [ -83.875, 39.0 ], [ -83.91667, 38.91667 ], [ -83.75, 38.91667 ], [ -83.70833, 38.875 ], [ -83.70833, 38.79167 ], [ -83.45833, 38.79167 ], [ -83.41667, 38.70833 ], [ -83.33333, 38.70833 ], [ -83.20833, 38.625 ], [ -83.25, 38.54167 ], [ -83.16667, 38.54167 ], [ -83.25, 38.45833 ], [ -83.33333, 38.5 ], [ -83.375, 38.54167 ], [ -83.45833, 38.54167 ], [ -83.54167, 38.45833 ], [ -83.5, 38.41667 ], [ -83.45833, 38.29167 ], [ -83.375, 38.29167 ], [ -83.375, 38.08333 ], [ -83.20833, 38.08333 ], [ -83.16667, 38.20833 ], [ -83.25, 38.29167 ], [ -83.125, 38.41667 ], [ -83.125, 38.375 ], [ -83.0, 38.375 ], [ -83.04167, 38.29167 ], [ -82.875, 38.29167 ], [ -82.83333, 38.33333 ], [ -82.83333, 38.45833 ], [ -82.79167, 38.45833 ], [ -82.79167, 38.33333 ], [ -82.75, 38.33333 ], [ -82.75, 38.5 ], [ -82.70833, 38.5 ], [ -82.70833, 38.58333 ], [ -82.66667, 38.54167 ], [ -82.5, 38.70833 ], [ -82.41667, 38.70833 ], [ -82.41667, 38.625 ], [ -82.33333, 38.625 ], [ -82.29167, 38.54167 ], [ -82.125, 38.54167 ], [ -82.04167, 38.58333 ], [ -82.0, 38.58333 ], [ -81.95833, 38.625 ], [ -81.91667, 38.70833 ], [ -81.95833, 38.75 ], [ -81.95833, 38.875 ], [ -81.91667, 38.875 ], [ -81.91667, 39.5 ], [ -82.0, 39.54167 ], [ -82.0, 39.66667 ], [ -81.875, 39.70833 ], [ -81.875, 39.75 ], [ -81.79167, 39.79167 ], [ -81.79167, 39.875 ], [ -81.75, 39.91667 ], [ -81.83333, 40.0 ], [ -82.08333, 40.0 ], [ -82.08333, 39.91667 ], [ -82.16667, 39.83333 ], [ -82.16667, 39.75 ], [ -82.25, 39.75 ], [ -82.25, 39.875 ], [ -82.29167, 39.875 ], [ -82.41667, 40.0 ], [ -82.41667, 40.29167 ], [ -82.45833, 40.29167 ], [ -82.45833, 40.41667 ], [ -82.625, 40.58333 ], [ -82.70833, 40.58333 ], [ -82.70833, 40.70833 ], [ -82.625, 40.875 ], [ -82.54167, 40.875 ], [ -82.54167, 41.0 ], [ -82.45833, 41.04167 ], [ -82.45833, 41.16667 ], [ -82.45833, 41.20833 ], [ -82.375, 41.25 ], [ -82.41667, 41.33333 ], [ -82.375, 41.375 ], [ -82.58333, 41.375 ], [ -82.58333, 41.41667 ], [ -82.66667, 41.45833 ], [ -82.83333, 41.45833 ], [ -82.83333, 41.41667 ], [ -83.0, 41.41667 ], [ -83.0, 41.45833 ], [ -83.08333, 41.5 ], [ -83.0, 41.54167 ], [ -83.25, 41.66667 ], [ -83.41667, 41.66667 ], [ -83.5, 41.70833 ], [ -83.45833, 41.79167 ], [ -83.20833, 42.04167 ], [ -83.20833, 42.16667 ], [ -83.16667, 42.16667 ], [ -83.16667, 42.29167 ], [ -83.08333, 42.375 ], [ -82.95833, 42.375 ], [ -82.95833, 42.54167 ], [ -82.91667, 42.54167 ], [ -82.91667, 42.79167 ], [ -83.0, 42.91667 ], [ -82.95833, 42.95833 ], [ -83.16667, 42.95833 ], [ -83.33333, 42.95833 ], [ -83.41667, 42.91667 ], [ -83.41667, 42.75 ], [ -83.45833, 42.70833 ], [ -83.625, 42.70833 ], [ -83.625, 42.66667 ], [ -84.0, 42.66667 ], [ -84.0, 42.83333 ], [ -83.91667, 42.875 ], [ -83.95833, 42.95833 ], [ -83.95833, 43.16667 ], [ -83.91667, 43.16667 ], [ -83.91667, 43.33333 ], [ -83.875, 43.375 ], [ -83.75, 43.375 ], [ -83.79167, 43.45833 ], [ -83.79167, 43.58333 ], [ -83.83333, 43.625 ], [ -83.95833, 43.625 ], [ -83.95833, 43.58333 ], [ -84.08333, 43.58333 ], [ -84.125, 43.5 ], [ -84.16667, 43.5 ], [ -84.16667, 43.625 ], [ -84.20833, 43.70833 ], [ -84.08333, 43.70833 ], [ -84.08333, 43.75 ], [ -84.125, 43.83333 ], [ -84.16667, 43.75 ], [ -84.29167, 43.75 ], [ -84.375, 43.875 ], [ -84.45833, 43.875 ], [ -84.5, 43.83333 ], [ -84.625, 43.83333 ], [ -84.625, 43.875 ], [ -84.75, 43.875 ], [ -84.83333, 43.79167 ], [ -84.83333, 43.75 ], [ -84.95833, 43.75 ], [ -84.95833, 43.70833 ], [ -85.16667, 43.70833 ], [ -85.16667, 43.79167 ], [ -85.25, 43.79167 ], [ -85.25, 43.875 ], [ -85.29167, 43.91667 ], [ -85.625, 43.91667 ], [ -85.625, 43.95833 ], [ -85.66667, 43.95833 ], [ -85.66667, 44.125 ], [ -85.75, 44.20833 ], [ -85.75, 44.375 ], [ -85.625, 44.375 ], [ -85.58333, 44.45833 ], [ -85.70833, 44.45833 ], [ -85.75, 44.54167 ], [ -85.70833, 44.625 ], [ -85.83333, 44.75 ], [ -85.83333, 44.83333 ], [ -85.79167, 44.83333 ], [ -85.79167, 44.91667 ], [ -86.04167, 44.91667 ], [ -86.08333, 44.83333 ], [ -86.08333, 44.70833 ], [ -86.20833, 44.66667 ], [ -86.20833, 44.5 ], [ -86.25, 44.5 ], [ -86.25, 44.33333 ], [ -86.29167, 44.25 ], [ -86.375, 44.20833 ], [ -86.375, 44.125 ], [ -86.45833, 44.125 ], [ -86.5, 44.08333 ], [ -86.41667, 44.0 ], [ -86.41667, 43.75 ], [ -86.5, 43.625 ], [ -86.375, 43.375 ], [ -86.375, 43.29167 ], [ -86.25, 43.29167 ], [ -86.25, 43.04167 ], [ -86.20833, 43.04167 ], [ -86.20833, 42.58333 ], [ -86.25, 42.58333 ], [ -86.25, 42.41667 ], [ -86.33333, 42.25 ], [ -86.41667, 42.16667 ], [ -86.45833, 42.08333 ], [ -86.54167, 42.04167 ], [ -86.54167, 41.95833 ], [ -86.625, 41.91667 ], [ -86.625, 41.83333 ], [ -86.70833, 41.83333 ], [ -86.75, 41.75 ], [ -86.83333, 41.70833 ], [ -86.95833, 41.70833 ], [ -86.95833, 41.66667 ], [ -87.08333, 41.66667 ], [ -87.08333, 41.625 ], [ -87.45833, 41.625 ], [ -87.625, 41.79167 ], [ -87.66667, 41.875 ], [ -87.66667, 42.04167 ], [ -87.70833, 42.04167 ], [ -87.83333, 42.16667 ], [ -87.83333, 42.70833 ], [ -87.79167, 42.79167 ], [ -87.875, 42.83333 ], [ -87.875, 43.0 ], [ -87.91667, 43.0 ], [ -87.91667, 43.375 ], [ -87.83333, 43.45833 ], [ -87.83333, 43.58333 ], [ -87.79167, 43.66667 ], [ -87.70833, 43.70833 ], [ -87.75, 43.79167 ], [ -87.75, 43.95833 ], [ -87.70833, 43.95833 ], [ -87.70833, 44.08333 ], [ -87.66667, 44.125 ], [ -87.875, 44.125 ], [ -87.875, 44.16667 ], [ -87.91667, 44.16667 ], [ -87.95833, 44.08333 ], [ -88.04167, 44.125 ], [ -88.16667, 44.125 ], [ -88.20833, 44.16667 ], [ -88.29167, 44.16667 ], [ -88.33333, 44.20833 ], [ -88.33333, 44.29167 ], [ -88.375, 44.33333 ], [ -88.375, 44.45833 ], [ -88.33333, 44.5 ], [ -88.29167, 44.5 ], [ -88.45833, 44.5 ], [ -88.5, 44.58333 ], [ -88.66667, 44.58333 ], [ -88.66667, 44.66667 ], [ -88.75, 44.66667 ], [ -88.79167, 44.58333 ], [ -89.0, 44.58333 ], [ -89.0, 44.54167 ], [ -89.375, 44.54167 ], [ -89.375, 44.58333 ], [ -89.5, 44.58333 ], [ -89.58333, 44.625 ], [ -89.66667, 44.70833 ], [ -89.66667, 44.54167 ], [ -89.75, 44.45833 ], [ -89.875, 44.45833 ], [ -89.91667, 44.375 ], [ -90.04167, 44.375 ], [ -90.125, 44.33333 ], [ -90.16667, 44.29167 ], [ -90.16667, 44.33333 ], [ -90.20833, 44.29167 ], [ -90.29167, 44.375 ], [ -90.5, 44.375 ], [ -90.58333, 44.41667 ], [ -90.58333, 44.5 ], [ -90.66667, 44.54167 ], [ -90.79167, 44.54167 ], [ -90.875, 44.58333 ], [ -90.91667, 44.66667 ], [ -91.04167, 44.66667 ], [ -91.08333, 44.70833 ], [ -91.08333, 44.79167 ], [ -91.16667, 44.79167 ], [ -91.20833, 44.875 ], [ -91.125, 44.95833 ], [ -91.25, 45.08333 ], [ -91.33333, 45.08333 ], [ -91.375, 45.16667 ], [ -91.54167, 45.16667 ], [ -91.58333, 45.125 ], [ -91.66667, 45.20833 ], [ -91.66667, 45.29167 ], [ -91.625, 45.33333 ], [ -91.70833, 45.41667 ], [ -91.70833, 45.25 ], [ -91.91667, 45.25 ], [ -91.91667, 45.20833 ], [ -92.16667, 45.20833 ], [ -92.25, 45.25 ], [ -92.25, 45.375 ], [ -92.33333, 45.375 ], [ -92.41667, 45.41667 ], [ -92.45833, 45.375 ], [ -92.54167, 45.45833 ], [ -92.625, 45.45833 ] ], [ [ -92.91667, 44.79167 ], [ -92.79167, 44.79167 ], [ -92.79167, 44.75 ], [ -92.91667, 44.75 ], [ -92.91667, 44.79167 ] ], [ [ -94.125, 44.41667 ], [ -94.08333, 44.41667 ], [ -94.08333, 44.29167 ], [ -94.16667, 44.29167 ], [ -94.25, 44.33333 ], [ -94.125, 44.41667 ] ], [ [ -95.45833, 41.95833 ], [ -95.41667, 42.0 ], [ -95.41667, 42.08333 ], [ -95.33333, 42.08333 ], [ -95.29167, 42.04167 ], [ -95.29167, 41.95833 ], [ -95.45833, 41.95833 ] ], [ [ -95.625, 41.83333 ], [ -95.625, 41.91667 ], [ -95.58333, 41.95833 ], [ -95.45833, 41.95833 ], [ -95.54167, 41.91667 ], [ -95.625, 41.83333 ] ], [ [ -93.66667, 41.54167 ], [ -93.79167, 41.54167 ], [ -93.83333, 41.625 ], [ -93.75, 41.70833 ], [ -93.625, 41.70833 ], [ -93.625, 41.66667 ], [ -93.54167, 41.58333 ], [ -93.625, 41.54167 ], [ -93.625, 41.5 ], [ -93.66667, 41.5 ], [ -93.66667, 41.54167 ] ], [ [ -90.625, 41.58333 ], [ -90.41667, 41.58333 ], [ -90.375, 41.54167 ], [ -90.41667, 41.45833 ], [ -90.625, 41.45833 ], [ -90.625, 41.58333 ] ], [ [ -89.0, 40.54167 ], [ -88.91667, 40.54167 ], [ -88.91667, 40.45833 ], [ -89.04167, 40.45833 ], [ -89.0, 40.54167 ] ], [ [ -87.66667, 40.16667 ], [ -87.58333, 40.16667 ], [ -87.54167, 40.125 ], [ -87.58333, 40.04167 ], [ -87.66667, 40.04167 ], [ -87.66667, 40.16667 ] ], [ [ -83.04167, 40.0 ], [ -82.95833, 40.0 ], [ -82.95833, 39.91667 ], [ -83.04167, 39.91667 ], [ -83.04167, 40.0 ] ], [ [ -86.125, 39.95833 ], [ -86.04167, 39.91667 ], [ -86.04167, 39.75 ], [ -86.08333, 39.75 ], [ -86.08333, 39.58333 ], [ -86.16667, 39.58333 ], [ -86.33333, 39.75 ], [ -86.25, 39.83333 ], [ -86.25, 39.91667 ], [ -86.125, 39.91667 ], [ -86.125, 39.95833 ] ], [ [ -84.25, 39.79167 ], [ -84.125, 39.79167 ], [ -84.125, 39.70833 ], [ -84.20833, 39.70833 ], [ -84.25, 39.79167 ] ], [ [ -85.95833, 39.25 ], [ -85.83333, 39.25 ], [ -85.83333, 39.16667 ], [ -85.95833, 39.16667 ], [ -85.95833, 39.25 ] ] ], [ [ [ -83.625, 37.79167 ], [ -83.625, 37.75 ], [ -83.5, 37.75 ], [ -83.5, 37.79167 ], [ -83.625, 37.79167 ] ] ], [ [ [ -82.25, 37.375 ], [ -82.29167, 37.29167 ], [ -82.25, 37.29167 ], [ -82.25, 37.375 ] ] ], [ [ [ -82.625, 37.375 ], [ -82.70833, 37.375 ], [ -82.75, 37.29167 ], [ -82.70833, 37.25 ], [ -82.625, 37.25 ], [ -82.625, 37.375 ] ] ], [ [ [ -80.58333, 37.54167 ], [ -80.66667, 37.54167 ], [ -80.70833, 37.625 ], [ -80.83333, 37.625 ], [ -80.83333, 37.54167 ], [ -80.95833, 37.54167 ], [ -80.95833, 37.5 ], [ -81.125, 37.5 ], [ -81.16667, 37.41667 ], [ -81.25, 37.41667 ], [ -81.33333, 37.33333 ], [ -81.33333, 37.25 ], [ -81.20833, 37.25 ], [ -81.25, 37.16667 ], [ -81.16667, 37.16667 ], [ -81.20833, 37.04167 ], [ -81.125, 37.04167 ], [ -81.20833, 37.0 ], [ -81.25, 36.875 ], [ -81.125, 36.875 ], [ -81.125, 36.91667 ], [ -81.0, 36.91667 ], [ -81.0, 36.875 ], [ -80.91667, 36.91667 ], [ -80.79167, 36.91667 ], [ -80.75, 37.0 ], [ -80.66667, 37.04167 ], [ -80.66667, 37.125 ], [ -80.58333, 37.25 ], [ -80.58333, 37.33333 ], [ -80.75, 37.41667 ], [ -80.66667, 37.45833 ], [ -80.58333, 37.54167 ] ], [ [ -80.79167, 37.29167 ], [ -80.79167, 37.20833 ], [ -80.91667, 37.20833 ], [ -80.91667, 37.29167 ], [ -80.79167, 37.29167 ] ], [ [ -81.125, 37.04167 ], [ -81.125, 37.08333 ], [ -81.0, 37.08333 ], [ -81.0, 37.04167 ], [ -81.125, 37.04167 ] ] ], [ [ [ -82.91667, 37.375 ], [ -82.91667, 37.20833 ], [ -82.91667, 37.16667 ], [ -82.91667, 37.08333 ], [ -82.95833, 37.0 ], [ -83.125, 37.08333 ], [ -83.33333, 37.08333 ], [ -83.33333, 36.95833 ], [ -83.20833, 36.95833 ], [ -83.20833, 37.0 ], [ -83.08333, 37.0 ], [ -83.08333, 36.95833 ], [ -82.91667, 36.95833 ], [ -82.91667, 37.0 ], [ -82.83333, 37.04167 ], [ -82.75, 37.0 ], [ -82.83333, 36.95833 ], [ -82.83333, 36.875 ], [ -82.95833, 36.875 ], [ -82.95833, 36.83333 ], [ -83.08333, 36.83333 ], [ -83.08333, 36.75 ], [ -83.04167, 36.79167 ], [ -82.875, 36.79167 ], [ -82.875, 36.75 ], [ -82.79167, 36.75 ], [ -82.79167, 36.875 ], [ -82.75, 36.83333 ], [ -82.66667, 36.91667 ], [ -82.45833, 36.91667 ], [ -82.5, 36.875 ], [ -82.5, 36.79167 ], [ -82.54167, 36.83333 ], [ -82.66667, 36.83333 ], [ -82.66667, 36.75 ], [ -82.625, 36.75 ], [ -82.70833, 36.70833 ], [ -82.70833, 36.79167 ], [ -82.75, 36.79167 ], [ -82.75, 36.66667 ], [ -82.70833, 36.625 ], [ -82.45833, 36.625 ], [ -82.29167, 36.54167 ], [ -82.29167, 36.58333 ], [ -82.20833, 36.625 ], [ -82.125, 36.625 ], [ -82.08333, 36.58333 ], [ -82.08333, 36.75 ], [ -82.0, 36.79167 ], [ -82.20833, 36.79167 ], [ -82.16667, 36.875 ], [ -82.08333, 36.91667 ], [ -82.0, 37.0 ], [ -82.25, 37.0 ], [ -82.25, 37.08333 ], [ -82.16667, 37.08333 ], [ -82.16667, 37.20833 ], [ -82.25, 37.16667 ], [ -82.29167, 37.20833 ], [ -82.29167, 37.29167 ], [ -82.33333, 37.20833 ], [ -82.33333, 37.125 ], [ -82.45833, 37.125 ], [ -82.45833, 37.29167 ], [ -82.58333, 37.29167 ], [ -82.58333, 37.08333 ], [ -82.66667, 37.08333 ], [ -82.625, 37.16667 ], [ -82.66667, 37.20833 ], [ -82.75, 37.20833 ], [ -82.75, 37.29167 ], [ -82.83333, 37.25 ], [ -82.83333, 37.33333 ], [ -82.91667, 37.375 ] ], [ [ -82.45833, 37.0 ], [ -82.33333, 37.0 ], [ -82.33333, 36.95833 ], [ -82.45833, 36.95833 ], [ -82.45833, 37.0 ] ] ], [ [ [ -82.875, 36.0 ], [ -82.875, 35.95833 ], [ -82.875, 35.91667 ], [ -82.875, 35.83333 ], [ -82.75, 35.83333 ], [ -82.75, 35.75 ], [ -82.70833, 35.70833 ], [ -82.58333, 35.70833 ], [ -82.54167, 35.79167 ], [ -82.58333, 35.83333 ], [ -82.70833, 35.83333 ], [ -82.66667, 35.91667 ], [ -82.75, 36.0 ], [ -82.875, 36.0 ] ] ] ] } },
{ "type": "Feature", "properties": { "ID": 5 }, "geometry": { "type": "MultiPolygon", "coordinates": [ [ [ [ -96.875, 46.91667 ], [ -96.875, 46.83333 ], [ -96.79167, 46.83333 ], [ -96.75, 46.91667 ], [ -96.875, 46.91667 ] ] ], [ [ [ -96.70833, 45.375 ], [ -96.58333, 45.375 ], [ -96.66667, 45.45833 ], [ -96.66667, 45.58333 ], [ -96.75, 45.58333 ], [ -96.70833, 45.66667 ], [ -96.79167, 45.83333 ], [ -96.79167, 45.875 ], [ -96.875, 45.95833 ], [ -97.16667, 45.95833 ], [ -97.16667, 46.0 ], [ -97.54167, 46.0 ], [ -97.54167, 45.95833 ], [ -97.41667, 45.95833 ], [ -97.33333, 45.875 ], [ -97.25, 45.83333 ], [ -97.20833, 45.75 ], [ -97.125, 45.75 ], [ -97.125, 45.66667 ], [ -97.04167, 45.625 ], [ -97.04167, 45.5 ], [ -96.95833, 45.45833 ], [ -96.95833, 45.375 ], [ -96.875, 45.375 ], [ -96.875, 45.29167 ], [ -96.79167, 45.25 ], [ -96.79167, 45.16667 ], [ -96.75, 45.125 ], [ -96.66667, 45.125 ], [ -96.66667, 45.04167 ], [ -96.54167, 45.04167 ], [ -96.58333, 45.125 ], [ -96.54167, 45.20833 ], [ -96.5, 45.20833 ], [ -96.54167, 45.25 ], [ -96.58333, 45.33333 ], [ -96.70833, 45.33333 ], [ -96.70833, 45.375 ] ] ], [ [ [ -95.70833, 45.45833 ], [ -95.75, 45.41667 ], [ -95.75, 45.33333 ], [ -95.83333, 45.33333 ], [ -95.875, 45.29167 ], [ -95.83333, 45.20833 ], [ -95.83333, 45.08333 ], [ -95.79167, 45.04167 ], [ -95.70833, 45.04167 ], [ -95.625, 44.95833 ], [ -95.45833, 44.875 ], [ -95.375, 44.91667 ], [ -95.29167, 45.0 ], [ -95.29167, 45.25 ], [ -95.41667, 45.29167 ], [ -95.41667, 45.375 ], [ -95.45833, 45.41667 ], [ -95.58333, 45.41667 ], [ -95.58333, 45.45833 ], [ -95.70833, 45.45833 ] ] ], [ [ [ -97.54167, 45.95833 ], [ -97.875, 45.95833 ], [ -97.95833, 45.91667 ], [ -97.95833, 45.83333 ], [ -98.08333, 45.83333 ], [ -98.16667, 45.875 ], [ -98.20833, 45.79167 ], [ -98.29167, 45.79167 ], [ -98.29167, 45.70833 ], [ -98.33333, 45.70833 ], [ -98.33333, 45.58333 ], [ -98.25, 45.5 ], [ -98.25, 45.375 ], [ -98.20833, 45.375 ], [ -98.20833, 45.20833 ], [ -98.16667, 45.20833 ], [ -98.16667, 45.08333 ], [ -98.125, 45.0 ], [ -98.0, 44.875 ], [ -97.95833, 44.79167 ], [ -97.875, 44.70833 ], [ -97.79167, 44.54167 ], [ -97.70833, 44.54167 ], [ -97.66667, 44.45833 ], [ -97.66667, 44.375 ], [ -97.58333, 44.33333 ], [ -97.58333, 44.25 ], [ -97.5, 44.16667 ], [ -97.45833, 44.16667 ], [ -97.45833, 44.375 ], [ -97.54167, 44.375 ], [ -97.54167, 44.5 ], [ -97.79167, 44.75 ], [ -97.79167, 44.875 ], [ -97.83333, 44.875 ], [ -97.83333, 45.04167 ], [ -97.91667, 45.08333 ], [ -97.91667, 45.29167 ], [ -97.79167, 45.54167 ], [ -97.70833, 45.58333 ], [ -97.70833, 45.66667 ], [ -97.625, 45.83333 ], [ -97.54167, 45.875 ], [ -97.54167, 45.95833 ] ] ], [ [ [ -97.625, 42.83333 ], [ -97.70833, 42.75 ], [ -97.70833, 42.54167 ], [ -97.66667, 42.5 ], [ -97.45833, 42.5 ], [ -97.375, 42.58333 ], [ -97.375, 42.79167 ], [ -97.41667, 42.83333 ], [ -97.625, 42.83333 ] ] ], [ [ [ -95.45833, 41.95833 ], [ -95.29167, 41.95833 ], [ -95.29167, 42.04167 ], [ -95.33333, 42.08333 ], [ -95.41667, 42.08333 ], [ -95.41667, 42.0 ], [ -95.45833, 41.95833 ] ] ], [ [ [ -95.45833, 41.95833 ], [ -95.58333, 41.95833 ], [ -95.625, 41.91667 ], [ -95.625, 41.83333 ], [ -95.54167, 41.91667 ], [ -95.45833, 41.95833 ] ] ], [ [ [ -93.625, 41.70833 ], [ -93.75, 41.70833 ], [ -93.83333, 41.625 ], [ -93.79167, 41.54167 ], [ -93.66667, 41.54167 ], [ -93.66667, 41.58333 ], [ -93.625, 41.58333 ], [ -93.625, 41.70833 ] ] ], [ [ [ -97.375, 44.08333 ], [ -97.41667, 44.08333 ], [ -97.41667, 43.91667 ], [ -97.375, 43.91667 ], [ -97.375, 43.70833 ], [ -97.33333, 43.70833 ], [ -97.33333, 43.58333 ], [ -97.29167, 43.58333 ], [ -97.29167, 43.45833 ], [ -97.25, 43.45833 ], [ -97.25, 43.16667 ], [ -97.29167, 43.16667 ], [ -97.29167, 43.04167 ], [ -97.25, 43.04167 ], [ -97.25, 42.91667 ], [ -97.125, 42.79167 ], [ -97.08333, 42.70833 ], [ -96.95833, 42.58333 ], [ -96.91667, 42.5 ], [ -96.70833, 42.29167 ], [ -96.70833, 42.04167 ], [ -96.66667, 42.04167 ], [ -96.66667, 41.91667 ], [ -96.58333, 41.75 ], [ -96.54167, 41.75 ], [ -96.54167, 41.625 ], [ -96.41667, 41.375 ], [ -96.375, 41.375 ], [ -96.375, 41.04167 ], [ -96.25, 40.91667 ], [ -96.20833, 40.91667 ], [ -96.20833, 40.79167 ], [ -96.25, 40.70833 ], [ -96.29167, 40.70833 ], [ -96.29167, 40.58333 ], [ -96.25, 40.58333 ], [ -96.25, 39.95833 ], [ -96.16667, 39.875 ], [ -96.125, 39.95833 ], [ -95.95833, 39.95833 ], [ -95.91667, 40.0 ], [ -95.91667, 40.08333 ], [ -95.75, 40.16667 ], [ -95.5, 40.16667 ], [ -95.5, 40.29167 ], [ -95.45833, 40.25 ], [ -95.375, 40.25 ], [ -95.375, 40.41667 ], [ -95.45833, 40.375 ], [ -95.45833, 40.45833 ], [ -95.54167, 40.45833 ], [ -95.58333, 40.54167 ], [ -95.58333, 40.70833 ], [ -95.625, 40.75 ], [ -95.625, 40.83333 ], [ -95.41667, 40.83333 ], [ -95.33333, 40.875 ], [ -95.33333, 40.95833 ], [ -95.25, 41.04167 ], [ -95.20833, 41.04167 ], [ -95.20833, 41.08333 ], [ -95.29167, 41.08333 ], [ -95.375, 41.16667 ], [ -95.33333, 41.20833 ], [ -95.41667, 41.33333 ], [ -95.58333, 41.33333 ], [ -95.58333, 41.5 ], [ -95.66667, 41.5 ], [ -95.70833, 41.54167 ], [ -95.70833, 41.66667 ], [ -95.625, 41.83333 ], [ -95.66667, 41.83333 ], [ -95.75, 41.75 ], [ -95.79167, 41.75 ], [ -95.875, 41.75 ], [ -95.83333, 41.83333 ], [ -95.75, 41.83333 ], [ -95.70833, 41.875 ], [ -95.70833, 41.95833 ], [ -95.54167, 42.125 ], [ -95.54167, 42.375 ], [ -95.66667, 42.375 ], [ -95.66667, 42.66667 ], [ -95.70833, 42.75 ], [ -95.79167, 42.75 ], [ -95.83333, 42.79167 ], [ -95.83333, 42.875 ], [ -95.875, 42.91667 ], [ -95.79167, 43.0 ], [ -95.70833, 43.0 ], [ -95.70833, 43.125 ], [ -95.79167, 43.125 ], [ -95.83333, 43.125 ], [ -95.95833, 43.125 ], [ -96.04167, 43.16667 ], [ -96.0, 43.25 ], [ -96.08333, 43.33333 ], [ -96.16667, 43.41667 ], [ -96.25, 43.375 ], [ -96.29167, 43.45833 ], [ -96.45833, 43.45833 ], [ -96.45833, 43.58333 ], [ -96.54167, 43.66667 ], [ -96.66667, 43.66667 ], [ -96.66667, 43.70833 ], [ -97.125, 43.70833 ], [ -97.125, 43.79167 ], [ -97.25, 43.91667 ], [ -97.33333, 43.91667 ], [ -97.375, 43.95833 ], [ -97.375, 44.08333 ] ], [ [ -96.04167, 40.08333 ], [ -96.0, 40.0 ], [ -96.08333, 40.0 ], [ -96.04167, 40.08333 ] ] ] ] } },
{ "type": "Feature", "properties": { "ID": 6 }, "geometry": { "type": "GeometryCollection", "geometries": [ { "type": "MultiPolygon", "coordinates": [ [ [ [ -86.20833, 34.375 ], [ -86.375, 34.375 ], [ -86.25, 34.45833 ], [ -86.20833, 34.375 ] ] ], [ [ [ -92.95833, 36.58333 ], [ -93.0, 36.66667 ], [ -92.91667, 36.70833 ], [ -92.83333, 36.66667 ], [ -92.79167, 36.625 ], [ -92.79167, 36.58333 ], [ -92.95833, 36.58333 ] ] ], [ [ [ -92.25, 36.875 ], [ -92.33333, 36.91667 ], [ -92.33333, 37.0 ], [ -92.45833, 37.0 ], [ -92.45833, 37.04167 ], [ -92.58333, 37.04167 ], [ -92.54167, 37.125 ], [ -92.54167, 37.20833 ], [ -92.45833, 37.25 ], [ -92.45833, 37.33333 ], [ -92.375, 37.33333 ], [ -92.33333, 37.375 ], [ -92.25, 37.33333 ], [ -92.16667, 37.33333 ], [ -92.08333, 37.29167 ], [ -92.04167, 37.20833 ], [ -92.125, 37.20833 ], [ -92.125, 37.08333 ], [ -92.08333, 37.08333 ], [ -92.04167, 37.16667 ], [ -91.95833, 37.08333 ], [ -91.95833, 37.04167 ], [ -92.08333, 37.04167 ], [ -92.08333, 36.95833 ], [ -92.04167, 36.91667 ], [ -91.95833, 37.0 ], [ -91.875, 37.04167 ], [ -91.83333, 37.125 ], [ -91.75, 37.125 ], [ -91.66667, 37.08333 ], [ -91.66667, 37.16667 ], [ -91.58333, 37.16667 ], [ -91.58333, 37.25 ], [ -91.5, 37.25 ], [ -91.5, 37.33333 ], [ -91.54167, 37.375 ], [ -91.29167, 37.375 ], [ -91.25, 37.375 ], [ -91.08333, 37.375 ], [ -91.125, 37.45833 ], [ -91.0, 37.54167 ], [ -90.875, 37.54167 ], [ -90.875, 37.66667 ], [ -90.625, 37.66667 ], [ -90.625, 37.70833 ], [ -90.5, 37.70833 ], [ -90.5, 37.66667 ], [ -90.375, 37.66667 ], [ -90.375, 37.70833 ], [ -90.20833, 37.70833 ], [ -90.20833, 37.75 ], [ -90.08333, 37.75 ], [ -90.08333, 37.70833 ], [ -89.91667, 37.70833 ], [ -89.83333, 37.75 ], [ -89.83333, 37.83333 ], [ -89.75, 37.91667 ], [ -89.66667, 37.875 ], [ -89.625, 37.91667 ], [ -89.625, 38.0 ], [ -89.54167, 38.04167 ], [ -89.45833, 38.04167 ], [ -89.375, 38.0 ], [ -89.33333, 38.08333 ], [ -89.25, 38.04167 ], [ -89.125, 38.04167 ], [ -89.08333, 38.125 ], [ -88.95833, 38.125 ], [ -88.95833, 38.04167 ], [ -88.875, 38.08333 ], [ -88.75, 38.08333 ], [ -88.75, 38.16667 ], [ -88.58333, 38.16667 ], [ -88.54167, 38.20833 ], [ -88.54167, 38.29167 ], [ -88.5, 38.33333 ], [ -88.41667, 38.33333 ], [ -88.41667, 38.5 ], [ -88.33333, 38.5 ], [ -88.29167, 38.58333 ], [ -88.125, 38.66667 ], [ -88.04167, 38.75 ], [ -87.83333, 38.75 ], [ -87.83333, 38.79167 ], [ -87.625, 38.79167 ], [ -87.54167, 38.875 ], [ -87.41667, 38.875 ], [ -87.25, 39.04167 ], [ -87.16667, 39.08333 ], [ -86.95833, 39.08333 ], [ -86.95833, 39.16667 ], [ -86.91667, 39.20833 ], [ -86.79167, 39.20833 ], [ -86.75, 39.25 ], [ -86.375, 39.25 ], [ -86.33333, 39.16667 ], [ -86.0, 39.16667 ], [ -86.0, 39.125 ], [ -85.54167, 39.125 ], [ -85.54167, 39.16667 ], [ -84.95833, 39.16667 ], [ -84.95833, 39.08333 ], [ -84.91667, 39.08333 ], [ -84.79167, 39.08333 ], [ -84.79167, 39.0 ], [ -84.66667, 39.0 ], [ -84.66667, 38.95833 ], [ -84.54167, 38.95833 ], [ -84.54167, 39.0 ], [ -84.5, 39.0 ], [ -84.45833, 39.0 ], [ -84.375, 39.08333 ], [ -84.375, 39.16667 ], [ -84.41667, 39.20833 ], [ -84.25, 39.20833 ], [ -84.25, 39.16667 ], [ -84.25, 39.125 ], [ -84.16667, 39.04167 ], [ -83.91667, 39.04167 ], [ -83.875, 39.0 ], [ -83.91667, 38.91667 ], [ -83.75, 38.91667 ], [ -83.70833, 38.875 ], [ -83.70833, 38.79167 ], [ -83.45833, 38.79167 ], [ -83.41667, 38.70833 ], [ -83.33333, 38.70833 ], [ -83.20833, 38.625 ], [ -83.25, 38.54167 ], [ -83.16667, 38.54167 ], [ -83.25, 38.45833 ], [ -83.33333, 38.5 ], [ -83.375, 38.54167 ], [ -83.45833, 38.54167 ], [ -83.54167, 38.45833 ], [ -83.5, 38.41667 ], [ -83.45833, 38.29167 ], [ -83.375, 38.29167 ], [ -83.375, 38.08333 ], [ -83.20833, 38.08333 ], [ -83.16667, 38.20833 ], [ -83.25, 38.29167 ], [ -83.125, 38.41667 ], [ -83.125, 38.375 ], [ -83.0, 38.375 ], [ -83.04167, 38.29167 ], [ -82.875, 38.29167 ], [ -82.83333, 38.33333 ], [ -82.83333, 38.45833 ], [ -82.79167, 38.45833 ], [ -82.79167, 38.33333 ], [ -82.75, 38.33333 ], [ -82.75, 38.5 ], [ -82.66667, 38.5 ], [ -82.66667, 38.54167 ], [ -82.5, 38.70833 ], [ -82.41667, 38.70833 ], [ -82.41667, 38.625 ], [ -82.33333, 38.625 ], [ -82.29167, 38.54167 ], [ -82.125, 38.54167 ], [ -82.04167, 38.58333 ], [ -82.0, 38.58333 ], [ -81.91667, 38.58333 ], [ -81.83333, 38.54167 ], [ -81.91667, 38.5 ], [ -81.83333, 38.45833 ], [ -81.83333, 38.41667 ], [ -82.0, 38.41667 ], [ -82.0, 38.33333 ], [ -82.08333, 38.33333 ], [ -82.08333, 38.25 ], [ -82.16667, 38.25 ], [ -82.16667, 38.16667 ], [ -82.29167, 38.16667 ], [ -82.29167, 38.04167 ], [ -82.375, 38.08333 ], [ -82.375, 37.83333 ], [ -82.33333, 37.83333 ], [ -82.33333, 37.70833 ], [ -82.29167, 37.66667 ], [ -82.33333, 37.66667 ], [ -82.33333, 37.45833 ], [ -82.25, 37.45833 ], [ -82.25, 37.375 ], [ -82.29167, 37.29167 ], [ -82.33333, 37.20833 ], [ -82.33333, 37.125 ], [ -82.45833, 37.125 ], [ -82.45833, 37.29167 ], [ -82.58333, 37.29167 ], [ -82.58333, 37.08333 ], [ -82.66667, 37.08333 ], [ -82.625, 37.16667 ], [ -82.66667, 37.20833 ], [ -82.75, 37.20833 ], [ -82.75, 37.29167 ], [ -82.83333, 37.25 ], [ -82.83333, 37.33333 ], [ -82.91667, 37.375 ], [ -82.91667, 37.20833 ], [ -82.91667, 37.16667 ], [ -82.91667, 37.08333 ], [ -82.95833, 37.0 ], [ -83.125, 37.08333 ], [ -83.33333, 37.08333 ], [ -83.33333, 37.0 ], [ -83.5, 37.0 ], [ -83.58333, 36.95833 ], [ -83.625, 36.875 ], [ -83.625, 36.79167 ], [ -83.54167, 36.79167 ], [ -83.54167, 36.70833 ], [ -83.625, 36.625 ], [ -83.41667, 36.625 ], [ -83.41667, 36.66667 ], [ -83.29167, 36.66667 ], [ -83.29167, 36.70833 ], [ -83.08333, 36.70833 ], [ -83.08333, 36.75 ], [ -83.04167, 36.79167 ], [ -82.875, 36.79167 ], [ -82.875, 36.75 ], [ -82.75, 36.75 ], [ -82.75, 36.66667 ], [ -82.70833, 36.625 ], [ -82.45833, 36.625 ], [ -82.29167, 36.54167 ], [ -82.29167, 36.58333 ], [ -82.20833, 36.625 ], [ -82.125, 36.625 ], [ -82.08333, 36.58333 ], [ -82.08333, 36.5 ], [ -82.16667, 36.5 ], [ -82.16667, 36.45833 ], [ -82.20833, 36.45833 ], [ -82.20833, 36.375 ], [ -82.29167, 36.29167 ], [ -82.29167, 36.25 ], [ -82.41667, 36.25 ], [ -82.45833, 36.16667 ], [ -82.54167, 36.16667 ], [ -82.875, 36.0 ], [ -82.875, 35.95833 ], [ -82.875, 35.91667 ], [ -82.875, 35.875 ], [ -83.0, 35.875 ], [ -83.0, 35.83333 ], [ -83.125, 35.83333 ], [ -83.125, 35.79167 ], [ -83.625, 35.79167 ], [ -83.70833, 35.83333 ], [ -84.04167, 35.66667 ], [ -84.04167, 35.625 ], [ -84.16667, 35.625 ], [ -84.16667, 35.58333 ], [ -84.29167, 35.58333 ], [ -84.33333, 35.66667 ], [ -84.41667, 35.70833 ], [ -84.54167, 35.70833 ], [ -84.54167, 35.79167 ], [ -84.625, 35.79167 ], [ -84.625, 36.04167 ], [ -84.66667, 36.08333 ], [ -84.75, 36.08333 ], [ -84.79167, 36.16667 ], [ -84.875, 36.25 ], [ -85.04167, 36.25 ], [ -85.08333, 36.29167 ], [ -85.16667, 36.29167 ], [ -85.16667, 36.20833 ], [ -85.25, 36.20833 ], [ -85.33333, 36.16667 ], [ -85.33333, 36.125 ], [ -85.29167, 36.125 ], [ -85.29167, 36.0 ], [ -85.375, 35.95833 ], [ -85.41667, 35.79167 ], [ -85.5, 35.79167 ], [ -85.5, 35.70833 ], [ -85.54167, 35.66667 ], [ -85.66667, 35.66667 ], [ -85.66667, 35.5 ], [ -85.83333, 35.5 ], [ -85.91667, 35.45833 ], [ -85.91667, 35.33333 ], [ -85.875, 35.29167 ], [ -86.08333, 35.29167 ], [ -86.08333, 35.16667 ], [ -86.16667, 35.16667 ], [ -86.20833, 35.125 ], [ -86.20833, 35.04167 ], [ -86.375, 34.91667 ], [ -86.375, 34.70833 ], [ -86.33333, 34.70833 ], [ -86.29167, 34.58333 ], [ -86.375, 34.5 ], [ -86.375, 34.41667 ], [ -86.54167, 34.5 ], [ -86.66667, 34.5 ], [ -86.70833, 34.41667 ], [ -86.875, 34.41667 ], [ -86.91667, 34.375 ], [ -87.125, 34.375 ], [ -87.125, 34.41667 ], [ -87.83333, 34.41667 ], [ -87.83333, 34.375 ], [ -88.125, 34.375 ], [ -88.16667, 34.29167 ], [ -88.375, 34.29167 ], [ -88.375, 34.20833 ], [ -88.5, 34.20833 ], [ -88.54167, 34.125 ], [ -88.54167, 34.04167 ], [ -88.83333, 34.04167 ], [ -88.83333, 34.125 ], [ -88.95833, 34.20833 ], [ -89.08333, 34.20833 ], [ -89.08333, 34.25 ], [ -89.16667, 34.29167 ], [ -89.25, 34.25 ], [ -89.58333, 34.25 ], [ -89.58333, 34.29167 ], [ -89.79167, 34.29167 ], [ -89.95833, 34.20833 ], [ -89.95833, 34.16667 ], [ -90.54167, 34.16667 ], [ -90.54167, 34.20833 ], [ -91.45833, 34.20833 ], [ -91.45833, 34.25 ], [ -91.625, 34.33333 ], [ -91.70833, 34.33333 ], [ -91.75, 34.41667 ], [ -91.83333, 34.45833 ], [ -91.91667, 34.54167 ], [ -92.16667, 34.66667 ], [ -92.25, 34.75 ], [ -92.5, 34.875 ], [ -92.58333, 34.875 ], [ -92.58333, 34.95833 ], [ -92.79167, 34.95833 ], [ -92.79167, 35.04167 ], [ -92.875, 35.08333 ], [ -93.0, 35.08333 ], [ -93.0, 35.04167 ], [ -93.16667, 35.04167 ], [ -93.16667, 35.08333 ], [ -93.25, 35.125 ], [ -93.33333, 35.20833 ], [ -93.25, 35.25 ], [ -93.5, 35.25 ], [ -93.5, 35.29167 ], [ -93.66667, 35.29167 ], [ -93.70833, 35.375 ], [ -93.75, 35.45833 ], [ -93.66667, 35.54167 ], [ -93.66667, 35.58333 ], [ -93.54167, 35.58333 ], [ -93.54167, 35.625 ], [ -93.625, 35.66667 ], [ -93.79167, 35.66667 ], [ -93.79167, 35.70833 ], [ -93.66667, 35.70833 ], [ -93.66667, 35.83333 ], [ -93.75, 35.83333 ], [ -93.79167, 35.91667 ], [ -93.875, 35.95833 ], [ -94.0, 35.95833 ], [ -94.0, 36.0 ], [ -94.16667, 36.08333 ], [ -94.25, 36.08333 ], [ -94.29167, 36.16667 ], [ -94.375, 36.16667 ], [ -94.375, 36.29167 ], [ -94.45833, 36.375 ], [ -94.54167, 36.375 ], [ -94.54167, 36.45833 ], [ -94.625, 36.5 ], [ -94.625, 36.58333 ], [ -94.58333, 36.66667 ], [ -94.625, 36.70833 ], [ -94.625, 37.04167 ], [ -94.45833, 37.04167 ], [ -94.41667, 37.08333 ], [ -94.41667, 37.20833 ], [ -94.45833, 37.20833 ], [ -94.5, 37.29167 ], [ -94.5, 37.41667 ], [ -94.58333, 37.41667 ], [ -94.58333, 37.54167 ], [ -94.5, 37.54167 ], [ -94.5, 37.66667 ], [ -94.41667, 37.66667 ], [ -94.375, 37.75 ], [ -94.04167, 37.75 ], [ -93.95833, 37.70833 ], [ -93.95833, 37.66667 ], [ -93.83333, 37.66667 ], [ -93.75, 37.58333 ], [ -93.54167, 37.45833 ], [ -93.5, 37.375 ], [ -93.5, 37.33333 ], [ -93.125, 37.33333 ], [ -93.04167, 37.29167 ], [ -93.04167, 37.20833 ], [ -93.0, 37.16667 ], [ -92.83333, 37.16667 ], [ -92.79167, 37.08333 ], [ -92.79167, 36.95833 ], [ -92.83333, 36.95833 ], [ -92.875, 36.875 ], [ -93.0, 36.875 ], [ -93.0, 36.70833 ], [ -93.08333, 36.75 ], [ -93.125, 36.70833 ], [ -93.25, 36.70833 ], [ -93.29167, 36.625 ], [ -93.45833, 36.625 ], [ -93.5, 36.58333 ], [ -93.16667, 36.58333 ], [ -93.125, 36.625 ], [ -93.08333, 36.54167 ], [ -93.08333, 36.45833 ], [ -93.0, 36.41667 ], [ -92.625, 36.41667 ], [ -92.54167, 36.375 ], [ -92.54167, 36.58333 ], [ -92.45833, 36.625 ], [ -92.375, 36.70833 ], [ -92.29167, 36.70833 ], [ -92.25, 36.75 ], [ -92.25, 36.875 ] ], [ [ -82.70833, 37.25 ], [ -82.625, 37.25 ], [ -82.625, 37.375 ], [ -82.70833, 37.375 ], [ -82.75, 37.29167 ], [ -82.70833, 37.25 ] ], [ [ -93.5, 35.375 ], [ -93.5, 35.45833 ], [ -93.625, 35.45833 ], [ -93.70833, 35.41667 ], [ -93.70833, 35.375 ], [ -93.5, 35.375 ] ], [ [ -92.45833, 36.54167 ], [ -92.375, 36.5 ], [ -92.25, 36.5 ], [ -92.25, 36.58333 ], [ -92.29167, 36.625 ], [ -92.45833, 36.625 ], [ -92.45833, 36.54167 ] ], [ [ -83.625, 37.79167 ], [ -83.625, 37.75 ], [ -83.5, 37.75 ], [ -83.5, 37.79167 ], [ -83.625, 37.79167 ] ], [ [ -93.20833, 37.125 ], [ -93.125, 37.125 ], [ -93.125, 37.25 ], [ -93.20833, 37.25 ], [ -93.20833, 37.125 ] ], [ [ -93.25, 37.08333 ], [ -93.33333, 37.08333 ], [ -93.375, 37.04167 ], [ -93.41667, 36.95833 ], [ -93.41667, 36.875 ], [ -93.33333, 36.875 ], [ -93.29167, 36.91667 ], [ -93.20833, 36.95833 ], [ -93.20833, 37.125 ], [ -93.25, 37.08333 ] ], [ [ -93.29167, 36.75 ], [ -93.16667, 36.875 ], [ -93.20833, 36.91667 ], [ -93.29167, 36.91667 ], [ -93.29167, 36.75 ] ], [ [ -94.0, 36.79167 ], [ -93.75, 36.79167 ], [ -93.79167, 36.83333 ], [ -93.79167, 36.91667 ], [ -93.66667, 36.91667 ], [ -93.66667, 37.04167 ], [ -93.625, 37.08333 ], [ -93.625, 37.16667 ], [ -93.83333, 37.16667 ], [ -93.875, 37.08333 ], [ -94.04167, 37.08333 ], [ -94.04167, 36.83333 ], [ -94.0, 36.79167 ] ], [ [ -83.91667, 36.5 ], [ -83.75, 36.58333 ], [ -83.75, 36.66667 ], [ -83.91667, 36.66667 ], [ -83.91667, 36.5 ] ], [ [ -84.5, 36.08333 ], [ -84.33333, 36.08333 ], [ -84.20833, 36.16667 ], [ -84.20833, 36.29167 ], [ -84.25, 36.375 ], [ -84.33333, 36.375 ], [ -84.33333, 36.25 ], [ -84.625, 36.25 ], [ -84.58333, 36.20833 ], [ -84.58333, 36.125 ], [ -84.5, 36.08333 ] ], [ [ -92.58333, 36.33333 ], [ -92.58333, 36.25 ], [ -92.5, 36.25 ], [ -92.5, 36.33333 ], [ -92.58333, 36.33333 ] ], [ [ -83.33333, 35.875 ], [ -83.25, 35.875 ], [ -83.29167, 35.95833 ], [ -83.33333, 35.875 ] ] ], [ [ [ -82.66667, 36.75 ], [ -82.625, 36.75 ], [ -82.70833, 36.70833 ], [ -82.70833, 36.79167 ], [ -82.66667, 36.75 ] ] ], [ [ [ -82.29167, 37.20833 ], [ -82.29167, 37.29167 ], [ -82.25, 37.29167 ], [ -82.16667, 37.25 ], [ -82.16667, 37.20833 ], [ -82.25, 37.16667 ], [ -82.29167, 37.20833 ] ] ], [ [ [ -82.70833, 38.54167 ], [ -82.70833, 38.58333 ], [ -82.66667, 38.54167 ], [ -82.70833, 38.54167 ] ] ], [ [ [ -84.79167, 39.125 ], [ -84.75, 39.125 ], [ -84.79167, 39.08333 ], [ -84.79167, 39.125 ] ] ], [ [ [ -86.95833, 39.29167 ], [ -86.95833, 39.20833 ], [ -87.0, 39.20833 ], [ -87.0, 39.29167 ], [ -86.95833, 39.29167 ] ] ], [ [ [ -86.83333, 39.25 ], [ -86.91667, 39.25 ], [ -86.95833, 39.29167 ], [ -86.95833, 39.33333 ], [ -87.0, 39.33333 ], [ -87.0, 39.375 ], [ -86.95833, 39.375 ], [ -86.83333, 39.25 ] ] ], [ [ [ -93.29167, 40.08333 ], [ -93.29167, 40.25 ], [ -93.20833, 40.33333 ], [ -93.08333, 40.33333 ], [ -92.95833, 40.25 ], [ -92.95833, 40.0 ], [ -93.16667, 40.0 ], [ -93.29167, 40.08333 ] ] ] ] }, { "type": "LineString", "coordinates": [ [ -84.45833, 39.0 ], [ -84.41667, 39.0 ] ] } ] } },
{ "type": "Feature", "properties": { "ID": 7 }, "geometry": { "type": "MultiPolygon", "coordinates": [ [ [ [ -84.79167, 39.16667 ], [ -84.875, 39.125 ], [ -84.875, 39.08333 ], [ -84.91667, 39.08333 ], [ -84.79167, 39.08333 ], [ -84.79167, 39.16667 ] ] ], [ [ [ -93.625, 41.66667 ], [ -93.625, 41.58333 ], [ -93.66667, 41.58333 ], [ -93.66667, 41.5 ], [ -93.625, 41.5 ], [ -93.625, 41.54167 ], [ -93.54167, 41.58333 ], [ -93.625, 41.66667 ] ] ], [ [ [ -90.625, 41.58333 ], [ -90.625, 41.45833 ], [ -90.41667, 41.45833 ], [ -90.375, 41.54167 ], [ -90.41667, 41.58333 ], [ -90.625, 41.58333 ] ] ], [ [ [ -89.0, 40.54167 ], [ -89.04167, 40.45833 ], [ -88.91667, 40.45833 ], [ -88.91667, 40.54167 ], [ -89.0, 40.54167 ] ] ], [ [ [ -87.66667, 40.16667 ], [ -87.66667, 40.04167 ], [ -87.58333, 40.04167 ], [ -87.54167, 40.125 ], [ -87.58333, 40.16667 ], [ -87.66667, 40.16667 ] ] ], [ [ [ -96.04167, 40.08333 ], [ -96.08333, 40.0 ], [ -96.0, 40.0 ], [ -96.04167, 40.08333 ] ] ], [ [ [ -83.04167, 40.0 ], [ -83.04167, 39.91667 ], [ -82.95833, 39.91667 ], [ -82.95833, 40.0 ], [ -83.04167, 40.0 ] ] ], [ [ [ -84.25, 39.79167 ], [ -84.20833, 39.70833 ], [ -84.125, 39.70833 ], [ -84.125, 39.79167 ], [ -84.25, 39.79167 ] ] ], [ [ [ -86.125, 39.95833 ], [ -86.125, 39.91667 ], [ -86.25, 39.91667 ], [ -86.25, 39.83333 ], [ -86.33333, 39.75 ], [ -86.16667, 39.58333 ], [ -86.08333, 39.58333 ], [ -86.08333, 39.75 ], [ -86.04167, 39.75 ], [ -86.04167, 39.91667 ], [ -86.125, 39.95833 ] ] ], [ [ [ -85.95833, 39.25 ], [ -85.95833, 39.16667 ], [ -85.83333, 39.16667 ], [ -85.83333, 39.25 ], [ -85.95833, 39.25 ] ] ], [ [ [ -84.75, 39.16667 ], [ -84.75, 39.125 ], [ -84.70833, 39.125 ], [ -84.75, 39.16667 ] ] ], [ [ [ -84.375, 39.20833 ], [ -84.375, 39.33333 ], [ -84.41667, 39.375 ], [ -84.5, 39.375 ], [ -84.58333, 39.25 ], [ -84.58333, 39.16667 ], [ -84.625, 39.125 ], [ -84.70833, 39.125 ], [ -84.66667, 39.08333 ], [ -84.66667, 38.95833 ], [ -84.54167, 38.95833 ], [ -84.54167, 39.0 ], [ -84.45833, 39.0 ], [ -84.375, 39.08333 ], [ -84.375, 39.16667 ], [ -84.41667, 39.20833 ], [ -84.375, 39.20833 ] ] ], [ [ [ -82.70833, 38.54167 ], [ -82.70833, 38.5 ], [ -82.66667, 38.5 ], [ -82.66667, 38.54167 ], [ -82.70833, 38.54167 ] ] ], [ [ [ -93.20833, 37.125 ], [ -93.125, 37.125 ], [ -93.125, 37.25 ], [ -93.20833, 37.25 ], [ -93.20833, 37.125 ] ] ], [ [ [ -93.20833, 37.125 ], [ -93.25, 37.08333 ], [ -93.33333, 37.08333 ], [ -93.375, 37.04167 ], [ -93.41667, 36.95833 ], [ -93.41667, 36.875 ], [ -93.33333, 36.875 ], [ -93.29167, 36.91667 ], [ -93.20833, 36.95833 ], [ -93.20833, 37.125 ] ] ], [ [ [ -93.83333, 37.16667 ], [ -93.875, 37.08333 ], [ -94.04167, 37.08333 ], [ -94.04167, 36.83333 ], [ -94.0, 36.79167 ], [ -93.75, 36.79167 ], [ -93.79167, 36.83333 ], [ -93.79167, 36.91667 ], [ -93.66667, 36.91667 ], [ -93.66667, 37.04167 ], [ -93.625, 37.08333 ], [ -93.625, 37.16667 ], [ -93.83333, 37.16667 ] ] ], [ [ [ -93.29167, 36.91667 ], [ -93.29167, 36.75 ], [ -93.16667, 36.875 ], [ -93.20833, 36.91667 ], [ -93.29167, 36.91667 ] ] ], [ [ [ -92.45833, 36.625 ], [ -92.45833, 36.54167 ], [ -92.375, 36.5 ], [ -92.25, 36.5 ], [ -92.25, 36.58333 ], [ -92.29167, 36.625 ], [ -92.45833, 36.625 ] ] ], [ [ [ -90.70833, 40.79167 ], [ -90.70833, 40.83333 ], [ -90.79167, 40.875 ], [ -90.875, 40.95833 ], [ -90.83333, 41.0 ], [ -90.70833, 41.0 ], [ -90.70833, 41.08333 ], [ -90.83333, 41.08333 ], [ -91.0, 41.25 ], [ -91.0, 41.41667 ], [ -91.16667, 41.41667 ], [ -91.20833, 41.29167 ], [ -91.29167, 41.29167 ], [ -91.29167, 41.45833 ], [ -91.45833, 41.45833 ], [ -91.45833, 41.54167 ], [ -91.5, 41.625 ], [ -91.5, 41.70833 ], [ -91.58333, 41.70833 ], [ -91.54167, 41.625 ], [ -91.54167, 41.5 ], [ -91.75, 41.5 ], [ -91.70833, 41.45833 ], [ -91.5, 41.45833 ], [ -91.45833, 41.41667 ], [ -91.45833, 41.29167 ], [ -91.625, 41.29167 ], [ -91.625, 41.375 ], [ -91.75, 41.375 ], [ -91.75, 41.33333 ], [ -92.04167, 41.33333 ], [ -92.08333, 41.375 ], [ -92.16667, 41.41667 ], [ -92.25, 41.375 ], [ -92.33333, 41.29167 ], [ -92.41667, 41.33333 ], [ -92.54167, 41.33333 ], [ -92.54167, 41.29167 ], [ -92.625, 41.33333 ], [ -92.66667, 41.29167 ], [ -92.875, 41.29167 ], [ -92.91667, 41.375 ], [ -93.0, 41.375 ], [ -93.0, 41.33333 ], [ -92.95833, 41.33333 ], [ -92.95833, 41.125 ], [ -92.91667, 41.20833 ], [ -92.83333, 41.20833 ], [ -92.79167, 41.16667 ], [ -92.79167, 41.08333 ], [ -92.91667, 41.08333 ], [ -92.875, 41.0 ], [ -92.75, 41.0 ], [ -92.83333, 40.91667 ], [ -92.79167, 40.83333 ], [ -92.875, 40.83333 ], [ -92.95833, 40.95833 ], [ -93.0, 40.875 ], [ -93.08333, 40.875 ], [ -93.25, 40.79167 ], [ -93.25, 40.625 ], [ -93.33333, 40.70833 ], [ -93.54167, 40.70833 ], [ -93.58333, 40.75 ], [ -93.75, 40.75 ], [ -93.75, 40.79167 ], [ -94.0, 40.79167 ], [ -94.08333, 40.70833 ], [ -94.16667, 40.70833 ], [ -94.25, 40.66667 ], [ -94.29167, 40.75 ], [ -94.91667, 40.75 ], [ -94.875, 40.83333 ], [ -94.875, 40.95833 ], [ -95.0, 40.95833 ], [ -95.08333, 40.91667 ], [ -95.20833, 40.95833 ], [ -95.20833, 41.04167 ], [ -95.25, 41.04167 ], [ -95.33333, 40.95833 ], [ -95.33333, 40.875 ], [ -95.41667, 40.83333 ], [ -95.625, 40.83333 ], [ -95.625, 40.75 ], [ -95.58333, 40.70833 ], [ -95.58333, 40.54167 ], [ -95.54167, 40.45833 ], [ -95.45833, 40.45833 ], [ -95.45833, 40.375 ], [ -95.375, 40.41667 ], [ -95.375, 40.25 ], [ -95.45833, 40.25 ], [ -95.5, 40.29167 ], [ -95.5, 40.16667 ], [ -95.75, 40.16667 ], [ -95.91667, 40.08333 ], [ -95.91667, 40.0 ], [ -95.95833, 39.95833 ], [ -96.125, 39.95833 ], [ -96.125, 39.83333 ], [ -96.0, 39.70833 ], [ -95.95833, 39.70833 ], [ -95.95833, 38.875 ], [ -95.91667, 38.875 ], [ -95.91667, 38.625 ], [ -95.83333, 38.58333 ], [ -95.83333, 38.16667 ], [ -95.79167, 38.125 ], [ -95.625, 38.125 ], [ -95.54167, 38.04167 ], [ -95.54167, 37.75 ], [ -95.58333, 37.75 ], [ -95.58333, 37.54167 ], [ -95.5, 37.45833 ], [ -95.41667, 37.45833 ], [ -95.41667, 37.33333 ], [ -95.375, 37.25 ], [ -95.29167, 37.20833 ], [ -95.29167, 37.08333 ], [ -95.25, 37.08333 ], [ -95.25, 36.91667 ], [ -95.04167, 36.91667 ], [ -94.875, 36.83333 ], [ -94.875, 36.625 ], [ -94.79167, 36.54167 ], [ -94.70833, 36.54167 ], [ -94.625, 36.5 ], [ -94.625, 36.58333 ], [ -94.58333, 36.66667 ], [ -94.625, 36.70833 ], [ -94.625, 37.04167 ], [ -94.45833, 37.04167 ], [ -94.41667, 37.08333 ], [ -94.41667, 37.20833 ], [ -94.45833, 37.20833 ], [ -94.5, 37.29167 ], [ -94.5, 37.41667 ], [ -94.58333, 37.41667 ], [ -94.58333, 37.54167 ], [ -94.5, 37.54167 ], [ -94.5, 37.66667 ], [ -94.41667, 37.66667 ], [ -94.375, 37.75 ], [ -94.04167, 37.75 ], [ -93.95833, 37.70833 ], [ -93.95833, 37.66667 ], [ -93.83333, 37.66667 ], [ -93.75, 37.58333 ], [ -93.54167, 37.45833 ], [ -93.5, 37.375 ], [ -93.5, 37.33333 ], [ -93.125, 37.33333 ], [ -93.04167, 37.29167 ], [ -93.04167, 37.20833 ], [ -93.0, 37.16667 ], [ -92.83333, 37.16667 ], [ -92.79167, 37.08333 ], [ -92.79167, 36.95833 ], [ -92.83333, 36.95833 ], [ -92.875, 36.875 ], [ -93.0, 36.875 ], [ -93.0, 36.70833 ], [ -93.08333, 36.75 ], [ -93.125, 36.70833 ], [ -93.25, 36.70833 ], [ -93.29167, 36.625 ], [ -93.45833, 36.625 ], [ -93.5, 36.58333 ], [ -93.16667, 36.58333 ], [ -93.125, 36.625 ], [ -93.08333, 36.54167 ], [ -93.08333, 36.45833 ], [ -93.0, 36.41667 ], [ -92.625, 36.41667 ], [ -92.54167, 36.375 ], [ -92.54167, 36.58333 ], [ -92.45833, 36.625 ], [ -92.375, 36.70833 ], [ -92.29167, 36.70833 ], [ -92.25, 36.75 ], [ -92.25, 36.875 ], [ -92.33333, 36.91667 ], [ -92.33333, 37.0 ], [ -92.45833, 37.0 ], [ -92.45833, 37.04167 ], [ -92.58333, 37.04167 ], [ -92.54167, 37.125 ], [ -92.54167, 37.20833 ], [ -92.45833, 37.25 ], [ -92.45833, 37.33333 ], [ -92.375, 37.33333 ], [ -92.33333, 37.375 ], [ -92.25, 37.33333 ], [ -92.16667, 37.33333 ], [ -92.08333, 37.29167 ], [ -92.04167, 37.20833 ], [ -92.125, 37.20833 ], [ -92.125, 37.08333 ], [ -92.08333, 37.08333 ], [ -92.04167, 37.16667 ], [ -91.95833, 37.08333 ], [ -91.95833, 37.04167 ], [ -92.08333, 37.04167 ], [ -92.08333, 36.95833 ], [ -92.04167, 36.91667 ], [ -91.95833, 37.0 ], [ -91.875, 37.04167 ], [ -91.83333, 37.125 ], [ -91.75, 37.125 ], [ -91.66667, 37.08333 ], [ -91.66667, 37.16667 ], [ -91.58333, 37.16667 ], [ -91.58333, 37.25 ], [ -91.5, 37.25 ], [ -91.5, 37.33333 ], [ -91.54167, 37.375 ], [ -91.29167, 37.375 ], [ -91.25, 37.375 ], [ -91.08333, 37.375 ], [ -91.125, 37.45833 ], [ -91.0, 37.54167 ], [ -90.875, 37.54167 ], [ -90.875, 37.66667 ], [ -90.625, 37.66667 ], [ -90.625, 37.70833 ], [ -90.5, 37.70833 ], [ -90.5, 37.66667 ], [ -90.375, 37.66667 ], [ -90.375, 37.70833 ], [ -90.20833, 37.70833 ], [ -90.20833, 37.75 ], [ -90.08333, 37.75 ], [ -90.08333, 37.70833 ], [ -89.91667, 37.70833 ], [ -89.83333, 37.75 ], [ -89.83333, 37.83333 ], [ -89.75, 37.91667 ], [ -89.66667, 37.875 ], [ -89.625, 37.91667 ], [ -89.625, 38.0 ], [ -89.54167, 38.04167 ], [ -89.45833, 38.04167 ], [ -89.375, 38.0 ], [ -89.33333, 38.08333 ], [ -89.25, 38.04167 ], [ -89.125, 38.04167 ], [ -89.08333, 38.125 ], [ -88.95833, 38.125 ], [ -88.95833, 38.04167 ], [ -88.875, 38.08333 ], [ -88.75, 38.08333 ], [ -88.75, 38.16667 ], [ -88.58333, 38.16667 ], [ -88.54167, 38.20833 ], [ -88.54167, 38.29167 ], [ -88.5, 38.33333 ], [ -88.41667, 38.33333 ], [ -88.41667, 38.5 ], [ -88.33333, 38.5 ], [ -88.29167, 38.58333 ], [ -88.125, 38.66667 ], [ -88.04167, 38.75 ], [ -87.83333, 38.75 ], [ -87.83333, 38.79167 ], [ -87.625, 38.79167 ], [ -87.54167, 38.875 ], [ -87.41667, 38.875 ], [ -87.25, 39.04167 ], [ -87.16667, 39.08333 ], [ -86.95833, 39.08333 ], [ -86.95833, 39.16667 ], [ -86.91667, 39.20833 ], [ -87.0, 39.20833 ], [ -87.0, 39.29167 ], [ -87.04167, 39.29167 ], [ -87.04167, 39.33333 ], [ -87.0, 39.33333 ], [ -87.0, 39.375 ], [ -87.08333, 39.375 ], [ -87.08333, 39.5 ], [ -87.16667, 39.41667 ], [ -87.20833, 39.41667 ], [ -87.25, 39.5 ], [ -87.25, 39.625 ], [ -87.29167, 39.625 ], [ -87.33333, 39.70833 ], [ -87.33333, 39.95833 ], [ -87.375, 40.0 ], [ -87.45833, 39.95833 ], [ -87.41667, 39.875 ], [ -87.41667, 39.75 ], [ -87.5, 39.75 ], [ -87.45833, 39.83333 ], [ -87.625, 39.83333 ], [ -87.625, 39.875 ], [ -87.75, 39.875 ], [ -87.75, 39.91667 ], [ -87.83333, 40.0 ], [ -88.0, 40.0 ], [ -88.0, 40.08333 ], [ -88.125, 40.08333 ], [ -88.16667, 40.16667 ], [ -88.33333, 40.16667 ], [ -88.41667, 40.125 ], [ -88.45833, 40.16667 ], [ -88.54167, 40.16667 ], [ -88.58333, 40.25 ], [ -88.66667, 40.20833 ], [ -88.91667, 40.20833 ], [ -88.91667, 40.25 ], [ -89.0, 40.33333 ], [ -89.125, 40.33333 ], [ -89.125, 40.41667 ], [ -89.20833, 40.45833 ], [ -89.41667, 40.45833 ], [ -89.45833, 40.54167 ], [ -89.54167, 40.54167 ], [ -89.54167, 40.66667 ], [ -89.5, 40.66667 ], [ -89.5, 40.875 ], [ -89.45833, 40.95833 ], [ -89.54167, 40.875 ], [ -89.58333, 40.79167 ], [ -89.66667, 40.75 ], [ -89.66667, 40.66667 ], [ -89.75, 40.58333 ], [ -90.25, 40.58333 ], [ -90.25, 40.70833 ], [ -90.20833, 40.75 ], [ -90.66667, 40.75 ], [ -90.70833, 40.79167 ] ], [ [ -93.20833, 40.33333 ], [ -93.08333, 40.33333 ], [ -92.95833, 40.25 ], [ -92.95833, 40.0 ], [ -93.16667, 40.0 ], [ -93.29167, 40.08333 ], [ -93.29167, 40.25 ], [ -93.20833, 40.33333 ] ], [ [ -92.79167, 36.625 ], [ -92.79167, 36.58333 ], [ -92.95833, 36.58333 ], [ -93.0, 36.66667 ], [ -92.91667, 36.70833 ], [ -92.83333, 36.66667 ], [ -92.79167, 36.625 ] ] ], [ [ [ -92.58333, 36.33333 ], [ -92.58333, 36.25 ], [ -92.5, 36.25 ], [ -92.5, 36.33333 ], [ -92.58333, 36.33333 ] ] ], [ [ [ -93.70833, 35.375 ], [ -93.5, 35.375 ], [ -93.5, 35.45833 ], [ -93.625, 35.45833 ], [ -93.70833, 35.41667 ], [ -93.70833, 35.375 ] ] ] ] } }
]
}
