{
"type": "FeatureCollection",
"name": "Lupinus_perennis",
"crs": { "type": "name", "properties": { "name": "urn:ogc:def:crs:OGC:1.3:CRS84" } },
"features": [
{ "type": "Feature", "properties": { "ID": 8 }, "geometry": { "type": "MultiPolygon", "coordinates": [ [ [ [ -84.2916667, 45.0 ], [ -84.625, 45.0416667 ], [ -84.6666667, 44.7083333 ], [ -84.8333333, 44.6666667 ], [ -84.4583333, 44.25 ], [ -83.9583333, 44.25 ], [ -83.9583333, 44.625 ], [ -84.125, 44.8333333 ], [ -84.2083333, 44.8333333 ], [ -84.2916667, 44.9166667 ], [ -84.2916667, 45.0 ] ] ], [ [ [ -85.0, 44.3333333 ], [ -85.25, 44.2083333 ], [ -85.4166667, 44.2083333 ], [ -85.4166667, 44.125 ], [ -85.5, 44.125 ], [ -85.5416667, 44.0833333 ], [ -85.5416667, 44.0416667 ], [ -85.5, 44.0416667 ], [ -85.5, 43.9166667 ], [ -85.375, 44.0833333 ], [ -85.0, 44.125 ], [ -85.0, 44.3333333 ] ] ], [ [ [ -85.5416667, 43.9166667 ], [ -85.5416667, 43.875 ], [ -85.5, 43.875 ], [ -85.5, 43.9166667 ], [ -85.5416667, 43.9166667 ] ] ], [ [ [ -90.2083333, 46.5833333 ], [ -90.625, 46.5833333 ], [ -90.875, 46.8333333 ], [ -91.2916667, 46.8333333 ], [ -91.7916667, 46.6666667 ], [ -92.0416667, 46.6666667 ], [ -92.125, 46.8333333 ], [ -91.7916667, 46.9583333 ], [ -91.4583333, 47.1666667 ], [ -91.75, 47.375 ], [ -92.2083333, 47.375 ], [ -92.7916667, 46.8333333 ], [ -92.9166667, 46.625 ], [ -93.25, 46.5833333 ], [ -93.625, 46.7916667 ], [ -93.6666667, 46.9166667 ], [ -94.4166667, 46.9583333 ], [ -94.75, 46.625 ], [ -95.125, 46.5833333 ], [ -95.3333333, 46.4166667 ], [ -95.625, 46.4583333 ], [ -95.75, 46.1666667 ], [ -95.625, 46.0833333 ], [ -95.625, 45.9583333 ], [ -96.0416667, 45.4583333 ], [ -96.0833333, 45.25 ], [ -95.7083333, 45.6666667 ], [ -95.375, 45.5833333 ], [ -95.2916667, 45.4166667 ], [ -95.375, 45.0416667 ], [ -95.6666667, 45.0416667 ], [ -96.0416667, 45.1666667 ], [ -95.9583333, 45.0833333 ], [ -95.9166667, 44.7083333 ], [ -95.4583333, 44.5 ], [ -95.4583333, 44.4166667 ], [ -95.1666667, 44.4166667 ], [ -95.0, 44.125 ], [ -94.6666667, 44.125 ], [ -94.5416667, 44.0833333 ], [ -94.5, 44.0416667 ], [ -94.3333333, 44.0 ], [ -94.375, 43.9583333 ], [ -94.125, 43.7916667 ], [ -94.0833333, 43.5833333 ], [ -93.9166667, 43.625 ], [ -93.7083333, 43.5 ], [ -93.6666667, 43.2916667 ], [ -93.6666667, 43.25 ], [ -93.5833333, 43.25 ], [ -93.3333333, 43.2916667 ], [ -93.0416667, 43.4583333 ], [ -92.625, 43.375 ], [ -92.3333333, 42.9166667 ], [ -92.0, 42.6666667 ], [ -91.5, 42.625 ], [ -91.5416667, 42.9166667 ], [ -91.4583333, 43.4583333 ], [ -91.3333333, 43.625 ], [ -91.0833333, 43.5833333 ], [ -91.0833333, 43.4166667 ], [ -90.8333333, 43.2083333 ], [ -90.6666667, 42.9166667 ], [ -90.2083333, 42.875 ], [ -89.7083333, 42.5833333 ], [ -89.4166667, 42.6666667 ], [ -89.25, 42.6666667 ], [ -89.0416667, 42.9166667 ], [ -89.1666667, 43.25 ], [ -89.0833333, 43.5 ], [ -89.0, 43.625 ], [ -88.7083333, 43.6666667 ], [ -88.7083333, 44.1666667 ], [ -88.0833333, 44.4166667 ], [ -88.0416667, 44.5833333 ], [ -87.875, 44.9583333 ], [ -87.75, 45.0 ], [ -87.625, 45.1666667 ], [ -87.5833333, 45.2083333 ], [ -87.5416667, 45.25 ], [ -87.5, 45.375 ], [ -87.4583333, 45.375 ], [ -87.4166667, 45.4166667 ], [ -87.0833333, 45.875 ], [ -87.0416667, 45.9166667 ], [ -87.0833333, 46.1666667 ], [ -87.2916667, 46.2916667 ], [ -87.5416667, 46.4166667 ], [ -87.875, 46.7916667 ], [ -88.3333333, 46.75 ], [ -88.5416667, 46.75 ], [ -89.0416667, 46.8333333 ], [ -89.3333333, 46.7916667 ], [ -89.5416667, 46.8333333 ], [ -89.6666667, 46.8333333 ], [ -89.8333333, 46.7916667 ], [ -89.875, 46.75 ], [ -89.9166667, 46.7083333 ], [ -90.0, 46.6666667 ], [ -90.0, 46.625 ], [ -90.2083333, 46.625 ], [ -90.2083333, 46.5833333 ] ] ] ] } },
{ "type": "Feature", "properties": { "ID": 11 }, "geometry": { "type": "MultiPolygon", "coordinates": [ [ [ [ -88.5416667, 46.75 ], [ -88.4583333, 47.0 ], [ -88.7916667, 47.1666667 ], [ -88.9166667, 47.0 ], [ -89.125, 47.0 ], [ -89.3333333, 46.7916667 ], [ -89.0416667, 46.8333333 ], [ -88.5416667, 46.75 ] ] ], [ [ [ -87.2916667, 46.2916667 ], [ -87.4166667, 46.5833333 ], [ -87.5833333, 46.625 ], [ -87.75, 46.875 ], [ -88.1666667, 46.9166667 ], [ -88.3333333, 46.75 ], [ -87.875, 46.7916667 ], [ -87.5416667, 46.4166667 ], [ -87.2916667, 46.2916667 ] ] ], [ [ [ -85.7916667, 46.0833333 ], [ -85.875, 46.0416667 ], [ -85.8333333, 46.0416667 ], [ -85.7916667, 46.0833333 ] ] ], [ [ [ -86.1666667, 46.3333333 ], [ -86.375, 46.4166667 ], [ -86.7083333, 46.4166667 ], [ -86.875, 46.125 ], [ -87.0833333, 46.1666667 ], [ -87.0416667, 45.9166667 ], [ -86.4166667, 45.8333333 ], [ -86.4166667, 45.875 ], [ -86.375, 46.0 ], [ -86.0, 46.0 ], [ -85.9583333, 46.0833333 ], [ -85.9166667, 46.2916667 ], [ -86.1666667, 46.3333333 ] ] ], [ [ [ -87.0833333, 45.875 ], [ -87.4166667, 45.4166667 ], [ -87.0833333, 45.75 ], [ -87.0833333, 45.875 ] ] ], [ [ [ -87.125, 45.1666667 ], [ -87.25, 44.9583333 ], [ -87.2083333, 44.9583333 ], [ -87.125, 45.0833333 ], [ -87.125, 45.1666667 ] ] ], [ [ [ -85.4166667, 44.2083333 ], [ -85.4583333, 44.125 ], [ -85.4166667, 44.125 ], [ -85.4166667, 44.2083333 ] ] ], [ [ [ -85.5416667, 44.0416667 ], [ -85.5416667, 44.0 ], [ -85.5, 44.0 ], [ -85.5, 44.0416667 ], [ -85.5416667, 44.0416667 ] ] ], [ [ [ -85.5416667, 43.9583333 ], [ -85.5416667, 43.9166667 ], [ -85.5, 43.9166667 ], [ -85.5, 43.9583333 ], [ -85.5416667, 43.9583333 ] ] ], [ [ [ -94.375, 43.9583333 ], [ -94.4166667, 43.875 ], [ -94.5, 43.5833333 ], [ -94.0833333, 43.5833333 ], [ -94.125, 43.7916667 ], [ -94.375, 43.9583333 ] ] ], [ [ [ -93.6666667, 43.2916667 ], [ -93.7083333, 43.25 ], [ -93.6666667, 43.25 ], [ -93.6666667, 43.2916667 ] ] ], [ [ [ -93.25, 41.5 ], [ -93.1666667, 41.25 ], [ -92.9583333, 41.375 ], [ -93.25, 41.5 ] ] ], [ [ [ -87.5416667, 44.2083333 ], [ -87.5416667, 44.4583333 ], [ -87.375, 44.7916667 ], [ -87.625, 44.8333333 ], [ -87.875, 44.5416667 ], [ -88.0416667, 44.5833333 ], [ -88.0833333, 44.4166667 ], [ -88.7083333, 44.1666667 ], [ -88.7083333, 43.6666667 ], [ -89.0, 43.625 ], [ -89.0833333, 43.5 ], [ -89.1666667, 43.25 ], [ -89.0416667, 42.9166667 ], [ -89.25, 42.6666667 ], [ -89.4166667, 42.6666667 ], [ -89.7083333, 42.5833333 ], [ -90.2083333, 42.875 ], [ -90.6666667, 42.9166667 ], [ -90.8333333, 43.2083333 ], [ -91.0833333, 43.4166667 ], [ -91.0833333, 43.5833333 ], [ -91.3333333, 43.625 ], [ -91.4583333, 43.4583333 ], [ -91.5416667, 42.9166667 ], [ -91.5, 42.625 ], [ -92.0, 42.6666667 ], [ -92.3333333, 42.9166667 ], [ -92.625, 43.375 ], [ -93.0416667, 43.4583333 ], [ -93.3333333, 43.2916667 ], [ -93.5833333, 43.25 ], [ -93.4583333, 43.125 ], [ -92.9583333, 43.125 ], [ -92.6666667, 42.8333333 ], [ -92.6666667, 42.7916667 ], [ -92.5416667, 42.4583333 ], [ -92.25, 42.2916667 ], [ -91.9166667, 42.25 ], [ -91.625, 41.6666667 ], [ -91.3333333, 41.6666667 ], [ -91.25, 41.4583333 ], [ -90.9166667, 41.375 ], [ -90.625, 41.375 ], [ -90.375, 41.2083333 ], [ -89.7916667, 41.2083333 ], [ -89.7916667, 41.25 ], [ -89.4583333, 41.25 ], [ -89.375, 41.0833333 ], [ -89.0416667, 41.25 ], [ -88.8333333, 41.0833333 ], [ -88.75, 41.3333333 ], [ -88.4166667, 41.5833333 ], [ -88.2083333, 42.0416667 ], [ -87.9583333, 42.25 ], [ -87.875, 42.9166667 ], [ -87.875, 42.9583333 ], [ -87.9166667, 42.9583333 ], [ -87.9166667, 43.4166667 ], [ -87.875, 43.4583333 ], [ -87.8333333, 43.5833333 ], [ -87.7916667, 43.625 ], [ -87.7916667, 43.7083333 ], [ -87.75, 43.7083333 ], [ -87.75, 44.0 ], [ -87.7083333, 44.0 ], [ -87.5833333, 44.1666667 ], [ -87.5416667, 44.2083333 ] ] ], [ [ [ -89.375, 41.0833333 ], [ -89.4583333, 41.0 ], [ -89.4166667, 41.0 ], [ -89.375, 41.0833333 ] ] ], [ [ [ -89.4583333, 40.9166667 ], [ -89.4583333, 40.875 ], [ -89.4166667, 40.9166667 ], [ -89.4583333, 40.9166667 ] ] ] ] } },
{ "type": "Feature", "properties": { "ID": 12 }, "geometry": { "type": "MultiPolygon", "coordinates": [ [ [ [ -86.4166667, 45.875 ], [ -86.4166667, 45.8333333 ], [ -86.375, 45.875 ], [ -86.4166667, 45.875 ] ] ], [ [ [ -73.0, 43.6666667 ], [ -73.0, 43.5833333 ], [ -72.9583333, 43.5416667 ], [ -73.0, 43.6666667 ] ] ], [ [ [ -78.25, 42.375 ], [ -78.375, 42.3333333 ], [ -78.2916667, 42.2916667 ], [ -78.25, 42.375 ] ] ], [ [ [ -78.0416667, 41.375 ], [ -78.2916667, 41.5833333 ], [ -78.5416667, 41.25 ], [ -78.25, 41.2083333 ], [ -78.0416667, 41.375 ] ] ], [ [ [ -79.125, 40.9583333 ], [ -79.25, 41.0 ], [ -79.25, 40.9583333 ], [ -79.125, 40.9583333 ] ] ], [ [ [ -89.4583333, 41.0 ], [ -89.4583333, 40.9166667 ], [ -89.4166667, 40.9166667 ], [ -89.4166667, 41.0 ], [ -89.4583333, 41.0 ] ] ], [ [ [ -89.5, 40.9166667 ], [ -89.5, 40.875 ], [ -89.4583333, 40.875 ], [ -89.4583333, 40.9166667 ], [ -89.5, 40.9166667 ] ] ], [ [ [ -80.0416667, 40.875 ], [ -80.0, 40.7916667 ], [ -79.9166667, 40.8333333 ], [ -80.0, 41.0 ], [ -80.0833333, 40.9583333 ], [ -80.0833333, 40.9166667 ], [ -80.0833333, 40.7916667 ], [ -80.0416667, 40.875 ] ] ], [ [ [ -79.375, 40.7916667 ], [ -79.4583333, 40.7916667 ], [ -79.5416667, 40.6666667 ], [ -79.5416667, 40.625 ], [ -79.75, 40.5833333 ], [ -79.5416667, 40.5833333 ], [ -79.5416667, 40.3333333 ], [ -79.2083333, 40.2083333 ], [ -78.9583333, 40.4583333 ], [ -79.0416667, 40.625 ], [ -79.0833333, 40.625 ], [ -79.125, 40.75 ], [ -79.375, 40.7916667 ] ] ], [ [ [ -79.0416667, 40.7916667 ], [ -79.125, 40.75 ], [ -79.0416667, 40.75 ], [ -79.0416667, 40.7916667 ] ] ], [ [ [ -79.625, 40.4583333 ], [ -79.625, 40.4166667 ], [ -79.5833333, 40.4583333 ], [ -79.625, 40.4583333 ] ] ], [ [ [ -79.625, 40.4166667 ], [ -79.7083333, 40.2916667 ], [ -79.6666667, 40.2916667 ], [ -79.625, 40.4166667 ] ] ], [ [ [ -80.2083333, 35.125 ], [ -80.1666667, 35.0833333 ], [ -80.1666667, 35.125 ], [ -80.2083333, 35.125 ] ] ], [ [ [ -75.8333333, 35.1666667 ], [ -75.9583333, 35.1666667 ], [ -76.25, 34.9166667 ], [ -75.8333333, 35.1666667 ] ] ], [ [ [ -84.25, 45.0416667 ], [ -84.1666667, 45.4166667 ], [ -84.4166667, 45.5833333 ], [ -84.75, 45.4166667 ], [ -85.1666667, 45.375 ], [ -85.375, 45.25 ], [ -85.375, 44.9166667 ], [ -85.5, 44.75 ], [ -85.7916667, 44.9166667 ], [ -86.0416667, 44.9166667 ], [ -86.2083333, 44.6666667 ], [ -86.25, 44.3333333 ], [ -86.375, 44.2083333 ], [ -86.4166667, 43.75 ], [ -86.5, 43.625 ], [ -86.25, 43.2916667 ], [ -86.2083333, 42.5833333 ], [ -86.3333333, 42.25 ], [ -86.5416667, 41.9583333 ], [ -86.8333333, 41.7083333 ], [ -87.0833333, 41.625 ], [ -87.4583333, 41.625 ], [ -87.625, 41.7916667 ], [ -87.8333333, 42.1666667 ], [ -87.875, 42.9166667 ], [ -87.9583333, 42.25 ], [ -88.2083333, 42.0416667 ], [ -88.4166667, 41.5833333 ], [ -88.75, 41.3333333 ], [ -88.8333333, 41.0833333 ], [ -88.625, 41.0 ], [ -88.5833333, 41.125 ], [ -88.3333333, 41.2083333 ], [ -88.0833333, 41.0 ], [ -87.9583333, 41.0416667 ], [ -87.8333333, 40.9583333 ], [ -87.0, 40.9583333 ], [ -86.8333333, 40.9166667 ], [ -86.75, 40.625 ], [ -86.5, 40.7083333 ], [ -86.125, 40.7083333 ], [ -86.0416667, 40.875 ], [ -85.625, 40.9166667 ], [ -85.5416667, 40.8333333 ], [ -85.0416667, 40.8333333 ], [ -84.8333333, 40.9166667 ], [ -84.9166667, 41.0833333 ], [ -84.0416667, 40.9583333 ], [ -83.9166667, 41.0416667 ], [ -83.7916667, 41.3333333 ], [ -83.375, 41.2083333 ], [ -83.25, 41.2916667 ], [ -83.0416667, 41.3333333 ], [ -82.8333333, 41.2083333 ], [ -82.8333333, 41.1666667 ], [ -81.875, 40.6666667 ], [ -81.8333333, 40.8333333 ], [ -81.75, 40.75 ], [ -81.4166667, 40.7916667 ], [ -81.3333333, 40.9166667 ], [ -80.9583333, 40.8333333 ], [ -80.875, 41.0416667 ], [ -80.375, 41.0416667 ], [ -80.375, 41.125 ], [ -80.2916667, 41.0416667 ], [ -80.2916667, 41.1666667 ], [ -80.2083333, 41.25 ], [ -80.0833333, 41.25 ], [ -79.7083333, 41.25 ], [ -79.7916667, 41.2083333 ], [ -79.9583333, 41.1666667 ], [ -80.0, 41.1666667 ], [ -80.0, 41.0 ], [ -79.9166667, 41.0833333 ], [ -79.9166667, 41.125 ], [ -79.875, 41.125 ], [ -79.7916667, 41.1666667 ], [ -79.5416667, 41.1666667 ], [ -79.4583333, 41.2083333 ], [ -79.2916667, 41.375 ], [ -79.25, 41.6666667 ], [ -79.0416667, 41.7083333 ], [ -78.6666667, 42.2083333 ], [ -78.8333333, 42.625 ], [ -78.4166667, 42.875 ], [ -78.125, 42.875 ], [ -78.1666667, 42.5833333 ], [ -78.125, 42.5 ], [ -77.5833333, 42.625 ], [ -77.5, 42.7083333 ], [ -77.4166667, 42.625 ], [ -77.2916667, 42.6666667 ], [ -77.1666667, 42.4583333 ], [ -76.9166667, 42.5 ], [ -76.7916667, 42.0 ], [ -76.75, 41.4583333 ], [ -77.0416667, 41.4583333 ], [ -77.3333333, 41.2916667 ], [ -77.7916667, 41.0833333 ], [ -77.9583333, 41.0833333 ], [ -78.25, 41.2083333 ], [ -78.5833333, 40.9583333 ], [ -78.4583333, 40.7083333 ], [ -78.6666667, 40.625 ], [ -78.5833333, 40.4583333 ], [ -78.5416667, 40.25 ], [ -78.75, 40.0833333 ], [ -78.7083333, 39.9583333 ], [ -78.8333333, 39.6666667 ], [ -78.75, 39.4583333 ], [ -78.625, 39.375 ], [ -78.5833333, 39.0833333 ], [ -78.5, 39.0833333 ], [ -78.6666667, 38.875 ], [ -78.5833333, 38.6666667 ], [ -78.4583333, 38.4166667 ], [ -78.875, 38.0 ], [ -78.7916667, 37.5833333 ], [ -78.7916667, 37.4583333 ], [ -78.9166667, 37.375 ], [ -79.0, 37.5 ], [ -79.0416667, 37.5416667 ], [ -79.0833333, 37.6666667 ], [ -79.125, 37.6666667 ], [ -79.375, 37.4583333 ], [ -79.25, 37.25 ], [ -79.2083333, 36.9583333 ], [ -79.25, 36.8333333 ], [ -79.5416667, 36.5833333 ], [ -79.75, 36.5833333 ], [ -79.7916667, 36.2916667 ], [ -79.9166667, 36.2083333 ], [ -79.9166667, 36.1666667 ], [ -80.2083333, 36.125 ], [ -80.1666667, 35.875 ], [ -80.125, 35.4583333 ], [ -80.2083333, 35.2083333 ], [ -80.1666667, 35.125 ], [ -80.0416667, 35.1666667 ], [ -80.0416667, 35.125 ], [ -79.7916667, 35.1666667 ], [ -79.75, 35.1666667 ], [ -79.6666667, 34.9583333 ], [ -79.2916667, 34.7916667 ], [ -79.0, 34.875 ], [ -78.75, 34.9583333 ], [ -78.3333333, 35.125 ], [ -78.0, 35.125 ], [ -77.75, 35.4166667 ], [ -77.6666667, 35.4583333 ], [ -77.0416667, 35.4583333 ], [ -76.6666667, 35.3333333 ], [ -76.0833333, 35.3333333 ], [ -75.9166667, 35.5416667 ], [ -75.7083333, 35.5833333 ], [ -75.7083333, 35.875 ], [ -75.5, 35.6666667 ], [ -75.5, 35.375 ], [ -75.4583333, 35.75 ], [ -75.75, 36.1666667 ], [ -75.9583333, 36.9583333 ], [ -76.25, 36.9583333 ], [ -76.3333333, 37.2916667 ], [ -76.25, 37.2916667 ], [ -76.2083333, 37.9166667 ], [ -76.5, 38.0833333 ], [ -76.375, 38.2083333 ], [ -76.5, 38.5 ], [ -76.5, 38.8333333 ], [ -76.375, 39.0 ], [ -76.3333333, 38.8333333 ], [ -76.3333333, 38.5416667 ], [ -76.3333333, 38.5 ], [ -76.2916667, 38.2916667 ], [ -76.125, 38.2083333 ], [ -76.0833333, 37.9166667 ], [ -75.7916667, 37.9166667 ], [ -76.0416667, 37.375 ], [ -75.7916667, 37.2916667 ], [ -75.625, 37.4166667 ], [ -75.5416667, 37.75 ], [ -75.3333333, 37.8333333 ], [ -75.0416667, 38.3333333 ], [ -75.0416667, 38.75 ], [ -75.375, 39.0416667 ], [ -75.4166667, 39.3333333 ], [ -75.1666667, 39.1666667 ], [ -74.9166667, 39.1666667 ], [ -74.8333333, 38.9166667 ], [ -74.5416667, 39.2916667 ], [ -74.375, 39.3333333 ], [ -74.125, 39.625 ], [ -73.9583333, 40.2083333 ], [ -74.0416667, 40.4583333 ], [ -73.8333333, 40.5833333 ], [ -73.25, 40.5833333 ], [ -72.0416667, 41.0 ], [ -72.2083333, 41.1666667 ], [ -72.375, 41.1666667 ], [ -72.5833333, 41.0 ], [ -73.1666667, 41.0 ], [ -73.6666667, 40.9166667 ], [ -73.5833333, 41.0 ], [ -73.0833333, 41.125 ], [ -72.8333333, 41.25 ], [ -72.1666667, 41.25 ], [ -71.4583333, 41.3333333 ], [ -71.2916667, 41.4583333 ], [ -70.75, 41.4166667 ], [ -70.2083333, 41.75 ], [ -70.5, 41.7916667 ], [ -70.5, 41.9583333 ], [ -70.7083333, 42.25 ], [ -70.9583333, 42.4166667 ], [ -70.7916667, 42.5416667 ], [ -70.8333333, 42.7083333 ], [ -71.2083333, 42.9583333 ], [ -71.25, 42.9583333 ], [ -71.2916667, 43.0416667 ], [ -71.2916667, 43.0833333 ], [ -71.5, 43.2916667 ], [ -71.625, 43.1666667 ], [ -71.5416667, 42.9166667 ], [ -71.875, 42.8333333 ], [ -71.875, 42.7083333 ], [ -71.9583333, 42.875 ], [ -72.2916667, 43.0833333 ], [ -72.2916667, 43.3333333 ], [ -72.1666667, 43.875 ], [ -72.4166667, 43.7083333 ], [ -72.5, 43.4583333 ], [ -72.625, 43.375 ], [ -72.7916667, 43.125 ], [ -72.7083333, 42.75 ], [ -72.9166667, 42.6666667 ], [ -72.9583333, 42.4583333 ], [ -72.9583333, 42.4166667 ], [ -73.0, 42.3333333 ], [ -73.1666667, 42.7083333 ], [ -73.1666667, 43.0416667 ], [ -73.125, 43.2916667 ], [ -73.2083333, 43.7083333 ], [ -73.25, 43.7916667 ], [ -73.4583333, 43.8333333 ], [ -73.5416667, 43.625 ], [ -73.875, 43.625 ], [ -73.7916667, 43.375 ], [ -74.2916667, 43.1666667 ], [ -74.875, 42.9166667 ], [ -75.0416667, 42.7083333 ], [ -75.25, 42.7916667 ], [ -75.4583333, 42.875 ], [ -75.5833333, 42.9166667 ], [ -75.5833333, 42.625 ], [ -76.0, 42.6666667 ], [ -76.0833333, 42.7083333 ], [ -75.8333333, 42.875 ], [ -75.5416667, 43.1666667 ], [ -75.7916667, 43.2916667 ], [ -76.5, 43.25 ], [ -76.6666667, 43.3333333 ], [ -76.9166667, 43.25 ], [ -77.4166667, 43.2916667 ], [ -77.6666667, 43.25 ], [ -77.9583333, 43.375 ], [ -78.5833333, 43.375 ], [ -78.9583333, 43.25 ], [ -79.7083333, 43.2083333 ], [ -79.75, 43.375 ], [ -79.5, 43.6666667 ], [ -79.375, 43.6666667 ], [ -79.0833333, 43.9583333 ], [ -79.125, 44.125 ], [ -79.1666667, 44.5833333 ], [ -80.0833333, 44.375 ], [ -80.1666667, 44.1666667 ], [ -80.2083333, 43.9166667 ], [ -80.4583333, 43.875 ], [ -80.5, 44.0 ], [ -80.7083333, 43.9166667 ], [ -80.6666667, 44.125 ], [ -80.9166667, 44.2083333 ], [ -81.2083333, 43.75 ], [ -81.125, 43.4583333 ], [ -81.2083333, 43.2916667 ], [ -81.6666667, 43.4166667 ], [ -81.875, 43.2083333 ], [ -82.1666667, 43.0416667 ], [ -82.4583333, 43.0 ], [ -82.625, 43.75 ], [ -82.875, 44.0416667 ], [ -83.3333333, 43.9166667 ], [ -83.4583333, 43.6666667 ], [ -83.625, 43.5833333 ], [ -83.9583333, 43.6666667 ], [ -83.9583333, 43.9166667 ], [ -83.5833333, 44.125 ], [ -83.5833333, 44.25 ], [ -83.3333333, 44.375 ], [ -83.3333333, 44.875 ], [ -83.5833333, 45.1666667 ], [ -83.75, 44.9583333 ], [ -83.7916667, 45.0416667 ], [ -83.8333333, 44.875 ], [ -83.8333333, 44.8333333 ], [ -84.25, 45.0416667 ] ], [ [ -84.125, 44.8333333 ], [ -83.9583333, 44.625 ], [ -83.9583333, 44.25 ], [ -84.4583333, 44.25 ], [ -84.8333333, 44.6666667 ], [ -84.6666667, 44.7083333 ], [ -84.625, 45.0416667 ], [ -84.2916667, 45.0 ], [ -84.25, 45.0416667 ], [ -84.2916667, 44.9166667 ], [ -84.2083333, 44.8333333 ], [ -84.125, 44.8333333 ] ], [ [ -85.25, 44.2083333 ], [ -85.0, 44.3333333 ], [ -85.0, 44.125 ], [ -85.375, 44.0833333 ], [ -85.5, 43.9166667 ], [ -85.5, 43.875 ], [ -85.5416667, 43.875 ], [ -85.5416667, 43.9583333 ], [ -85.5, 43.9583333 ], [ -85.5, 44.0 ], [ -85.5416667, 44.0 ], [ -85.5416667, 44.0833333 ], [ -85.5, 44.125 ], [ -85.4583333, 44.125 ], [ -85.4166667, 44.2083333 ], [ -85.375, 44.2083333 ], [ -85.25, 44.2083333 ] ], [ [ -80.4166667, 42.7916667 ], [ -79.8333333, 42.8333333 ], [ -79.5, 42.9166667 ], [ -79.1666667, 42.9166667 ], [ -78.875, 43.0833333 ], [ -78.8333333, 42.7916667 ], [ -79.125, 42.5416667 ], [ -80.4583333, 41.9583333 ], [ -80.625, 41.9583333 ], [ -81.375, 41.7083333 ], [ -81.7083333, 41.4583333 ], [ -82.0833333, 41.5 ], [ -82.375, 41.375 ], [ -83.0, 41.5416667 ], [ -83.4583333, 41.7916667 ], [ -83.2083333, 42.0416667 ], [ -83.1666667, 42.2916667 ], [ -82.9166667, 42.4166667 ], [ -82.7916667, 42.7083333 ], [ -82.5833333, 42.5416667 ], [ -82.4583333, 42.2916667 ], [ -83.0833333, 42.2916667 ], [ -83.0416667, 42.0416667 ], [ -82.5416667, 42.0416667 ], [ -82.125, 42.2916667 ], [ -81.9166667, 42.2916667 ], [ -81.6666667, 42.5416667 ], [ -81.4166667, 42.6666667 ], [ -80.7083333, 42.6666667 ], [ -80.4583333, 42.5833333 ], [ -80.4166667, 42.7916667 ] ], [ [ -74.7083333, 42.25 ], [ -74.7916667, 42.8333333 ], [ -74.5, 42.5416667 ], [ -74.5416667, 42.4583333 ], [ -74.0833333, 42.4583333 ], [ -74.0833333, 42.0833333 ], [ -74.2916667, 42.0416667 ], [ -74.3333333, 41.875 ], [ -74.6666667, 41.875 ], [ -74.7916667, 42.0 ], [ -74.5833333, 42.125 ], [ -74.7083333, 42.25 ] ], [ [ -74.4166667, 39.5 ], [ -74.7083333, 39.4583333 ], [ -74.6666667, 39.8333333 ], [ -74.2916667, 39.7916667 ], [ -74.2083333, 39.625 ], [ -74.4166667, 39.5416667 ], [ -74.4166667, 39.5 ] ], [ [ -75.75, 36.1666667 ], [ -75.75, 36.0 ], [ -76.2916667, 36.0 ], [ -76.0416667, 36.1666667 ], [ -75.7916667, 36.1666667 ], [ -75.75, 36.1666667 ] ], [ [ -79.25, 35.75 ], [ -79.2916667, 35.9583333 ], [ -79.125, 36.125 ], [ -78.9166667, 36.0833333 ], [ -78.875, 35.9166667 ], [ -78.875, 35.75 ], [ -79.25, 35.75 ] ] ], [ [ [ -80.0833333, 33.5 ], [ -80.0833333, 33.4583333 ], [ -80.0, 33.4583333 ], [ -80.0833333, 33.5 ] ] ], [ [ [ -83.375, 32.3333333 ], [ -83.625, 32.2916667 ], [ -83.5, 32.125 ], [ -83.375, 32.0833333 ], [ -83.375, 32.2083333 ], [ -83.3333333, 32.2916667 ], [ -83.375, 32.2916667 ], [ -83.375, 32.3333333 ] ] ], [ [ [ -80.125, 34.9166667 ], [ -80.125, 34.75 ], [ -80.3333333, 34.75 ], [ -81.0, 34.25 ], [ -81.3333333, 33.625 ], [ -81.6666667, 33.7083333 ], [ -81.8333333, 33.375 ], [ -82.2916667, 33.0833333 ], [ -82.6666667, 32.625 ], [ -82.6666667, 32.2083333 ], [ -82.8333333, 32.2083333 ], [ -83.1666667, 32.0416667 ], [ -83.3333333, 31.875 ], [ -83.4166667, 31.625 ], [ -83.6666667, 31.625 ], [ -83.7083333, 31.4583333 ], [ -84.5416667, 31.0833333 ], [ -84.7083333, 31.0 ], [ -85.125, 31.0416667 ], [ -85.5, 31.375 ], [ -85.5833333, 31.2083333 ], [ -85.9583333, 31.2083333 ], [ -86.1666667, 31.125 ], [ -86.25, 31.0416667 ], [ -86.4583333, 30.9583333 ], [ -87.0, 30.9583333 ], [ -87.5, 30.6666667 ], [ -87.75, 30.6666667 ], [ -88.125, 30.75 ], [ -88.2916667, 30.5 ], [ -88.4166667, 30.5416667 ], [ -88.5, 30.4583333 ], [ -89.125, 30.4583333 ], [ -89.1666667, 30.375 ], [ -88.875, 30.3333333 ], [ -88.2916667, 30.3333333 ], [ -88.125, 30.2916667 ], [ -87.9583333, 30.5416667 ], [ -87.8333333, 30.25 ], [ -87.2083333, 30.3333333 ], [ -86.9166667, 30.375 ], [ -86.375, 30.375 ], [ -85.9583333, 30.25 ], [ -85.5833333, 30.0416667 ], [ -85.4166667, 29.875 ], [ -85.4166667, 29.6666667 ], [ -85.125, 29.5833333 ], [ -84.875, 29.6666667 ], [ -84.7083333, 29.75 ], [ -84.625, 29.7916667 ], [ -84.3333333, 29.875 ], [ -84.3333333, 30.0416667 ], [ -84.0, 30.0833333 ], [ -83.75, 29.9583333 ], [ -83.4166667, 29.625 ], [ -83.0833333, 29.75 ], [ -82.8333333, 29.5833333 ], [ -82.75, 29.625 ], [ -82.5833333, 29.3333333 ], [ -82.4166667, 29.4166667 ], [ -82.375, 29.75 ], [ -82.2083333, 29.7916667 ], [ -82.125, 29.8333333 ], [ -81.75, 30.0 ], [ -81.625, 30.1666667 ], [ -81.5833333, 30.1666667 ], [ -81.3333333, 30.1666667 ], [ -81.4166667, 30.4166667 ], [ -81.4583333, 30.5 ], [ -81.375, 31.125 ], [ -81.25, 31.2083333 ], [ -81.0833333, 31.7083333 ], [ -80.8333333, 31.9583333 ], [ -80.8333333, 32.3333333 ], [ -80.5, 32.4583333 ], [ -80.4583333, 32.7916667 ], [ -80.3333333, 33.0833333 ], [ -80.25, 33.25 ], [ -80.0416667, 33.375 ], [ -80.0833333, 33.4583333 ], [ -80.1666667, 33.5 ], [ -80.0833333, 33.5 ], [ -80.1666667, 33.6666667 ], [ -79.7916667, 33.6666667 ], [ -79.75, 33.6666667 ], [ -79.75, 33.75 ], [ -79.5833333, 33.7916667 ], [ -79.5833333, 33.875 ], [ -79.625, 33.875 ], [ -79.7083333, 34.0833333 ], [ -79.6666667, 34.0833333 ], [ -79.625, 34.1666667 ], [ -79.5, 34.25 ], [ -79.375, 34.375 ], [ -79.4166667, 34.5833333 ], [ -79.25, 34.7083333 ], [ -79.2916667, 34.7916667 ], [ -79.4166667, 34.75 ], [ -79.875, 34.9166667 ], [ -79.9166667, 34.8333333 ], [ -80.125, 34.9166667 ] ], [ [ -79.375, 34.375 ], [ -79.5, 34.2916667 ], [ -79.4166667, 34.4583333 ], [ -79.375, 34.375 ] ] ] ] } }
]
}
