{
"type": "FeatureCollection",
"name": "Nabalus_racemosus",
"crs": { "type": "name", "properties": { "name": "urn:ogc:def:crs:OGC:1.3:CRS84" } },
"features": [
{ "type": "Feature", "properties": { "ID": 1 }, "geometry": { "type": "MultiPolygon", "coordinates": [ [ [ [ -93.5416667, 81.375 ], [ -92.2083333, 81.125 ], [ -91.7083333, 81.1666667 ], [ -92.9583333, 81.375 ], [ -93.5416667, 81.375 ] ] ], [ [ [ -78.9166667, 58.8333333 ], [ -78.9166667, 58.7916667 ], [ -78.875, 58.7916667 ], [ -78.875, 58.8333333 ], [ -78.9166667, 58.8333333 ] ] ], [ [ [ -61.9166667, 57.6666667 ], [ -61.9166667, 57.625 ], [ -61.875, 57.625 ], [ -61.875, 57.6666667 ], [ -61.9166667, 57.6666667 ] ] ], [ [ [ -79.75, 57.5416667 ], [ -79.75, 57.5 ], [ -79.7083333, 57.5 ], [ -79.7083333, 57.5416667 ], [ -79.75, 57.5416667 ] ] ], [ [ [ -61.375, 56.7916667 ], [ -61.3333333, 56.75 ], [ -61.3333333, 56.7916667 ], [ -61.375, 56.7916667 ] ] ], [ [ [ -76.6666667, 56.7083333 ], [ -76.6666667, 56.6666667 ], [ -76.625, 56.6666667 ], [ -76.625, 56.7083333 ], [ -76.6666667, 56.7083333 ] ] ], [ [ [ -61.0, 56.4583333 ], [ -61.0, 56.375 ], [ -60.9583333, 56.375 ], [ -60.9583333, 56.4583333 ], [ -61.0, 56.4583333 ] ] ], [ [ [ -77.75, 56.375 ], [ -77.7916667, 56.3333333 ], [ -77.75, 56.3333333 ], [ -77.75, 56.375 ] ] ], [ [ [ -77.9166667, 56.3333333 ], [ -77.9166667, 56.2916667 ], [ -77.875, 56.2916667 ], [ -77.875, 56.3333333 ], [ -77.9166667, 56.3333333 ] ] ], [ [ [ -79.0416667, 56.2083333 ], [ -79.0416667, 56.1666667 ], [ -79.0, 56.1666667 ], [ -79.0416667, 56.2083333 ] ] ], [ [ [ -79.0833333, 56.1666667 ], [ -79.0833333, 56.125 ], [ -79.0416667, 56.125 ], [ -79.0416667, 56.1666667 ], [ -79.0833333, 56.1666667 ] ] ], [ [ [ -76.7916667, 56.125 ], [ -76.7916667, 56.0833333 ], [ -76.75, 56.0833333 ], [ -76.7916667, 56.125 ] ] ], [ [ [ -60.6666667, 56.0 ], [ -60.7083333, 55.9583333 ], [ -60.6666667, 55.9583333 ], [ -60.6666667, 56.0 ] ] ], [ [ [ -79.875, 55.8333333 ], [ -79.9166667, 55.7916667 ], [ -79.875, 55.7916667 ], [ -79.875, 55.8333333 ] ] ], [ [ [ -79.3333333, 55.7083333 ], [ -79.3333333, 55.6666667 ], [ -79.2916667, 55.6666667 ], [ -79.2916667, 55.7083333 ], [ -79.3333333, 55.7083333 ] ] ], [ [ [ -79.4583333, 54.2083333 ], [ -79.4583333, 54.1666667 ], [ -79.4166667, 54.1666667 ], [ -79.4583333, 54.2083333 ] ] ], [ [ [ -79.5, 54.1666667 ], [ -79.5, 54.125 ], [ -79.4583333, 54.1666667 ], [ -79.5, 54.1666667 ] ] ], [ [ [ -79.1666667, 53.875 ], [ -79.1666667, 53.8333333 ], [ -79.125, 53.875 ], [ -79.1666667, 53.875 ] ] ], [ [ [ -79.125, 53.625 ], [ -79.125, 53.5416667 ], [ -79.0833333, 53.5416667 ], [ -79.0833333, 53.625 ], [ -79.125, 53.625 ] ] ], [ [ [ -78.9166667, 52.7916667 ], [ -78.9166667, 52.75 ], [ -78.875, 52.7916667 ], [ -78.9166667, 52.7916667 ] ] ], [ [ [ -81.4583333, 52.25 ], [ -81.4583333, 52.2083333 ], [ -81.4166667, 52.2083333 ], [ -81.4166667, 52.25 ], [ -81.4583333, 52.25 ] ] ], [ [ [ -78.9583333, 52.125 ], [ -78.9583333, 52.0416667 ], [ -78.9166667, 52.125 ], [ -78.9583333, 52.125 ] ] ], [ [ [ -79.125, 51.8333333 ], [ -79.125, 51.7916667 ], [ -79.0833333, 51.7916667 ], [ -79.125, 51.8333333 ] ] ], [ [ [ -105.4166667, 42.3333333 ], [ -105.5416667, 42.3333333 ], [ -105.7916667, 42.5416667 ], [ -106.0, 42.5833333 ], [ -106.1666667, 42.5 ], [ -106.0, 42.4166667 ], [ -106.0, 42.375 ], [ -105.9583333, 42.3333333 ], [ -105.875, 42.2916667 ], [ -105.8333333, 42.25 ], [ -105.7083333, 42.2083333 ], [ -105.7083333, 42.1666667 ], [ -105.6666667, 42.125 ], [ -105.5833333, 42.125 ], [ -105.5416667, 42.2083333 ], [ -105.4166667, 42.3333333 ] ] ], [ [ [ -106.625, 42.25 ], [ -106.625, 42.2083333 ], [ -106.4583333, 42.125 ], [ -106.625, 42.25 ] ] ], [ [ [ -105.5416667, 42.125 ], [ -105.5416667, 42.0833333 ], [ -105.75, 42.0416667 ], [ -105.7083333, 41.9583333 ], [ -105.5, 42.0416667 ], [ -105.5416667, 42.125 ] ] ], [ [ [ -107.2916667, 41.625 ], [ -107.4166667, 41.625 ], [ -107.2916667, 41.4166667 ], [ -107.1666667, 41.375 ], [ -107.25, 41.5416667 ], [ -107.2916667, 41.5833333 ], [ -107.2916667, 41.625 ] ] ], [ [ [ -105.2916667, 41.5 ], [ -105.4583333, 41.6666667 ], [ -105.5416667, 41.5416667 ], [ -105.5, 41.1666667 ], [ -105.25, 41.125 ], [ -105.2916667, 41.4583333 ], [ -105.2916667, 41.5 ] ] ], [ [ [ -106.0, 41.5833333 ], [ -106.4583333, 41.75 ], [ -106.5833333, 41.75 ], [ -106.625, 41.7083333 ], [ -106.625, 41.4583333 ], [ -106.3333333, 41.1666667 ], [ -106.0833333, 41.2916667 ], [ -106.0, 41.5416667 ], [ -106.0, 41.5833333 ] ] ], [ [ [ -107.1666667, 41.375 ], [ -107.2083333, 41.1666667 ], [ -106.8333333, 41.1666667 ], [ -107.0, 41.3333333 ], [ -107.1666667, 41.375 ] ] ], [ [ [ -105.875, 40.6666667 ], [ -105.5416667, 40.4583333 ], [ -105.3333333, 40.4583333 ], [ -105.3333333, 40.625 ], [ -105.5, 40.75 ], [ -105.5, 40.9583333 ], [ -105.6666667, 41.0 ], [ -105.8333333, 40.875 ], [ -105.875, 40.6666667 ] ] ] ] } },
{ "type": "Feature", "properties": { "ID": 2 }, "geometry": { "type": "MultiPolygon", "coordinates": [ [ [ [ -122.2083333, 71.2916667 ], [ -122.25, 71.25 ], [ -122.2083333, 71.25 ], [ -122.2083333, 71.2916667 ] ] ], [ [ [ -109.0833333, 68.25 ], [ -109.0833333, 68.2083333 ], [ -109.0416667, 68.2083333 ], [ -109.0416667, 68.25 ], [ -109.0833333, 68.25 ] ] ], [ [ [ -109.6666667, 68.2083333 ], [ -109.7083333, 68.1666667 ], [ -109.6666667, 68.1666667 ], [ -109.6666667, 68.2083333 ] ] ], [ [ [ -79.875, 59.9166667 ], [ -79.875, 59.875 ], [ -79.8333333, 59.9166667 ], [ -79.875, 59.9166667 ] ] ], [ [ [ -80.5833333, 59.3333333 ], [ -80.5833333, 59.2916667 ], [ -80.5416667, 59.3333333 ], [ -80.5833333, 59.3333333 ] ] ], [ [ [ -68.9166667, 59.125 ], [ -68.9166667, 59.0833333 ], [ -68.875, 59.0833333 ], [ -68.9166667, 59.125 ] ] ], [ [ [ -68.9166667, 59.0416667 ], [ -68.9166667, 59.0 ], [ -68.875, 59.0416667 ], [ -68.9166667, 59.0416667 ] ] ], [ [ [ -79.75, 57.5 ], [ -79.75, 57.4583333 ], [ -79.7083333, 57.5 ], [ -79.75, 57.5 ] ] ], [ [ [ -76.6666667, 56.9166667 ], [ -76.6666667, 56.7916667 ], [ -76.625, 56.7916667 ], [ -76.6666667, 56.9166667 ] ] ], [ [ [ -79.5833333, 56.5833333 ], [ -79.5833333, 56.5416667 ], [ -79.5416667, 56.5833333 ], [ -79.5833333, 56.5833333 ] ] ], [ [ [ -76.6666667, 56.5416667 ], [ -76.625, 56.5833333 ], [ -76.6666667, 56.5833333 ], [ -76.6666667, 56.5416667 ] ] ], [ [ [ -77.875, 56.3333333 ], [ -77.875, 56.2916667 ], [ -77.8333333, 56.2916667 ], [ -77.8333333, 56.3333333 ], [ -77.875, 56.3333333 ] ] ], [ [ [ -79.0416667, 56.1666667 ], [ -79.0416667, 56.125 ], [ -79.0, 56.125 ], [ -79.0, 56.1666667 ], [ -79.0416667, 56.1666667 ] ] ], [ [ [ -79.0833333, 56.125 ], [ -79.0833333, 56.0833333 ], [ -79.0416667, 56.0833333 ], [ -79.0416667, 56.125 ], [ -79.0833333, 56.125 ] ] ], [ [ [ -79.125, 56.0833333 ], [ -79.125, 56.0416667 ], [ -79.0833333, 56.0416667 ], [ -79.0833333, 56.0833333 ], [ -79.125, 56.0833333 ] ] ], [ [ [ -79.2916667, 56.0 ], [ -79.2916667, 55.9583333 ], [ -79.25, 55.9583333 ], [ -79.2916667, 56.0 ] ] ], [ [ [ -79.75, 55.9583333 ], [ -79.7083333, 55.9166667 ], [ -79.7083333, 55.9583333 ], [ -79.75, 55.9583333 ] ] ], [ [ [ -79.3333333, 55.9583333 ], [ -79.2916667, 55.9166667 ], [ -79.2916667, 55.9583333 ], [ -79.3333333, 55.9583333 ] ] ], [ [ [ -79.75, 55.875 ], [ -79.875, 55.8333333 ], [ -79.875, 55.7916667 ], [ -79.75, 55.875 ] ] ], [ [ [ -79.0833333, 55.875 ], [ -79.25, 55.75 ], [ -79.1666667, 55.9166667 ], [ -79.2916667, 55.9166667 ], [ -79.375, 55.7083333 ], [ -79.2916667, 55.7083333 ], [ -79.2916667, 55.6666667 ], [ -79.0416667, 55.8333333 ], [ -79.0833333, 55.875 ] ] ], [ [ [ -79.6666667, 54.7916667 ], [ -79.6666667, 54.75 ], [ -79.625, 54.75 ], [ -79.6666667, 54.7916667 ] ] ], [ [ [ -79.5, 54.25 ], [ -79.5, 54.2083333 ], [ -79.4583333, 54.2083333 ], [ -79.5, 54.25 ] ] ], [ [ [ -79.0833333, 53.6666667 ], [ -79.125, 53.625 ], [ -79.0833333, 53.625 ], [ -79.0833333, 53.6666667 ] ] ], [ [ [ -79.1666667, 53.5833333 ], [ -79.1666667, 53.5416667 ], [ -79.125, 53.5416667 ], [ -79.125, 53.5833333 ], [ -79.1666667, 53.5833333 ] ] ], [ [ [ -78.7083333, 52.4583333 ], [ -78.7083333, 52.4166667 ], [ -78.6666667, 52.4583333 ], [ -78.7083333, 52.4583333 ] ] ], [ [ [ -81.4583333, 52.2916667 ], [ -81.4583333, 52.25 ], [ -81.4166667, 52.25 ], [ -81.4583333, 52.2916667 ] ] ], [ [ [ -79.0833333, 51.7916667 ], [ -79.0833333, 51.75 ], [ -79.0416667, 51.7916667 ], [ -79.0833333, 51.7916667 ] ] ] ] } },
{ "type": "Feature", "properties": { "ID": 3 }, "geometry": { "type": "MultiPolygon", "coordinates": [ [ [ [ -136.4166667, 69.0 ], [ -136.5833333, 69.0416667 ], [ -136.5833333, 69.0 ], [ -136.4166667, 69.0 ] ] ], [ [ [ -106.0416667, 68.5416667 ], [ -106.0416667, 68.5 ], [ -106.0, 68.5416667 ], [ -106.0416667, 68.5416667 ] ] ], [ [ [ -100.875, 54.125 ], [ -100.5833333, 54.25 ], [ -100.9583333, 54.3333333 ], [ -100.875, 54.125 ] ] ], [ [ [ -100.4166667, 53.9583333 ], [ -100.3333333, 53.875 ], [ -100.2916667, 53.9166667 ], [ -100.4166667, 53.9583333 ] ] ], [ [ [ -101.625, 54.2083333 ], [ -102.0416667, 54.2916667 ], [ -101.9166667, 53.75 ], [ -101.75, 53.8333333 ], [ -101.375, 53.8333333 ], [ -101.25, 53.9166667 ], [ -100.875, 53.9583333 ], [ -100.875, 54.125 ], [ -101.625, 54.2083333 ] ] ], [ [ [ -100.4166667, 53.7916667 ], [ -100.4583333, 53.7916667 ], [ -100.5416667, 53.75 ], [ -100.5, 53.7083333 ], [ -100.4166667, 53.7916667 ] ] ], [ [ [ -99.0416667, 53.875 ], [ -99.375, 53.9166667 ], [ -99.3333333, 53.75 ], [ -99.0416667, 53.875 ] ] ], [ [ [ -99.7083333, 54.0416667 ], [ -100.0, 54.2083333 ], [ -100.2083333, 54.0833333 ], [ -100.2083333, 54.0416667 ], [ -100.2916667, 54.0 ], [ -100.125, 53.9583333 ], [ -100.3333333, 53.875 ], [ -99.9583333, 53.5416667 ], [ -99.7083333, 53.5416667 ], [ -99.4583333, 53.5833333 ], [ -99.5833333, 53.75 ], [ -99.4583333, 53.875 ], [ -99.4166667, 53.875 ], [ -99.7083333, 54.0416667 ] ], [ [ -100.0416667, 53.9583333 ], [ -99.9583333, 53.9166667 ], [ -100.125, 53.9583333 ], [ -100.0416667, 53.9583333 ] ] ], [ [ [ -104.25, 52.4166667 ], [ -104.0416667, 52.625 ], [ -104.3333333, 52.6666667 ], [ -104.25, 52.4166667 ] ] ], [ [ [ -102.7083333, 52.4166667 ], [ -102.4166667, 52.4583333 ], [ -102.375, 52.5833333 ], [ -103.1666667, 52.5833333 ], [ -103.2083333, 52.4166667 ], [ -103.4166667, 52.4166667 ], [ -103.375, 52.2083333 ], [ -103.125, 52.1666667 ], [ -102.6666667, 52.3333333 ], [ -102.7083333, 52.4166667 ] ] ], [ [ [ -104.75, 51.9583333 ], [ -104.8333333, 51.875 ], [ -104.9166667, 51.8333333 ], [ -104.9166667, 51.7916667 ], [ -104.625, 51.875 ], [ -104.75, 51.9583333 ] ] ], [ [ [ -101.125, 51.8333333 ], [ -101.375, 51.7083333 ], [ -101.6666667, 51.7083333 ], [ -101.7083333, 51.5833333 ], [ -101.1666667, 51.5416667 ], [ -101.0833333, 51.3333333 ], [ -100.75, 51.3333333 ], [ -100.625, 51.4583333 ], [ -100.75, 51.75 ], [ -100.9166667, 51.5833333 ], [ -101.2083333, 51.625 ], [ -101.125, 51.8333333 ] ] ], [ [ [ -103.7083333, 51.8333333 ], [ -103.9583333, 52.0 ], [ -104.375, 52.0416667 ], [ -104.7083333, 51.625 ], [ -104.9166667, 51.625 ], [ -104.625, 51.5 ], [ -104.5, 51.625 ], [ -104.4166667, 51.5833333 ], [ -104.0833333, 51.5416667 ], [ -104.0416667, 51.5416667 ], [ -103.75, 51.7083333 ], [ -103.75, 51.5416667 ], [ -103.625, 51.5833333 ], [ -103.5, 51.5416667 ], [ -103.5416667, 51.5 ], [ -103.4166667, 51.25 ], [ -103.4583333, 51.2083333 ], [ -103.6666667, 51.1666667 ], [ -103.5416667, 50.9583333 ], [ -103.5, 50.7916667 ], [ -103.3333333, 50.75 ], [ -103.125, 50.625 ], [ -102.9583333, 50.75 ], [ -103.125, 50.875 ], [ -102.8333333, 51.0 ], [ -102.7916667, 51.2916667 ], [ -102.8333333, 51.2916667 ], [ -102.9583333, 51.4583333 ], [ -103.2083333, 51.5416667 ], [ -103.25, 51.625 ], [ -103.2083333, 51.625 ], [ -103.2083333, 51.7083333 ], [ -103.5, 51.9583333 ], [ -103.7083333, 51.8333333 ] ] ], [ [ [ -103.625, 50.4583333 ], [ -103.625, 50.4166667 ], [ -103.5833333, 50.4166667 ], [ -103.625, 50.4583333 ] ] ], [ [ [ -103.25, 50.25 ], [ -103.375, 50.4166667 ], [ -103.5833333, 50.4166667 ], [ -103.5833333, 50.2916667 ], [ -103.25, 50.25 ] ] ] ] } },
{ "type": "Feature", "properties": { "ID": 4 }, "geometry": { "type": "MultiPolygon", "coordinates": [ [ [ [ -79.875, 59.9583333 ], [ -79.875, 59.9166667 ], [ -79.8333333, 59.9166667 ], [ -79.875, 59.9583333 ] ] ], [ [ [ -80.2916667, 59.4166667 ], [ -80.2916667, 59.375 ], [ -80.25, 59.375 ], [ -80.25, 59.4166667 ], [ -80.2916667, 59.4166667 ] ] ], [ [ [ -80.5833333, 59.375 ], [ -80.5833333, 59.3333333 ], [ -80.5416667, 59.3333333 ], [ -80.5833333, 59.375 ] ] ], [ [ [ -65.7083333, 59.3333333 ], [ -65.7083333, 59.2916667 ], [ -65.6666667, 59.3333333 ], [ -65.7083333, 59.3333333 ] ] ], [ [ [ -68.9583333, 59.1666667 ], [ -68.9583333, 59.125 ], [ -68.9166667, 59.125 ], [ -68.9166667, 59.1666667 ], [ -68.9583333, 59.1666667 ] ] ], [ [ [ -68.9166667, 59.0833333 ], [ -68.9166667, 59.0416667 ], [ -68.875, 59.0416667 ], [ -68.875, 59.0833333 ], [ -68.9166667, 59.0833333 ] ] ], [ [ [ -78.9166667, 58.875 ], [ -78.9166667, 58.8333333 ], [ -78.875, 58.8333333 ], [ -78.9166667, 58.875 ] ] ], [ [ [ -69.8333333, 58.7916667 ], [ -69.7916667, 58.75 ], [ -69.7916667, 58.7916667 ], [ -69.8333333, 58.7916667 ] ] ], [ [ [ -62.875, 58.625 ], [ -62.9166667, 58.5833333 ], [ -62.875, 58.5833333 ], [ -62.875, 58.625 ] ] ], [ [ [ -76.9166667, 57.5833333 ], [ -76.875, 57.5 ], [ -76.875, 57.5833333 ], [ -76.9166667, 57.5833333 ] ] ], [ [ [ -79.75, 57.5 ], [ -79.7916667, 57.4583333 ], [ -79.75, 57.4583333 ], [ -79.75, 57.5 ] ] ], [ [ [ -78.3333333, 57.3333333 ], [ -78.3333333, 57.2083333 ], [ -78.2916667, 57.2083333 ], [ -78.2916667, 57.2916667 ], [ -78.3333333, 57.3333333 ] ] ], [ [ [ -61.3333333, 56.7916667 ], [ -61.3333333, 56.75 ], [ -61.2916667, 56.75 ], [ -61.3333333, 56.7916667 ] ] ], [ [ [ -79.6666667, 56.9583333 ], [ -79.7083333, 56.8333333 ], [ -79.6666667, 56.8333333 ], [ -79.625, 56.875 ], [ -79.6666667, 56.9583333 ] ] ], [ [ [ -76.6666667, 56.7916667 ], [ -76.6666667, 56.7083333 ], [ -76.625, 56.7083333 ], [ -76.625, 56.7916667 ], [ -76.6666667, 56.7916667 ] ] ], [ [ [ -79.6666667, 56.8333333 ], [ -79.5833333, 56.5833333 ], [ -79.5416667, 56.5833333 ], [ -79.5, 56.625 ], [ -79.5, 56.7916667 ], [ -79.5416667, 56.8333333 ], [ -79.6666667, 56.8333333 ] ] ], [ [ [ -76.6666667, 56.6666667 ], [ -76.6666667, 56.5833333 ], [ -76.625, 56.5833333 ], [ -76.625, 56.6666667 ], [ -76.6666667, 56.6666667 ] ] ], [ [ [ -77.5416667, 56.4166667 ], [ -77.5416667, 56.375 ], [ -77.4583333, 56.375 ], [ -77.4583333, 56.4166667 ], [ -77.5416667, 56.4166667 ] ] ], [ [ [ -77.75, 56.375 ], [ -77.8333333, 56.3333333 ], [ -77.7916667, 56.3333333 ], [ -77.75, 56.375 ] ] ], [ [ [ -76.5, 56.25 ], [ -76.625, 56.2916667 ], [ -76.7083333, 56.1666667 ], [ -76.7083333, 56.2083333 ], [ -76.6666667, 56.3333333 ], [ -76.7916667, 56.125 ], [ -76.75, 56.0833333 ], [ -76.7083333, 56.0416667 ], [ -76.4166667, 56.1666667 ], [ -76.4583333, 56.25 ], [ -76.5, 56.25 ] ] ], [ [ [ -76.7916667, 56.0416667 ], [ -76.7916667, 56.0 ], [ -76.7083333, 56.0 ], [ -76.7083333, 56.0416667 ], [ -76.7916667, 56.0416667 ] ] ], [ [ [ -76.375, 56.1666667 ], [ -76.1666667, 56.0416667 ], [ -75.9583333, 56.2083333 ], [ -76.375, 56.4166667 ], [ -76.4166667, 56.2916667 ], [ -76.375, 56.1666667 ] ] ], [ [ [ -74.7083333, 56.3333333 ], [ -74.6666667, 56.0833333 ], [ -74.3333333, 56.0833333 ], [ -74.2083333, 55.9583333 ], [ -73.9166667, 56.0833333 ], [ -74.25, 56.1666667 ], [ -74.375, 56.3333333 ], [ -74.7083333, 56.3333333 ] ] ], [ [ [ -79.1666667, 56.0833333 ], [ -79.25, 55.9583333 ], [ -79.1666667, 55.9166667 ], [ -79.125, 55.9583333 ], [ -79.125, 56.0833333 ], [ -79.1666667, 56.0833333 ] ] ], [ [ [ -79.125, 56.5833333 ], [ -79.4166667, 56.5416667 ], [ -79.4583333, 56.5833333 ], [ -79.5833333, 56.5416667 ], [ -79.7083333, 56.25 ], [ -79.6666667, 56.2083333 ], [ -80.0416667, 55.875 ], [ -79.75, 55.875 ], [ -79.75, 55.9583333 ], [ -79.7083333, 55.9583333 ], [ -79.6666667, 56.0 ], [ -79.7083333, 55.9166667 ], [ -79.3333333, 55.9583333 ], [ -79.2916667, 56.0 ], [ -79.2083333, 56.125 ], [ -79.125, 56.0833333 ], [ -79.0833333, 56.0833333 ], [ -79.0833333, 56.1666667 ], [ -79.0416667, 56.1666667 ], [ -79.0416667, 56.2083333 ], [ -78.9166667, 56.25 ], [ -79.0, 56.125 ], [ -79.0416667, 56.0833333 ], [ -79.0833333, 56.0416667 ], [ -79.0833333, 55.875 ], [ -78.8333333, 56.0416667 ], [ -78.8333333, 56.0833333 ], [ -78.875, 56.2916667 ], [ -79.0833333, 56.4583333 ], [ -79.125, 56.5833333 ] ] ], [ [ [ -60.7083333, 55.9583333 ], [ -60.7083333, 55.875 ], [ -60.6666667, 55.9583333 ], [ -60.7083333, 55.9583333 ] ] ], [ [ [ -77.1666667, 55.7916667 ], [ -77.2916667, 55.7083333 ], [ -77.2083333, 55.7083333 ], [ -77.1666667, 55.75 ], [ -77.1666667, 55.7916667 ] ] ], [ [ [ -79.375, 55.7083333 ], [ -79.3333333, 55.6666667 ], [ -79.3333333, 55.7083333 ], [ -79.375, 55.7083333 ] ] ], [ [ [ -59.8333333, 55.5 ], [ -60.2083333, 55.4166667 ], [ -59.7916667, 55.4166667 ], [ -59.8333333, 55.5 ] ] ], [ [ [ -79.0416667, 54.9583333 ], [ -79.0833333, 54.875 ], [ -79.0416667, 54.9166667 ], [ -79.0416667, 54.9583333 ] ] ], [ [ [ -79.5, 54.2083333 ], [ -79.5, 54.1666667 ], [ -79.4583333, 54.1666667 ], [ -79.4583333, 54.2083333 ], [ -79.5, 54.2083333 ] ] ], [ [ [ -73.375, 54.0833333 ], [ -73.5833333, 53.9583333 ], [ -73.4166667, 53.8333333 ], [ -73.0, 53.875 ], [ -73.0, 54.0 ], [ -73.375, 54.0833333 ] ] ], [ [ [ -79.125, 53.625 ], [ -79.1666667, 53.5833333 ], [ -79.125, 53.5833333 ], [ -79.125, 53.625 ] ] ], [ [ [ -79.9166667, 53.2916667 ], [ -80.0, 53.2083333 ], [ -79.9583333, 53.25 ], [ -79.9166667, 53.2916667 ] ] ], [ [ [ -76.0416667, 54.1666667 ], [ -76.625, 54.0416667 ], [ -76.9166667, 53.8333333 ], [ -77.4583333, 53.8333333 ], [ -77.5, 53.5416667 ], [ -77.375, 53.5 ], [ -76.7083333, 53.5 ], [ -76.875, 53.375 ], [ -76.9166667, 53.0 ], [ -76.4166667, 53.2916667 ], [ -76.4166667, 53.5416667 ], [ -75.875, 53.6666667 ], [ -76.0, 53.4166667 ], [ -75.4583333, 53.4583333 ], [ -75.375, 53.5833333 ], [ -75.375, 53.625 ], [ -74.2083333, 53.625 ], [ -74.7083333, 53.75 ], [ -74.7083333, 53.9166667 ], [ -75.0, 53.875 ], [ -75.2916667, 54.0 ], [ -75.7916667, 54.0 ], [ -75.8333333, 53.7916667 ], [ -76.375, 53.7916667 ], [ -76.125, 53.9583333 ], [ -76.0416667, 54.1666667 ] ] ], [ [ [ -78.7083333, 52.4583333 ], [ -78.75, 52.375 ], [ -78.7083333, 52.4166667 ], [ -78.7083333, 52.4583333 ] ] ], [ [ [ -81.5, 52.2916667 ], [ -81.4583333, 52.25 ], [ -81.4583333, 52.2916667 ], [ -81.5, 52.2916667 ] ] ], [ [ [ -76.4583333, 52.8333333 ], [ -76.6666667, 52.7083333 ], [ -76.75, 52.2916667 ], [ -76.4166667, 52.3333333 ], [ -76.0416667, 52.5416667 ], [ -76.0416667, 52.75 ], [ -76.375, 52.7083333 ], [ -76.4583333, 52.8333333 ] ] ], [ [ [ -79.0833333, 52.1666667 ], [ -78.9583333, 52.0416667 ], [ -78.9583333, 52.125 ], [ -79.0833333, 52.1666667 ] ] ], [ [ [ -79.25, 52.0416667 ], [ -79.5, 52.0833333 ], [ -79.6666667, 51.9166667 ], [ -79.2083333, 51.9166667 ], [ -79.25, 52.0416667 ] ] ], [ [ [ -79.125, 51.8333333 ], [ -79.1666667, 51.7916667 ], [ -79.125, 51.7916667 ], [ -79.125, 51.8333333 ] ] ], [ [ [ -75.2083333, 51.9166667 ], [ -75.3333333, 51.6666667 ], [ -75.0, 51.6666667 ], [ -75.2083333, 51.9166667 ] ] ], [ [ [ -75.0833333, 51.5416667 ], [ -75.125, 51.3333333 ], [ -74.7083333, 51.3333333 ], [ -74.7083333, 51.4583333 ], [ -75.0833333, 51.5416667 ] ] ], [ [ [ -74.1666667, 51.375 ], [ -74.5, 51.4166667 ], [ -74.5416667, 51.4166667 ], [ -74.5833333, 51.2916667 ], [ -74.375, 51.1666667 ], [ -74.1666667, 51.375 ] ] ], [ [ [ -68.9166667, 51.1666667 ], [ -68.5833333, 51.0833333 ], [ -68.2916667, 51.1666667 ], [ -68.1666667, 51.2916667 ], [ -68.5, 51.4166667 ], [ -68.375, 51.2916667 ], [ -68.5416667, 51.1666667 ], [ -68.9166667, 51.1666667 ] ] ], [ [ [ -91.0416667, 50.7916667 ], [ -91.0416667, 50.75 ], [ -91.0, 50.75 ], [ -91.0416667, 50.7916667 ] ] ], [ [ [ -73.8333333, 50.375 ], [ -73.75, 50.625 ], [ -73.5416667, 50.7916667 ], [ -73.375, 50.7916667 ], [ -73.2083333, 50.9583333 ], [ -72.9166667, 51.0833333 ], [ -72.7916667, 51.3333333 ], [ -73.1666667, 51.375 ], [ -73.375, 51.2916667 ], [ -73.5833333, 51.0833333 ], [ -73.875, 51.0833333 ], [ -74.0416667, 50.6666667 ], [ -74.0416667, 50.4166667 ], [ -73.8333333, 50.375 ] ] ], [ [ [ -79.4583333, 54.875 ], [ -79.6666667, 54.875 ], [ -79.75, 54.8333333 ], [ -79.6666667, 54.75 ], [ -79.6666667, 54.7916667 ], [ -79.625, 54.75 ], [ -79.625, 54.5833333 ], [ -79.5, 54.25 ], [ -79.4583333, 54.2083333 ], [ -79.4166667, 54.1666667 ], [ -79.2916667, 54.0416667 ], [ -79.2083333, 54.0 ], [ -79.1666667, 53.9583333 ], [ -79.1666667, 53.875 ], [ -79.125, 53.875 ], [ -79.125, 53.7083333 ], [ -79.0833333, 53.6666667 ], [ -79.0833333, 53.5416667 ], [ -79.1666667, 53.5416667 ], [ -79.0416667, 53.375 ], [ -79.0, 53.125 ], [ -79.0416667, 53.125 ], [ -79.0416667, 53.0 ], [ -78.9583333, 53.0 ], [ -78.875, 52.8333333 ], [ -78.875, 52.7916667 ], [ -78.8333333, 52.6666667 ], [ -78.8333333, 52.625 ], [ -78.5833333, 52.5 ], [ -78.5833333, 52.125 ], [ -78.7916667, 52.0416667 ], [ -78.9166667, 51.875 ], [ -79.0416667, 51.7916667 ], [ -78.8333333, 51.5 ], [ -79.2083333, 51.5416667 ], [ -79.4166667, 51.6666667 ], [ -79.75, 51.2083333 ], [ -80.4166667, 51.375 ], [ -80.5416667, 51.7083333 ], [ -80.75, 51.8333333 ], [ -80.5833333, 51.6666667 ], [ -80.5, 51.4166667 ], [ -80.875, 51.375 ], [ -80.875, 51.0416667 ], [ -80.7916667, 51.0 ], [ -80.2916667, 51.0 ], [ -80.2916667, 50.75 ], [ -80.125, 50.625 ], [ -79.7916667, 50.5833333 ], [ -79.625, 50.4583333 ], [ -79.5, 50.4583333 ], [ -79.2083333, 50.2916667 ], [ -79.0416667, 50.3333333 ], [ -78.9583333, 50.1666667 ], [ -78.875, 50.25 ], [ -78.625, 50.25 ], [ -78.3333333, 50.25 ], [ -77.9583333, 50.375 ], [ -77.9166667, 50.375 ], [ -77.625, 50.3333333 ], [ -77.1666667, 50.2916667 ], [ -77.0416667, 50.4166667 ], [ -76.6666667, 50.5 ], [ -76.375, 50.5 ], [ -76.2083333, 50.625 ], [ -76.2083333, 50.8333333 ], [ -76.0416667, 51.125 ], [ -76.0, 51.2083333 ], [ -75.7916667, 51.2916667 ], [ -76.4166667, 51.2916667 ], [ -76.8333333, 51.125 ], [ -76.5833333, 51.5416667 ], [ -76.9166667, 51.6666667 ], [ -76.5, 51.9583333 ], [ -76.7083333, 52.1666667 ], [ -77.1666667, 52.125 ], [ -77.125, 51.9583333 ], [ -77.3333333, 51.9166667 ], [ -77.5416667, 52.125 ], [ -77.1666667, 52.2916667 ], [ -77.2916667, 52.3333333 ], [ -77.5, 52.4166667 ], [ -77.9583333, 52.4166667 ], [ -78.2916667, 52.5416667 ], [ -78.5, 52.625 ], [ -78.5, 53.0 ], [ -78.75, 53.125 ], [ -78.7916667, 53.5416667 ], [ -78.875, 53.625 ], [ -78.7083333, 53.8333333 ], [ -78.9166667, 53.875 ], [ -79.0416667, 54.1666667 ], [ -79.3333333, 54.25 ], [ -79.4583333, 54.375 ], [ -79.5416667, 54.6666667 ], [ -79.4583333, 54.875 ] ] ], [ [ [ -64.4166667, 49.9583333 ], [ -64.5416667, 49.8333333 ], [ -64.25, 49.7083333 ], [ -64.0416667, 49.7083333 ], [ -63.6666667, 49.5416667 ], [ -63.5, 49.3333333 ], [ -62.7916667, 49.125 ], [ -62.5, 49.125 ], [ -62.3333333, 49.0416667 ], [ -61.75, 49.0416667 ], [ -61.7916667, 49.3333333 ], [ -63.0, 49.7916667 ], [ -63.4583333, 49.875 ], [ -63.7916667, 49.875 ], [ -64.0, 49.9583333 ], [ -64.4166667, 49.9583333 ] ] ], [ [ [ -71.8333333, 48.75 ], [ -71.9166667, 48.7916667 ], [ -72.7083333, 48.7916667 ], [ -72.75, 48.6666667 ], [ -72.4166667, 48.3333333 ], [ -72.1666667, 48.2916667 ], [ -71.8333333, 48.375 ], [ -71.6666667, 48.625 ], [ -71.8333333, 48.75 ] ] ], [ [ [ -64.5, 50.75 ], [ -64.625, 50.6666667 ], [ -65.0833333, 50.75 ], [ -65.3333333, 51.0 ], [ -65.3333333, 50.875 ], [ -65.75, 50.8333333 ], [ -65.875, 51.0 ], [ -66.2916667, 51.125 ], [ -66.4166667, 51.0416667 ], [ -66.8333333, 50.9583333 ], [ -66.9583333, 51.2083333 ], [ -67.0, 50.9166667 ], [ -67.375, 50.7916667 ], [ -67.2916667, 50.375 ], [ -67.2916667, 50.3333333 ], [ -67.375, 50.5416667 ], [ -67.6666667, 50.375 ], [ -67.875, 50.4166667 ], [ -68.0, 50.25 ], [ -68.25, 50.125 ], [ -68.25, 49.9583333 ], [ -68.5833333, 49.875 ], [ -69.0, 50.2083333 ], [ -69.125, 50.0833333 ], [ -69.125, 49.875 ], [ -69.0, 49.7916667 ], [ -68.9166667, 49.4583333 ], [ -69.1666667, 49.3333333 ], [ -69.4583333, 49.2916667 ], [ -69.75, 49.375 ], [ -69.7083333, 49.0833333 ], [ -69.5416667, 48.9166667 ], [ -69.9583333, 48.625 ], [ -70.0416667, 48.5416667 ], [ -70.1666667, 48.4166667 ], [ -70.8333333, 48.4166667 ], [ -70.4166667, 48.3333333 ], [ -70.4166667, 48.1666667 ], [ -70.25, 48.0833333 ], [ -70.3333333, 47.9166667 ], [ -70.625, 47.6666667 ], [ -70.5833333, 47.25 ], [ -70.1666667, 47.5 ], [ -70.0833333, 47.6666667 ], [ -69.7916667, 47.875 ], [ -69.625, 48.125 ], [ -69.2916667, 48.375 ], [ -69.0833333, 48.7083333 ], [ -68.5833333, 49.0416667 ], [ -68.1666667, 49.0833333 ], [ -68.125, 49.25 ], [ -67.3333333, 49.2916667 ], [ -67.2083333, 49.4166667 ], [ -67.2083333, 49.625 ], [ -66.9166667, 50.0 ], [ -66.6666667, 50.125 ], [ -66.375, 50.125 ], [ -66.0, 50.25 ], [ -64.2083333, 50.25 ], [ -63.9583333, 50.1666667 ], [ -63.1666667, 50.1666667 ], [ -63.0416667, 50.25 ], [ -62.25, 50.25 ], [ -62.0, 50.2083333 ], [ -62.2083333, 50.25 ], [ -62.4166667, 50.4166667 ], [ -62.5416667, 50.5833333 ], [ -62.75, 50.625 ], [ -63.1666667, 50.5833333 ], [ -63.2083333, 50.6666667 ], [ -63.5833333, 50.75 ], [ -63.8333333, 50.7083333 ], [ -64.1666667, 50.7916667 ], [ -64.5, 50.75 ] ] ], [ [ [ -61.5416667, 47.6666667 ], [ -61.9583333, 47.4166667 ], [ -62.0416667, 47.2083333 ], [ -61.7916667, 47.2083333 ], [ -61.8333333, 47.375 ], [ -61.5416667, 47.6666667 ] ] ], [ [ [ -88.375, 47.125 ], [ -88.0, 47.3333333 ], [ -88.1666667, 47.4583333 ], [ -88.5833333, 47.25 ], [ -88.375, 47.125 ] ] ], [ [ [ -64.25, 48.75 ], [ -64.2083333, 48.9166667 ], [ -64.5416667, 49.125 ], [ -64.9583333, 49.25 ], [ -66.125, 49.25 ], [ -66.5, 49.125 ], [ -66.75, 49.125 ], [ -68.0833333, 48.7083333 ], [ -68.4166667, 48.5833333 ], [ -68.625, 48.4166667 ], [ -68.9583333, 48.3333333 ], [ -69.2916667, 48.0833333 ], [ -69.4583333, 48.0833333 ], [ -69.625, 47.75 ], [ -69.875, 47.625 ], [ -70.375, 47.1666667 ], [ -70.6666667, 47.0416667 ], [ -70.625, 47.0 ], [ -70.2916667, 47.0 ], [ -70.2083333, 47.1666667 ], [ -69.875, 47.1666667 ], [ -69.7916667, 47.2916667 ], [ -69.5, 47.4166667 ], [ -69.375, 47.5416667 ], [ -69.2083333, 47.375 ], [ -68.9166667, 47.4583333 ], [ -68.5833333, 47.5416667 ], [ -68.4583333, 47.8333333 ], [ -68.4166667, 47.9583333 ], [ -67.875, 47.9583333 ], [ -67.5, 48.125 ], [ -67.2916667, 48.0416667 ], [ -66.875, 47.875 ], [ -66.2083333, 47.8333333 ], [ -65.9583333, 47.6666667 ], [ -65.9166667, 47.5833333 ], [ -65.2083333, 47.625 ], [ -64.8333333, 47.5833333 ], [ -64.5833333, 47.7083333 ], [ -64.7083333, 47.8333333 ], [ -65.25, 47.8333333 ], [ -65.625, 47.6666667 ], [ -65.7083333, 47.875 ], [ -66.125, 48.0 ], [ -66.0, 48.1666667 ], [ -65.5, 48.0 ], [ -65.1666667, 48.0 ], [ -65.4583333, 48.2916667 ], [ -65.375, 48.4583333 ], [ -65.7083333, 48.5833333 ], [ -65.7916667, 48.75 ], [ -65.8333333, 48.625 ], [ -65.9583333, 48.7083333 ], [ -66.0416667, 48.7916667 ], [ -66.7083333, 48.8333333 ], [ -66.5833333, 48.9583333 ], [ -66.125, 48.9583333 ], [ -65.875, 49.0833333 ], [ -65.875, 49.0416667 ], [ -65.7083333, 48.9166667 ], [ -65.4583333, 48.875 ], [ -65.4583333, 48.8333333 ], [ -65.4583333, 48.7083333 ], [ -64.7083333, 48.7083333 ], [ -64.4583333, 48.6666667 ], [ -64.25, 48.5416667 ], [ -64.25, 48.75 ] ], [ [ -67.0416667, 48.3333333 ], [ -66.9166667, 48.5416667 ], [ -66.7083333, 48.5833333 ], [ -66.625, 48.125 ], [ -66.9166667, 48.0416667 ], [ -67.0416667, 48.1666667 ], [ -67.0416667, 48.3333333 ] ] ], [ [ [ -79.6666667, 47.375 ], [ -79.4583333, 47.3333333 ], [ -79.4583333, 47.5833333 ], [ -79.6666667, 47.5416667 ], [ -79.6666667, 47.375 ] ] ], [ [ [ -79.875, 46.7916667 ], [ -79.875, 46.75 ], [ -79.8333333, 46.7916667 ], [ -79.875, 46.7916667 ] ] ], [ [ [ -82.4166667, 45.9583333 ], [ -82.4583333, 45.7083333 ], [ -82.2083333, 45.625 ], [ -81.875, 45.6666667 ], [ -81.9166667, 45.9583333 ], [ -82.25, 45.9166667 ], [ -82.4166667, 45.9583333 ] ] ], [ [ [ -82.875, 48.5416667 ], [ -83.0, 48.4583333 ], [ -83.2083333, 48.4166667 ], [ -83.5833333, 48.5416667 ], [ -83.875, 48.375 ], [ -83.6666667, 48.2083333 ], [ -83.625, 48.1666667 ], [ -83.6666667, 48.1666667 ], [ -83.7083333, 48.0833333 ], [ -83.7916667, 47.9583333 ], [ -83.625, 47.7083333 ], [ -83.375, 47.625 ], [ -83.3333333, 47.5416667 ], [ -83.25, 47.625 ], [ -83.0, 47.125 ], [ -82.5416667, 47.125 ], [ -82.5833333, 46.9166667 ], [ -82.7916667, 46.875 ], [ -82.875, 47.0 ], [ -83.2083333, 47.0 ], [ -83.375, 46.75 ], [ -83.7083333, 46.75 ], [ -83.8333333, 46.8333333 ], [ -84.2083333, 46.8333333 ], [ -84.3333333, 46.9166667 ], [ -84.4166667, 46.6666667 ], [ -84.0833333, 46.5833333 ], [ -84.0416667, 46.3333333 ], [ -83.4583333, 46.2916667 ], [ -83.25, 46.2083333 ], [ -82.2916667, 46.2083333 ], [ -82.0416667, 46.125 ], [ -81.5833333, 46.1666667 ], [ -81.4583333, 46.0 ], [ -80.7083333, 45.9583333 ], [ -80.7083333, 45.875 ], [ -80.375, 45.4583333 ], [ -80.0416667, 45.4166667 ], [ -79.75, 45.5416667 ], [ -79.7083333, 45.7916667 ], [ -79.5, 45.9583333 ], [ -79.5416667, 46.0 ], [ -79.5, 46.0 ], [ -79.2083333, 46.1666667 ], [ -79.375, 46.2916667 ], [ -79.5, 46.375 ], [ -79.9583333, 46.375 ], [ -80.2083333, 46.25 ], [ -80.4166667, 46.2916667 ], [ -80.2916667, 46.5416667 ], [ -80.25, 46.7916667 ], [ -79.875, 46.7916667 ], [ -79.8333333, 46.8333333 ], [ -79.9166667, 46.875 ], [ -80.0416667, 47.2083333 ], [ -79.6666667, 47.2916667 ], [ -79.6666667, 47.375 ], [ -79.9166667, 47.625 ], [ -79.875, 47.7916667 ], [ -79.625, 47.875 ], [ -79.9166667, 47.875 ], [ -80.0833333, 47.8333333 ], [ -80.3333333, 47.75 ], [ -80.375, 47.5833333 ], [ -80.5833333, 47.625 ], [ -80.5833333, 47.7083333 ], [ -81.125, 47.6666667 ], [ -80.9166667, 47.625 ], [ -80.9166667, 47.4583333 ], [ -81.2083333, 47.25 ], [ -81.2916667, 47.0416667 ], [ -81.2916667, 46.625 ], [ -81.5833333, 46.625 ], [ -81.625, 46.7916667 ], [ -82.25, 46.7083333 ], [ -82.4166667, 46.875 ], [ -82.3333333, 47.0416667 ], [ -82.2916667, 47.0833333 ], [ -82.1666667, 47.2083333 ], [ -82.1666667, 47.25 ], [ -82.125, 47.625 ], [ -82.0, 47.75 ], [ -82.4583333, 48.25 ], [ -82.625, 48.2083333 ], [ -82.875, 48.2916667 ], [ -82.8333333, 48.5 ], [ -82.875, 48.5416667 ] ], [ [ -82.3333333, 47.0833333 ], [ -82.3333333, 47.0416667 ], [ -82.375, 47.0833333 ], [ -82.3333333, 47.0833333 ] ], [ [ -79.5416667, 46.0 ], [ -80.25, 46.0 ], [ -80.375, 46.2083333 ], [ -79.7916667, 46.1666667 ], [ -79.875, 46.0416667 ], [ -79.5416667, 46.0 ] ] ], [ [ [ -81.5, 44.3333333 ], [ -81.0416667, 44.375 ], [ -80.6666667, 44.7083333 ], [ -80.9583333, 44.7083333 ], [ -81.25, 44.8333333 ], [ -81.25, 44.5833333 ], [ -81.5, 44.3333333 ] ] ], [ [ [ -104.0833333, 44.4166667 ], [ -104.125, 44.375 ], [ -104.0833333, 44.0 ], [ -104.0416667, 44.0 ], [ -104.0416667, 43.875 ], [ -103.8333333, 43.7916667 ], [ -103.5416667, 43.7916667 ], [ -103.5833333, 43.9166667 ], [ -103.7916667, 44.0416667 ], [ -103.7916667, 44.2916667 ], [ -103.875, 44.2916667 ], [ -104.0833333, 44.4166667 ] ] ], [ [ [ -99.8333333, 43.4166667 ], [ -99.875, 43.4583333 ], [ -99.875, 43.4166667 ], [ -100.1666667, 43.4583333 ], [ -100.4166667, 43.375 ], [ -100.3333333, 43.25 ], [ -100.0833333, 43.25 ], [ -100.0833333, 43.2083333 ], [ -99.875, 43.25 ], [ -99.8333333, 43.4166667 ] ] ], [ [ [ -100.5, 43.4583333 ], [ -100.5, 43.4166667 ], [ -100.4166667, 43.375 ], [ -100.5, 43.4583333 ] ] ], [ [ [ -99.75, 42.6666667 ], [ -99.5833333, 42.7916667 ], [ -99.625, 42.9166667 ], [ -99.875, 42.9166667 ], [ -100.0, 42.625 ], [ -99.9166667, 42.5416667 ], [ -99.625, 42.5416667 ], [ -99.75, 42.6666667 ] ] ], [ [ [ -105.875, 42.75 ], [ -106.2916667, 42.625 ], [ -106.3333333, 42.375 ], [ -106.1666667, 42.5 ], [ -106.0, 42.5833333 ], [ -105.7916667, 42.5416667 ], [ -105.5416667, 42.3333333 ], [ -105.4166667, 42.3333333 ], [ -105.375, 42.25 ], [ -105.3333333, 42.25 ], [ -105.625, 42.5833333 ], [ -105.875, 42.625 ], [ -105.875, 42.75 ] ] ], [ [ [ -105.5416667, 42.2083333 ], [ -105.5833333, 42.125 ], [ -105.5416667, 42.0833333 ], [ -105.5416667, 42.125 ], [ -105.5416667, 42.2083333 ] ] ], [ [ [ -107.2083333, 41.7083333 ], [ -107.375, 41.7916667 ], [ -107.5, 41.625 ], [ -107.4166667, 41.625 ], [ -107.2916667, 41.625 ], [ -107.25, 41.625 ], [ -107.2083333, 41.7083333 ] ] ], [ [ [ -106.3333333, 42.375 ], [ -106.4583333, 42.3333333 ], [ -106.625, 42.25 ], [ -106.4583333, 42.125 ], [ -106.4166667, 42.1666667 ], [ -106.375, 42.1666667 ], [ -106.375, 42.0 ], [ -106.1666667, 41.9583333 ], [ -106.4583333, 41.75 ], [ -106.0, 41.5833333 ], [ -106.0, 41.5416667 ], [ -105.75, 41.5416667 ], [ -105.75, 41.6666667 ], [ -105.4583333, 41.6666667 ], [ -105.2916667, 41.5 ], [ -105.3333333, 41.7083333 ], [ -105.2916667, 42.1666667 ], [ -105.5, 42.0416667 ], [ -105.7083333, 41.9583333 ], [ -105.7916667, 41.8333333 ], [ -105.9166667, 41.8333333 ], [ -106.0, 42.0416667 ], [ -106.25, 42.1666667 ], [ -106.3333333, 42.375 ] ] ], [ [ [ -101.6666667, 41.875 ], [ -101.875, 41.75 ], [ -101.875, 41.5 ], [ -101.5, 41.5 ], [ -101.5, 41.8333333 ], [ -101.6666667, 41.875 ] ] ], [ [ [ -96.9166667, 41.125 ], [ -96.9166667, 41.0833333 ], [ -96.875, 41.0833333 ], [ -96.9166667, 41.125 ] ] ], [ [ [ -92.0833333, 40.375 ], [ -92.125, 40.3333333 ], [ -92.0833333, 40.3333333 ], [ -92.0833333, 40.375 ] ] ], [ [ [ -92.1666667, 40.3333333 ], [ -92.125, 40.2916667 ], [ -92.125, 40.3333333 ], [ -92.1666667, 40.3333333 ] ] ], [ [ [ -91.2916667, 50.7916667 ], [ -91.5, 50.625 ], [ -92.0416667, 50.5833333 ], [ -92.2916667, 50.375 ], [ -92.6666667, 50.375 ], [ -92.7916667, 50.125 ], [ -93.0, 50.125 ], [ -93.0416667, 50.0 ], [ -93.5833333, 50.125 ], [ -93.7083333, 50.125 ], [ -93.625, 50.0833333 ], [ -93.625, 49.875 ], [ -93.875, 49.7083333 ], [ -94.2083333, 49.7083333 ], [ -94.3333333, 49.625 ], [ -94.5, 49.5833333 ], [ -94.7916667, 49.125 ], [ -95.3333333, 48.75 ], [ -95.4583333, 48.4583333 ], [ -95.7916667, 48.375 ], [ -96.0833333, 48.1666667 ], [ -96.125, 47.9166667 ], [ -96.375, 47.7083333 ], [ -96.7083333, 47.625 ], [ -96.75, 47.375 ], [ -97.0, 47.25 ], [ -97.0, 47.0833333 ], [ -97.375, 46.875 ], [ -97.4166667, 46.5833333 ], [ -97.7083333, 46.4166667 ], [ -97.8333333, 46.2083333 ], [ -98.25, 45.9166667 ], [ -98.5833333, 45.5833333 ], [ -99.0416667, 45.25 ], [ -99.2083333, 45.0833333 ], [ -99.25, 44.9166667 ], [ -99.6666667, 44.7083333 ], [ -100.3333333, 44.2083333 ], [ -100.6666667, 43.875 ], [ -100.5416667, 43.8333333 ], [ -99.8333333, 43.8333333 ], [ -99.8333333, 43.5833333 ], [ -99.4583333, 43.5 ], [ -99.3333333, 43.3333333 ], [ -98.9166667, 43.0833333 ], [ -98.9166667, 42.875 ], [ -99.0416667, 42.6666667 ], [ -99.0, 42.5416667 ], [ -98.9166667, 42.3333333 ], [ -99.0, 42.1666667 ], [ -98.7083333, 42.0 ], [ -98.125, 42.0416667 ], [ -98.0416667, 41.9583333 ], [ -97.7916667, 42.0833333 ], [ -97.6666667, 42.0833333 ], [ -97.625, 42.0833333 ], [ -97.4166667, 42.0833333 ], [ -97.125, 41.875 ], [ -96.9583333, 41.8333333 ], [ -96.9166667, 41.8333333 ], [ -96.3333333, 41.4166667 ], [ -96.375, 41.2916667 ], [ -96.1666667, 41.3333333 ], [ -96.0, 41.25 ], [ -96.0, 41.0833333 ], [ -95.7916667, 41.0833333 ], [ -95.625, 41.4166667 ], [ -95.5416667, 41.375 ], [ -95.375, 41.375 ], [ -95.0, 41.2083333 ], [ -94.8333333, 41.25 ], [ -94.375, 41.25 ], [ -94.125, 40.75 ], [ -93.8333333, 40.8333333 ], [ -93.6666667, 41.0416667 ], [ -93.0416667, 41.0 ], [ -92.7916667, 40.6666667 ], [ -92.5416667, 40.5416667 ], [ -92.25, 40.4166667 ], [ -92.2083333, 40.5 ], [ -92.2083333, 40.4583333 ], [ -92.0833333, 40.375 ], [ -91.875, 40.25 ], [ -91.5833333, 40.25 ], [ -91.4583333, 40.3333333 ], [ -91.0416667, 40.3333333 ], [ -90.8333333, 40.1666667 ], [ -90.5416667, 40.1666667 ], [ -89.8333333, 40.0 ], [ -89.4166667, 40.25 ], [ -89.25, 40.3333333 ], [ -88.875, 40.2916667 ], [ -88.625, 40.2083333 ], [ -88.25, 40.2083333 ], [ -87.9583333, 40.4166667 ], [ -87.7083333, 40.4166667 ], [ -87.4583333, 40.5416667 ], [ -87.125, 40.625 ], [ -87.125, 40.5833333 ], [ -86.9583333, 40.5 ], [ -86.4166667, 40.4166667 ], [ -86.375, 40.4166667 ], [ -86.0416667, 40.4166667 ], [ -85.8333333, 40.625 ], [ -85.7916667, 40.7916667 ], [ -85.625, 40.7916667 ], [ -85.625, 40.875 ], [ -85.375, 40.7916667 ], [ -84.7083333, 40.75 ], [ -84.5833333, 40.9166667 ], [ -84.4166667, 40.9583333 ], [ -84.125, 40.7916667 ], [ -83.875, 40.75 ], [ -83.8333333, 41.125 ], [ -83.8333333, 41.1666667 ], [ -83.875, 41.2916667 ], [ -83.5, 41.25 ], [ -83.4583333, 41.25 ], [ -83.4166667, 41.25 ], [ -82.9583333, 41.2083333 ], [ -82.6666667, 41.4583333 ], [ -83.0, 41.4166667 ], [ -83.0, 41.5416667 ], [ -83.4583333, 41.7916667 ], [ -83.2083333, 42.0416667 ], [ -83.1666667, 42.2916667 ], [ -82.9166667, 42.4166667 ], [ -82.7916667, 42.7083333 ], [ -82.5833333, 42.5416667 ], [ -82.4166667, 42.5416667 ], [ -82.4583333, 42.2916667 ], [ -83.0833333, 42.2916667 ], [ -83.0416667, 42.0416667 ], [ -82.5416667, 42.0416667 ], [ -82.4166667, 42.1666667 ], [ -82.125, 42.2916667 ], [ -81.9166667, 42.2916667 ], [ -81.6666667, 42.5416667 ], [ -81.4166667, 42.6666667 ], [ -80.7083333, 42.6666667 ], [ -80.5416667, 42.625 ], [ -80.2083333, 42.8333333 ], [ -79.8333333, 42.8333333 ], [ -79.5, 42.9166667 ], [ -79.1666667, 42.9166667 ], [ -78.875, 43.0 ], [ -78.5, 43.0 ], [ -78.1666667, 43.1666667 ], [ -77.7083333, 43.1666667 ], [ -77.75, 43.3333333 ], [ -77.9583333, 43.375 ], [ -78.5833333, 43.375 ], [ -78.9583333, 43.25 ], [ -79.7083333, 43.2083333 ], [ -79.75, 43.375 ], [ -79.5, 43.6666667 ], [ -79.1666667, 43.8333333 ], [ -78.8333333, 43.9166667 ], [ -78.2916667, 43.9583333 ], [ -78.2916667, 44.1666667 ], [ -78.5833333, 44.0416667 ], [ -78.5833333, 44.2916667 ], [ -78.75, 44.4166667 ], [ -79.0416667, 44.375 ], [ -79.2083333, 44.5833333 ], [ -79.6666667, 44.5833333 ], [ -79.9166667, 44.5833333 ], [ -80.0416667, 44.4583333 ], [ -80.2916667, 44.4583333 ], [ -80.375, 44.1666667 ], [ -80.625, 44.1666667 ], [ -80.75, 44.2916667 ], [ -80.9583333, 44.1666667 ], [ -80.9583333, 44.0 ], [ -81.125, 43.5833333 ], [ -81.25, 43.4583333 ], [ -81.4583333, 43.5416667 ], [ -81.625, 43.8333333 ], [ -81.625, 44.125 ], [ -81.7083333, 44.125 ], [ -81.7083333, 43.5833333 ], [ -81.6666667, 43.4166667 ], [ -81.875, 43.2083333 ], [ -82.1666667, 43.0416667 ], [ -82.4583333, 43.0 ], [ -82.5416667, 43.1666667 ], [ -82.5416667, 43.4166667 ], [ -82.625, 43.75 ], [ -82.875, 44.0416667 ], [ -83.3333333, 43.9166667 ], [ -83.4583333, 43.6666667 ], [ -83.625, 43.5833333 ], [ -83.9583333, 43.6666667 ], [ -83.9583333, 43.9166667 ], [ -83.8333333, 44.0416667 ], [ -83.5833333, 44.125 ], [ -83.5833333, 44.25 ], [ -83.3333333, 44.375 ], [ -83.3333333, 44.875 ], [ -83.4583333, 44.9166667 ], [ -83.4583333, 45.3333333 ], [ -83.625, 45.3333333 ], [ -83.9583333, 45.5 ], [ -84.1666667, 45.5 ], [ -84.2916667, 45.6666667 ], [ -84.625, 45.75 ], [ -84.9166667, 45.75 ], [ -85.0833333, 45.625 ], [ -85.0416667, 45.4583333 ], [ -85.375, 45.25 ], [ -85.375, 44.9166667 ], [ -85.5, 44.75 ], [ -85.7916667, 44.9166667 ], [ -86.0416667, 44.9166667 ], [ -86.0833333, 44.7083333 ], [ -86.2083333, 44.6666667 ], [ -86.25, 44.3333333 ], [ -86.375, 44.2083333 ], [ -86.4166667, 43.75 ], [ -86.5, 43.625 ], [ -86.375, 43.375 ], [ -86.25, 43.2916667 ], [ -86.2083333, 43.0416667 ], [ -86.2083333, 42.5833333 ], [ -86.3333333, 42.25 ], [ -86.5416667, 41.9583333 ], [ -86.8333333, 41.7083333 ], [ -87.0833333, 41.625 ], [ -87.4583333, 41.625 ], [ -87.625, 41.7916667 ], [ -87.7083333, 42.0416667 ], [ -87.8333333, 42.1666667 ], [ -87.8333333, 42.7083333 ], [ -87.9166667, 43.0 ], [ -87.9166667, 43.375 ], [ -87.7083333, 43.7083333 ], [ -87.7083333, 44.0833333 ], [ -87.5416667, 44.1666667 ], [ -87.5416667, 44.4583333 ], [ -87.375, 44.7916667 ], [ -87.625, 44.8333333 ], [ -87.875, 44.5416667 ], [ -88.0416667, 44.6666667 ], [ -87.875, 44.9583333 ], [ -87.6666667, 45.0 ], [ -87.625, 45.2083333 ], [ -87.3333333, 45.4583333 ], [ -87.2083333, 45.7083333 ], [ -86.9583333, 45.75 ], [ -86.7916667, 45.875 ], [ -86.3333333, 45.875 ], [ -86.2083333, 46.0 ], [ -85.6666667, 46.0 ], [ -85.5833333, 46.125 ], [ -85.25, 46.125 ], [ -84.75, 46.0 ], [ -84.7083333, 46.0833333 ], [ -84.2916667, 46.0 ], [ -83.9583333, 46.0 ], [ -84.25, 46.375 ], [ -84.625, 46.4583333 ], [ -85.0416667, 46.4583333 ], [ -85.0416667, 46.75 ], [ -85.4166667, 46.6666667 ], [ -86.1666667, 46.6666667 ], [ -86.5833333, 46.4583333 ], [ -87.4166667, 46.5 ], [ -87.625, 46.7916667 ], [ -87.875, 46.9166667 ], [ -88.1666667, 46.9166667 ], [ -88.5, 46.75 ], [ -88.4583333, 47.0 ], [ -88.5416667, 47.125 ], [ -88.7916667, 47.1666667 ], [ -88.9166667, 47.0 ], [ -89.125, 47.0 ], [ -89.3333333, 46.8333333 ], [ -89.75, 46.8333333 ], [ -89.9166667, 46.7083333 ], [ -90.25, 46.5833333 ], [ -90.625, 46.5833333 ], [ -90.875, 46.7083333 ], [ -90.875, 46.8333333 ], [ -91.2916667, 46.8333333 ], [ -91.7916667, 46.6666667 ], [ -92.0416667, 46.6666667 ], [ -92.125, 46.8333333 ], [ -91.7916667, 46.9583333 ], [ -90.875, 47.625 ], [ -90.5416667, 47.75 ], [ -89.5833333, 48.0 ], [ -89.3333333, 48.1666667 ], [ -89.25, 48.4583333 ], [ -88.6666667, 48.625 ], [ -88.5, 48.875 ], [ -88.3333333, 48.6666667 ], [ -88.2916667, 49.0 ], [ -87.75, 48.9583333 ], [ -87.2916667, 48.7916667 ], [ -86.375, 48.7916667 ], [ -86.2083333, 48.5416667 ], [ -86.125, 48.25 ], [ -85.75, 47.9583333 ], [ -85.25, 47.9583333 ], [ -84.8333333, 48.0 ], [ -84.875, 47.75 ], [ -85.0, 47.625 ], [ -84.75, 47.5 ], [ -84.625, 47.8333333 ], [ -84.625, 48.2916667 ], [ -84.8333333, 48.2916667 ], [ -85.0833333, 48.4583333 ], [ -85.0833333, 48.4166667 ], [ -85.25, 48.4583333 ], [ -85.5416667, 48.7916667 ], [ -85.4583333, 49.0 ], [ -85.375, 49.0833333 ], [ -85.7916667, 49.2916667 ], [ -85.5833333, 49.375 ], [ -85.5416667, 49.5833333 ], [ -85.625, 49.7083333 ], [ -86.0, 49.875 ], [ -86.0833333, 50.0416667 ], [ -86.5833333, 50.0833333 ], [ -86.6666667, 49.7916667 ], [ -87.125, 49.5833333 ], [ -87.4583333, 49.5 ], [ -87.7916667, 49.5 ], [ -87.75, 49.625 ], [ -87.4583333, 49.7083333 ], [ -87.7083333, 49.75 ], [ -87.875, 50.0 ], [ -88.3333333, 50.3333333 ], [ -88.7083333, 50.2916667 ], [ -89.0, 50.1666667 ], [ -89.2916667, 49.9583333 ], [ -89.3333333, 49.9583333 ], [ -89.4583333, 49.8333333 ], [ -89.125, 49.7083333 ], [ -89.0833333, 49.5833333 ], [ -89.4583333, 49.5833333 ], [ -89.4583333, 49.1666667 ], [ -89.7083333, 48.875 ], [ -89.75, 48.7916667 ], [ -89.9166667, 48.6666667 ], [ -89.9583333, 48.6666667 ], [ -90.125, 48.7083333 ], [ -90.25, 48.9166667 ], [ -90.4583333, 48.9166667 ], [ -90.75, 49.125 ], [ -90.7916667, 49.1666667 ], [ -90.5833333, 49.25 ], [ -90.6666667, 49.5416667 ], [ -90.5416667, 49.6666667 ], [ -90.5833333, 49.8333333 ], [ -90.5, 50.0 ], [ -90.625, 50.2083333 ], [ -91.0, 50.25 ], [ -90.9166667, 50.5416667 ], [ -91.0416667, 50.75 ], [ -91.1666667, 50.7916667 ], [ -91.2083333, 50.7916667 ], [ -91.2916667, 50.7916667 ] ], [ [ -95.6666667, 41.5 ], [ -95.625, 41.4166667 ], [ -95.6666667, 41.4166667 ], [ -95.6666667, 41.5 ] ], [ [ -92.2083333, 40.5 ], [ -92.0416667, 40.5416667 ], [ -92.0, 40.4583333 ], [ -92.2083333, 40.5 ] ], [ [ -92.1666667, 48.0833333 ], [ -92.2083333, 48.0833333 ], [ -92.2083333, 48.125 ], [ -92.1666667, 48.0833333 ] ] ] ] } },
{ "type": "Feature", "properties": { "ID": 5 }, "geometry": { "type": "MultiPolygon", "coordinates": [ [ [ [ -101.625, 73.0 ], [ -101.625, 72.9583333 ], [ -101.5416667, 72.9583333 ], [ -101.625, 73.0 ] ] ], [ [ [ -101.5416667, 72.9583333 ], [ -101.5416667, 72.9166667 ], [ -101.5, 72.9166667 ], [ -101.5416667, 72.9583333 ] ] ], [ [ [ -100.2916667, 54.0 ], [ -100.2916667, 53.9166667 ], [ -100.3333333, 53.875 ], [ -100.125, 53.9583333 ], [ -100.2916667, 54.0 ] ] ], [ [ [ -99.375, 53.9166667 ], [ -99.4166667, 53.875 ], [ -99.4583333, 53.875 ], [ -99.3333333, 53.75 ], [ -99.375, 53.9166667 ] ] ], [ [ [ -101.4166667, 52.8333333 ], [ -101.125, 52.875 ], [ -101.25, 53.0416667 ], [ -101.7083333, 53.0 ], [ -101.625, 52.7916667 ], [ -101.4166667, 52.8333333 ] ] ], [ [ [ -91.875, 51.0833333 ], [ -91.875, 51.0416667 ], [ -91.8333333, 51.0416667 ], [ -91.875, 51.0833333 ] ] ], [ [ [ -100.4166667, 53.9583333 ], [ -100.4583333, 53.7916667 ], [ -100.4166667, 53.7916667 ], [ -100.4166667, 53.6666667 ], [ -100.4583333, 53.6666667 ], [ -100.5, 53.7083333 ], [ -100.5416667, 53.75 ], [ -100.7083333, 53.625 ], [ -100.875, 53.5 ], [ -100.75, 53.2916667 ], [ -99.7083333, 53.0 ], [ -99.625, 52.4583333 ], [ -99.8333333, 52.2083333 ], [ -99.7083333, 52.0833333 ], [ -99.7916667, 51.875 ], [ -99.25, 51.75 ], [ -98.875, 51.7083333 ], [ -98.7083333, 51.625 ], [ -98.75, 51.3333333 ], [ -98.5416667, 51.1666667 ], [ -98.7083333, 51.0416667 ], [ -98.25, 50.7916667 ], [ -97.9166667, 50.4583333 ], [ -97.9166667, 50.2916667 ], [ -98.2083333, 50.1666667 ], [ -98.5833333, 50.2083333 ], [ -98.5416667, 50.4583333 ], [ -98.7083333, 50.75 ], [ -99.0416667, 51.0416667 ], [ -99.125, 51.5 ], [ -99.3333333, 51.625 ], [ -99.8333333, 51.5833333 ], [ -100.0833333, 51.7083333 ], [ -100.1666667, 51.875 ], [ -100.2083333, 52.3333333 ], [ -100.0416667, 52.4583333 ], [ -100.2083333, 52.625 ], [ -100.625, 52.75 ], [ -100.8333333, 52.625 ], [ -100.7083333, 52.3333333 ], [ -100.5, 52.3333333 ], [ -100.4583333, 52.0 ], [ -100.875, 52.0 ], [ -100.7916667, 51.9583333 ], [ -100.75, 51.9166667 ], [ -100.75, 51.8333333 ], [ -100.75, 51.75 ], [ -100.625, 51.4583333 ], [ -100.75, 51.3333333 ], [ -101.0833333, 51.3333333 ], [ -100.7083333, 51.25 ], [ -100.375, 51.4583333 ], [ -100.2916667, 51.2916667 ], [ -100.2916667, 51.25 ], [ -100.2916667, 51.1666667 ], [ -100.2083333, 51.2083333 ], [ -100.1666667, 51.0 ], [ -100.9166667, 51.0 ], [ -101.0833333, 51.0416667 ], [ -101.3333333, 50.9583333 ], [ -101.75, 51.2916667 ], [ -101.9583333, 51.2083333 ], [ -101.9583333, 51.1666667 ], [ -102.2083333, 51.0833333 ], [ -102.6666667, 51.2916667 ], [ -102.7916667, 51.2916667 ], [ -102.8333333, 51.0 ], [ -103.125, 50.875 ], [ -102.9583333, 50.75 ], [ -103.125, 50.625 ], [ -103.3333333, 50.75 ], [ -103.5, 50.7916667 ], [ -103.5833333, 50.75 ], [ -103.7083333, 50.7916667 ], [ -103.75, 50.7916667 ], [ -103.8333333, 50.7916667 ], [ -103.8333333, 50.75 ], [ -103.7083333, 50.7083333 ], [ -103.625, 50.4583333 ], [ -103.5833333, 50.4166667 ], [ -103.375, 50.4166667 ], [ -103.25, 50.25 ], [ -103.5, 50.25 ], [ -103.5416667, 50.0833333 ], [ -103.5416667, 50.0416667 ], [ -103.4166667, 49.8333333 ], [ -103.5, 49.7916667 ], [ -103.625, 49.75 ], [ -103.375, 49.5 ], [ -103.4583333, 49.4583333 ], [ -103.4583333, 49.4166667 ], [ -103.5, 49.2916667 ], [ -103.5, 49.25 ], [ -103.4166667, 49.25 ], [ -103.4166667, 49.2083333 ], [ -103.3333333, 49.2083333 ], [ -103.3333333, 49.2916667 ], [ -103.25, 49.4166667 ], [ -103.2916667, 49.4166667 ], [ -103.2083333, 49.7083333 ], [ -103.0, 49.7916667 ], [ -103.0833333, 49.875 ], [ -102.9583333, 49.9166667 ], [ -102.375, 49.5416667 ], [ -102.2083333, 49.4583333 ], [ -102.25, 49.1666667 ], [ -102.4583333, 49.0 ], [ -102.4583333, 48.875 ], [ -102.75, 48.9166667 ], [ -102.7916667, 48.9166667 ], [ -103.1666667, 48.9166667 ], [ -103.2083333, 48.8333333 ], [ -103.2916667, 48.5416667 ], [ -103.375, 48.5 ], [ -103.2916667, 48.5 ], [ -103.25, 48.375 ], [ -103.2083333, 48.2916667 ], [ -102.9166667, 48.3333333 ], [ -102.8333333, 48.5 ], [ -102.9166667, 48.6666667 ], [ -102.5833333, 48.7083333 ], [ -102.375, 48.6666667 ], [ -102.125, 48.4583333 ], [ -101.9166667, 48.1666667 ], [ -101.75, 48.0833333 ], [ -101.9583333, 47.7083333 ], [ -102.2083333, 47.75 ], [ -102.25, 47.9583333 ], [ -102.75, 48.1666667 ], [ -103.25, 48.1666667 ], [ -103.5416667, 48.0833333 ], [ -102.75, 48.0833333 ], [ -102.6666667, 47.7916667 ], [ -102.375, 47.7083333 ], [ -102.4583333, 47.5416667 ], [ -101.7083333, 47.4166667 ], [ -101.625, 47.2083333 ], [ -101.75, 47.125 ], [ -101.8333333, 47.0 ], [ -101.9166667, 46.9166667 ], [ -101.7916667, 46.6666667 ], [ -102.0, 46.5 ], [ -102.125, 46.625 ], [ -102.375, 46.6666667 ], [ -102.375, 46.4166667 ], [ -102.4583333, 46.25 ], [ -101.9583333, 46.25 ], [ -101.7916667, 46.0416667 ], [ -102.0416667, 46.0 ], [ -102.0416667, 45.875 ], [ -101.625, 45.7083333 ], [ -101.625, 45.4583333 ], [ -101.3333333, 45.2916667 ], [ -101.375, 45.0833333 ], [ -101.3333333, 44.9583333 ], [ -101.3333333, 44.9166667 ], [ -101.125, 44.7916667 ], [ -101.4166667, 44.625 ], [ -101.4166667, 44.4166667 ], [ -101.0416667, 44.2916667 ], [ -100.7916667, 43.9583333 ], [ -100.6666667, 43.875 ], [ -100.3333333, 44.2083333 ], [ -99.6666667, 44.7083333 ], [ -99.25, 44.9166667 ], [ -99.2083333, 45.0833333 ], [ -99.0416667, 45.25 ], [ -98.5833333, 45.5833333 ], [ -98.25, 45.9166667 ], [ -97.8333333, 46.2083333 ], [ -97.7083333, 46.4166667 ], [ -97.4166667, 46.5833333 ], [ -97.375, 46.875 ], [ -97.0, 47.0833333 ], [ -97.0, 47.25 ], [ -96.75, 47.375 ], [ -96.7083333, 47.625 ], [ -96.375, 47.7083333 ], [ -96.125, 47.9166667 ], [ -96.0833333, 48.1666667 ], [ -95.7916667, 48.375 ], [ -95.4583333, 48.4583333 ], [ -95.3333333, 48.75 ], [ -94.7916667, 49.125 ], [ -94.5, 49.5833333 ], [ -94.3333333, 49.625 ], [ -94.2083333, 49.7083333 ], [ -93.875, 49.7083333 ], [ -93.625, 49.875 ], [ -93.625, 50.0833333 ], [ -93.7083333, 50.125 ], [ -93.5833333, 50.125 ], [ -93.0416667, 50.0 ], [ -93.0, 50.125 ], [ -92.7916667, 50.125 ], [ -92.6666667, 50.375 ], [ -92.2916667, 50.375 ], [ -92.0416667, 50.5833333 ], [ -91.5, 50.625 ], [ -91.4583333, 50.7916667 ], [ -91.6666667, 50.875 ], [ -91.8333333, 51.0416667 ], [ -91.875, 51.0 ], [ -91.875, 51.0416667 ], [ -91.9166667, 51.0416667 ], [ -91.875, 51.0833333 ], [ -92.3333333, 51.125 ], [ -92.5, 51.25 ], [ -92.5416667, 51.1666667 ], [ -92.7916667, 51.1666667 ], [ -93.1666667, 51.3333333 ], [ -93.5, 51.25 ], [ -93.5, 51.0833333 ], [ -93.7083333, 51.0 ], [ -93.875, 51.0833333 ], [ -94.25, 51.0833333 ], [ -94.5, 51.0 ], [ -94.5416667, 51.0 ], [ -94.5833333, 51.0 ], [ -94.625, 51.125 ], [ -94.7083333, 51.5 ], [ -94.9583333, 51.5 ], [ -95.2916667, 51.375 ], [ -95.4583333, 51.5 ], [ -95.4583333, 51.7916667 ], [ -95.2916667, 51.7916667 ], [ -95.3333333, 52.0 ], [ -95.5833333, 52.0 ], [ -95.7916667, 52.0 ], [ -96.0, 51.7916667 ], [ -96.0833333, 51.75 ], [ -96.2916667, 51.7916667 ], [ -96.25, 52.0 ], [ -96.1666667, 52.0416667 ], [ -96.2083333, 52.2083333 ], [ -96.0, 52.625 ], [ -96.0833333, 52.7916667 ], [ -96.2916667, 52.8333333 ], [ -96.4583333, 53.0416667 ], [ -96.4583333, 53.2083333 ], [ -96.625, 53.4583333 ], [ -96.9166667, 53.4583333 ], [ -97.125, 53.625 ], [ -97.625, 53.7083333 ], [ -97.6666667, 53.7083333 ], [ -97.8333333, 53.7916667 ], [ -97.7916667, 53.5833333 ], [ -97.4166667, 53.2083333 ], [ -97.3333333, 52.7916667 ], [ -97.2083333, 52.75 ], [ -97.0, 52.4166667 ], [ -97.0, 52.1666667 ], [ -96.6666667, 51.8333333 ], [ -96.6666667, 51.6666667 ], [ -96.25, 51.25 ], [ -96.3333333, 50.6666667 ], [ -96.5, 50.625 ], [ -96.625, 50.375 ], [ -96.9166667, 50.375 ], [ -97.0, 50.5416667 ], [ -97.0, 50.9583333 ], [ -96.875, 51.1666667 ], [ -96.9583333, 51.375 ], [ -96.75, 51.5833333 ], [ -97.0416667, 51.6666667 ], [ -97.3333333, 51.6666667 ], [ -97.25, 51.875 ], [ -97.5, 52.0 ], [ -97.8333333, 51.875 ], [ -98.0416667, 51.9166667 ], [ -98.2083333, 52.2916667 ], [ -98.375, 52.2916667 ], [ -98.5416667, 52.5416667 ], [ -98.9166667, 52.7916667 ], [ -98.7916667, 53.0 ], [ -99.0833333, 53.0416667 ], [ -99.25, 53.2083333 ], [ -99.0416667, 53.625 ], [ -99.0416667, 53.875 ], [ -99.3333333, 53.75 ], [ -99.4583333, 53.5833333 ], [ -99.7083333, 53.5416667 ], [ -99.9583333, 53.5416667 ], [ -100.3333333, 53.875 ], [ -100.4166667, 53.9583333 ] ], [ [ -101.7916667, 49.4583333 ], [ -101.625, 49.2916667 ], [ -101.6666667, 49.125 ], [ -102.0416667, 49.2916667 ], [ -102.0416667, 49.4166667 ], [ -101.7916667, 49.4583333 ] ], [ [ -102.3333333, 46.4166667 ], [ -102.1666667, 46.4583333 ], [ -101.9166667, 46.3333333 ], [ -102.2083333, 46.3333333 ], [ -102.3333333, 46.4166667 ] ], [ [ -100.1666667, 49.5 ], [ -100.1666667, 49.5416667 ], [ -100.0416667, 49.5833333 ], [ -100.1666667, 49.4583333 ], [ -100.1666667, 49.5 ] ] ], [ [ [ -100.625, 43.4166667 ], [ -100.625, 43.375 ], [ -100.5, 43.4166667 ], [ -100.625, 43.4166667 ] ] ] ] } }
]
}
