{
"type": "FeatureCollection",
"name": "Sporobolus_heterolepis",
"crs": { "type": "name", "properties": { "name": "urn:ogc:def:crs:OGC:1.3:CRS84" } },
"features": [
{ "type": "Feature", "properties": { "ID": 1 }, "geometry": { "type": "MultiPolygon", "coordinates": [ [ [ [ -100.1666667, 53.4166667 ], [ -100.2916667, 53.1666667 ], [ -99.5416667, 53.0416667 ], [ -99.3333333, 53.2083333 ], [ -99.9583333, 53.2916667 ], [ -100.1666667, 53.4166667 ] ] ], [ [ [ -98.0416667, 51.1666667 ], [ -98.0416667, 51.0833333 ], [ -97.9166667, 51.0833333 ], [ -97.9583333, 51.125 ], [ -98.0, 51.1666667 ], [ -98.0416667, 51.1666667 ] ] ], [ [ [ -99.8333333, 51.0 ], [ -100.1666667, 50.9166667 ], [ -99.9166667, 50.9166667 ], [ -99.8333333, 51.0 ] ] ], [ [ [ -99.0, 52.4583333 ], [ -99.25, 52.5416667 ], [ -99.2916667, 52.9166667 ], [ -99.5, 52.9166667 ], [ -99.6666667, 52.375 ], [ -99.8333333, 52.2083333 ], [ -99.5416667, 51.7916667 ], [ -98.7916667, 51.75 ], [ -98.75, 51.3333333 ], [ -98.5416667, 51.1666667 ], [ -98.7083333, 50.9166667 ], [ -98.375, 50.875 ], [ -98.375, 51.2083333 ], [ -98.4166667, 51.5416667 ], [ -98.125, 51.8333333 ], [ -98.1666667, 52.125 ], [ -98.375, 52.2916667 ], [ -99.0, 52.25 ], [ -99.0, 52.4583333 ] ] ], [ [ [ -96.2916667, 50.6666667 ], [ -96.625, 50.375 ], [ -96.0833333, 50.5 ], [ -96.0833333, 50.5416667 ], [ -96.2916667, 50.6666667 ] ] ], [ [ [ -98.5833333, 50.25 ], [ -98.5416667, 50.4583333 ], [ -98.7083333, 50.75 ], [ -99.0416667, 51.0416667 ], [ -99.125, 51.5 ], [ -99.5416667, 51.5 ], [ -99.9583333, 51.2916667 ], [ -99.7916667, 51.0416667 ], [ -99.7083333, 51.0416667 ], [ -99.4166667, 51.0 ], [ -99.3333333, 50.7916667 ], [ -98.9583333, 50.7916667 ], [ -98.6666667, 50.5416667 ], [ -98.5833333, 50.25 ] ] ], [ [ [ -99.625, 50.75 ], [ -99.7083333, 50.75 ], [ -99.625, 50.7083333 ], [ -99.625, 50.75 ] ] ], [ [ [ -92.9583333, 50.5416667 ], [ -93.1666667, 50.5833333 ], [ -93.125, 50.5416667 ], [ -93.0416667, 50.375 ], [ -92.8333333, 50.25 ], [ -92.3333333, 50.375 ], [ -92.5833333, 50.375 ], [ -92.5833333, 50.4166667 ], [ -92.7083333, 50.4583333 ], [ -92.7083333, 50.5 ], [ -92.7916667, 50.5416667 ], [ -92.7916667, 50.5 ], [ -92.9166667, 50.5 ], [ -92.9166667, 50.5416667 ], [ -92.9583333, 50.5416667 ] ] ], [ [ [ -97.0, 50.7916667 ], [ -97.0416667, 50.5 ], [ -96.875, 50.1666667 ], [ -96.625, 50.375 ], [ -96.9166667, 50.375 ], [ -97.0, 50.7916667 ] ] ], [ [ [ -92.625, 49.7916667 ], [ -92.7916667, 49.75 ], [ -92.75, 49.7083333 ], [ -92.6666667, 49.7083333 ], [ -92.625, 49.75 ], [ -92.625, 49.7916667 ] ] ], [ [ [ -93.125, 49.75 ], [ -93.125, 49.7083333 ], [ -93.0416667, 49.7083333 ], [ -93.0416667, 49.75 ], [ -93.125, 49.75 ] ] ], [ [ [ -92.7916667, 49.75 ], [ -92.8333333, 49.7083333 ], [ -92.7916667, 49.7083333 ], [ -92.7916667, 49.75 ] ] ], [ [ [ -93.0416667, 49.7083333 ], [ -93.0, 49.6666667 ], [ -93.0, 49.7083333 ], [ -93.0416667, 49.7083333 ] ] ], [ [ [ -100.1666667, 50.9166667 ], [ -101.0833333, 51.0416667 ], [ -101.2083333, 50.8333333 ], [ -101.75, 50.8333333 ], [ -102.375, 50.4166667 ], [ -102.25, 50.25 ], [ -102.1666667, 49.7083333 ], [ -101.8333333, 49.6666667 ], [ -101.8333333, 49.5833333 ], [ -101.1666667, 49.625 ], [ -100.8333333, 49.9166667 ], [ -100.5, 50.6666667 ], [ -100.4166667, 50.7083333 ], [ -100.2916667, 50.75 ], [ -100.2916667, 50.7916667 ], [ -100.1666667, 50.875 ], [ -100.1666667, 50.9166667 ] ] ], [ [ [ -93.5416667, 49.5416667 ], [ -93.5833333, 49.5833333 ], [ -93.5833333, 49.5416667 ], [ -93.625, 49.4583333 ], [ -93.5833333, 49.4166667 ], [ -93.4583333, 49.4166667 ], [ -93.4583333, 49.5 ], [ -93.5, 49.5 ], [ -93.5416667, 49.5416667 ] ] ], [ [ [ -93.4166667, 49.5833333 ], [ -93.375, 49.5416667 ], [ -93.375, 49.5833333 ], [ -93.4166667, 49.5833333 ] ] ], [ [ [ -93.375, 49.5416667 ], [ -93.375, 49.5 ], [ -93.3333333, 49.5 ], [ -93.3333333, 49.5416667 ], [ -93.375, 49.5416667 ] ] ], [ [ [ -94.8333333, 49.4583333 ], [ -94.8333333, 49.4166667 ], [ -94.7916667, 49.4166667 ], [ -94.7916667, 49.4583333 ], [ -94.8333333, 49.4583333 ] ] ], [ [ [ -93.6666667, 49.4583333 ], [ -93.625, 49.4166667 ], [ -93.625, 49.4583333 ], [ -93.6666667, 49.4583333 ] ] ], [ [ [ -94.8333333, 49.375 ], [ -94.8333333, 49.3333333 ], [ -94.7916667, 49.3333333 ], [ -94.7916667, 49.375 ], [ -94.8333333, 49.375 ] ] ], [ [ [ -94.2083333, 49.3333333 ], [ -94.1666667, 49.2916667 ], [ -94.1666667, 49.3333333 ], [ -94.2083333, 49.3333333 ] ] ], [ [ [ -94.7083333, 49.3333333 ], [ -94.7083333, 49.25 ], [ -94.6666667, 49.25 ], [ -94.6666667, 49.3333333 ], [ -94.7083333, 49.3333333 ] ] ], [ [ [ -93.0416667, 50.375 ], [ -93.5, 50.4583333 ], [ -93.5, 50.1666667 ], [ -93.8333333, 50.2083333 ], [ -93.9583333, 50.4166667 ], [ -94.0, 50.4166667 ], [ -94.75, 50.125 ], [ -94.625, 49.875 ], [ -94.7916667, 49.4583333 ], [ -94.625, 49.4583333 ], [ -94.5, 49.4583333 ], [ -94.4583333, 49.4583333 ], [ -94.4166667, 49.4583333 ], [ -94.3333333, 49.4583333 ], [ -94.25, 49.375 ], [ -94.1666667, 49.4166667 ], [ -94.1666667, 49.3333333 ], [ -94.0833333, 49.2916667 ], [ -93.8333333, 49.3333333 ], [ -93.6666667, 49.4583333 ], [ -93.7083333, 49.5833333 ], [ -93.5833333, 49.5833333 ], [ -93.5, 49.625 ], [ -93.4583333, 49.6666667 ], [ -93.4583333, 49.625 ], [ -93.2916667, 49.7083333 ], [ -93.2916667, 49.625 ], [ -93.2083333, 49.625 ], [ -93.1666667, 49.625 ], [ -93.0833333, 49.625 ], [ -93.125, 49.7083333 ], [ -93.1666667, 49.7083333 ], [ -93.1666667, 49.7916667 ], [ -93.4583333, 50.0 ], [ -93.0416667, 50.1666667 ], [ -93.0416667, 50.375 ] ] ], [ [ [ -94.625, 49.2916667 ], [ -94.625, 49.25 ], [ -94.5833333, 49.25 ], [ -94.5833333, 49.2916667 ], [ -94.625, 49.2916667 ] ] ], [ [ [ -93.5, 49.2916667 ], [ -93.5416667, 49.25 ], [ -93.5, 49.25 ], [ -93.5, 49.2916667 ] ] ], [ [ [ -93.625, 49.4166667 ], [ -93.8333333, 49.3333333 ], [ -93.8333333, 49.2083333 ], [ -93.75, 49.25 ], [ -93.5833333, 49.4166667 ], [ -93.625, 49.4166667 ] ] ], [ [ [ -94.7916667, 49.3333333 ], [ -94.7916667, 49.2916667 ], [ -94.8333333, 49.2916667 ], [ -94.7916667, 49.2083333 ], [ -94.75, 49.3333333 ], [ -94.7916667, 49.3333333 ] ] ], [ [ [ -94.6666667, 49.25 ], [ -94.6666667, 49.2083333 ], [ -94.625, 49.2083333 ], [ -94.625, 49.25 ], [ -94.6666667, 49.25 ] ] ], [ [ [ -94.375, 49.25 ], [ -94.375, 49.2083333 ], [ -94.3333333, 49.25 ], [ -94.375, 49.25 ] ] ], [ [ [ -93.6666667, 49.25 ], [ -93.6666667, 49.2083333 ], [ -93.625, 49.2083333 ], [ -93.625, 49.25 ], [ -93.6666667, 49.25 ] ] ], [ [ [ -94.0833333, 49.2916667 ], [ -94.0833333, 49.2083333 ], [ -94.0416667, 49.1666667 ], [ -94.0, 49.1666667 ], [ -93.9583333, 49.2083333 ], [ -94.0833333, 49.2916667 ] ] ], [ [ [ -94.4166667, 49.2083333 ], [ -94.4166667, 49.1666667 ], [ -94.375, 49.2083333 ], [ -94.4166667, 49.2083333 ] ] ], [ [ [ -94.0833333, 49.2083333 ], [ -94.2083333, 49.1666667 ], [ -94.0833333, 49.1666667 ], [ -94.0833333, 49.2083333 ] ] ], [ [ [ -94.7916667, 49.1666667 ], [ -94.8333333, 49.125 ], [ -94.7916667, 49.125 ], [ -94.7916667, 49.1666667 ] ] ], [ [ [ -94.5, 49.1666667 ], [ -94.5, 49.125 ], [ -94.4583333, 49.0833333 ], [ -94.4166667, 49.0833333 ], [ -94.4166667, 49.0416667 ], [ -94.3333333, 49.125 ], [ -94.4166667, 49.125 ], [ -94.4166667, 49.1666667 ], [ -94.5, 49.1666667 ] ] ], [ [ [ -94.7083333, 49.0833333 ], [ -94.7083333, 49.0416667 ], [ -94.6666667, 49.0416667 ], [ -94.6666667, 49.0833333 ], [ -94.7083333, 49.0833333 ] ] ], [ [ [ -98.2083333, 49.0 ], [ -98.0416667, 49.25 ], [ -98.25, 49.4583333 ], [ -98.0, 49.7083333 ], [ -98.2916667, 49.9583333 ], [ -98.6666667, 49.8333333 ], [ -98.75, 49.6666667 ], [ -98.625, 49.3333333 ], [ -98.25, 49.2083333 ], [ -98.2083333, 49.0416667 ], [ -98.2083333, 49.0 ] ] ], [ [ [ -99.0416667, 48.375 ], [ -99.0833333, 48.2916667 ], [ -99.0416667, 48.2916667 ], [ -99.0416667, 48.375 ] ] ] ] } },
{ "type": "Feature", "properties": { "ID": 3 }, "geometry": { "type": "MultiPolygon", "coordinates": [ [ [ [ -94.0, 50.4166667 ], [ -93.9583333, 50.4166667 ], [ -93.8333333, 50.2083333 ], [ -93.5, 50.1666667 ], [ -93.5, 50.4583333 ], [ -93.0416667, 50.375 ], [ -93.0416667, 50.1666667 ], [ -93.4583333, 50.0 ], [ -93.1666667, 49.7916667 ], [ -93.1666667, 49.75 ], [ -93.125, 49.75 ], [ -93.0833333, 49.75 ], [ -93.0, 49.75 ], [ -93.0, 49.625 ], [ -93.2916667, 49.625 ], [ -93.2916667, 49.5833333 ], [ -93.375, 49.5833333 ], [ -93.375, 49.5416667 ], [ -93.3333333, 49.5416667 ], [ -93.3333333, 49.4583333 ], [ -93.375, 49.4583333 ], [ -93.375, 49.4166667 ], [ -93.5, 49.4166667 ], [ -93.5, 49.2916667 ], [ -93.4166667, 49.25 ], [ -93.375, 49.25 ], [ -93.5, 49.25 ], [ -93.625, 49.25 ], [ -93.625, 49.2083333 ], [ -93.7083333, 49.2083333 ], [ -93.8333333, 49.2083333 ], [ -93.9583333, 49.2083333 ], [ -93.9583333, 49.1666667 ], [ -94.125, 49.1666667 ], [ -94.125, 49.125 ], [ -94.3333333, 49.125 ], [ -94.4166667, 49.0416667 ], [ -94.4166667, 49.0 ], [ -94.4583333, 49.0833333 ], [ -94.5, 49.125 ], [ -94.5416667, 49.1666667 ], [ -94.4583333, 49.1666667 ], [ -94.4583333, 49.2083333 ], [ -94.375, 49.2083333 ], [ -94.375, 49.25 ], [ -94.1666667, 49.25 ], [ -94.1666667, 49.2916667 ], [ -94.2083333, 49.3333333 ], [ -94.25, 49.375 ], [ -94.3333333, 49.4583333 ], [ -94.7916667, 49.4583333 ], [ -94.625, 49.875 ], [ -94.75, 50.125 ], [ -94.0, 50.4166667 ] ], [ [ -98.0833333, 51.0833333 ], [ -98.0416667, 51.1666667 ], [ -98.0416667, 51.0833333 ], [ -97.9166667, 51.0833333 ], [ -97.9583333, 50.9166667 ], [ -97.0, 50.7916667 ], [ -97.0416667, 50.5 ], [ -96.875, 50.1666667 ], [ -96.625, 50.375 ], [ -96.0833333, 50.5 ], [ -96.0833333, 50.5416667 ], [ -96.2916667, 50.6666667 ], [ -96.3333333, 50.9166667 ], [ -96.3333333, 51.0833333 ], [ -96.2916667, 51.0833333 ], [ -95.8333333, 50.7916667 ], [ -94.6666667, 50.6666667 ], [ -94.2916667, 50.75 ], [ -94.1666667, 50.5833333 ], [ -93.625, 50.5833333 ], [ -93.5, 50.5833333 ], [ -93.125, 50.5416667 ], [ -93.0416667, 50.375 ], [ -92.8333333, 50.25 ], [ -92.3333333, 50.375 ], [ -92.0416667, 50.3333333 ], [ -92.0, 50.3333333 ], [ -91.75, 50.0416667 ], [ -91.5, 49.0416667 ], [ -91.25, 48.7083333 ], [ -91.2916667, 48.5833333 ], [ -91.3333333, 48.4583333 ], [ -90.75, 48.375 ], [ -89.6666667, 48.375 ], [ -89.3333333, 48.2916667 ], [ -89.3333333, 48.25 ], [ -90.0416667, 47.875 ], [ -90.1666667, 47.8333333 ], [ -90.2916667, 47.7916667 ], [ -90.4166667, 47.7916667 ], [ -90.4166667, 47.75 ], [ -90.5833333, 47.75 ], [ -90.5833333, 47.7083333 ], [ -90.875, 47.625 ], [ -91.625, 47.1666667 ], [ -91.625, 47.125 ], [ -92.2083333, 47.0833333 ], [ -92.3333333, 46.9583333 ], [ -92.3333333, 46.5 ], [ -91.75, 46.4583333 ], [ -91.5416667, 46.3333333 ], [ -91.4583333, 45.9583333 ], [ -92.1666667, 46.0 ], [ -92.8333333, 45.9583333 ], [ -93.2083333, 45.75 ], [ -93.5416667, 45.7916667 ], [ -93.7083333, 46.0 ], [ -94.5416667, 46.0 ], [ -94.4166667, 46.125 ], [ -94.9166667, 46.25 ], [ -95.3333333, 46.3333333 ], [ -95.625, 46.5 ], [ -95.7916667, 46.7916667 ], [ -96.25, 46.875 ], [ -96.25, 46.7083333 ], [ -96.875, 46.125 ], [ -97.2083333, 46.125 ], [ -97.1666667, 45.8333333 ], [ -97.5416667, 45.9166667 ], [ -97.625, 45.6666667 ], [ -98.0, 45.0833333 ], [ -98.3333333, 44.7083333 ], [ -98.875, 44.4583333 ], [ -99.125, 44.4583333 ], [ -99.0416667, 44.125 ], [ -99.0416667, 44.0833333 ], [ -99.375, 43.9166667 ], [ -99.4583333, 43.5833333 ], [ -99.8333333, 43.4583333 ], [ -100.5833333, 43.4166667 ], [ -100.3333333, 43.25 ], [ -100.375, 42.875 ], [ -100.5833333, 42.7916667 ], [ -101.0, 42.875 ], [ -100.9583333, 42.6666667 ], [ -101.4583333, 42.625 ], [ -101.5416667, 42.5 ], [ -102.1666667, 42.4583333 ], [ -102.125, 42.3333333 ], [ -102.25, 42.2083333 ], [ -102.2083333, 42.0833333 ], [ -102.1666667, 41.3333333 ], [ -102.5, 41.375 ], [ -102.6666667, 41.1666667 ], [ -102.75, 41.4583333 ], [ -103.3333333, 41.5416667 ], [ -103.125, 41.75 ], [ -103.5, 41.875 ], [ -103.3333333, 42.125 ], [ -103.5, 42.5 ], [ -102.8333333, 43.0416667 ], [ -102.75, 43.25 ], [ -102.8333333, 43.5 ], [ -102.5833333, 43.9166667 ], [ -103.125, 44.0833333 ], [ -103.375, 43.7916667 ], [ -103.5, 43.9583333 ], [ -103.4583333, 44.3333333 ], [ -103.8333333, 44.5 ], [ -103.4166667, 44.5833333 ], [ -103.375, 44.8333333 ], [ -103.3333333, 44.9583333 ], [ -102.875, 45.0833333 ], [ -102.6666667, 45.6666667 ], [ -102.5833333, 46.2083333 ], [ -102.5, 46.5 ], [ -102.625, 46.75 ], [ -102.375, 47.0416667 ], [ -102.2916667, 47.2916667 ], [ -102.0416667, 47.3333333 ], [ -102.2916667, 47.625 ], [ -101.8333333, 47.6666667 ], [ -101.875, 48.4166667 ], [ -101.625, 48.4166667 ], [ -101.9166667, 49.0 ], [ -102.0416667, 49.6666667 ], [ -102.1666667, 49.7083333 ], [ -101.8333333, 49.6666667 ], [ -101.8333333, 49.5833333 ], [ -101.1666667, 49.625 ], [ -100.8333333, 49.9166667 ], [ -100.5, 50.6666667 ], [ -100.4166667, 50.7083333 ], [ -100.2916667, 50.75 ], [ -100.2916667, 50.7916667 ], [ -100.2083333, 50.7916667 ], [ -100.125, 50.75 ], [ -100.25, 50.7083333 ], [ -100.3333333, 50.625 ], [ -99.8333333, 50.4583333 ], [ -99.8333333, 50.5 ], [ -99.625, 50.7083333 ], [ -99.7083333, 50.75 ], [ -99.9166667, 50.9166667 ], [ -99.8333333, 51.0 ], [ -99.7916667, 51.0416667 ], [ -99.7083333, 51.0416667 ], [ -99.4166667, 51.0 ], [ -99.3333333, 50.7916667 ], [ -98.9583333, 50.7916667 ], [ -98.6666667, 50.5416667 ], [ -98.5833333, 50.25 ], [ -98.375, 50.1666667 ], [ -98.0833333, 50.2083333 ], [ -98.0416667, 50.25 ], [ -97.9166667, 50.2916667 ], [ -97.9166667, 50.375 ], [ -98.0833333, 50.6666667 ], [ -98.2083333, 50.7916667 ], [ -98.25, 50.7916667 ], [ -98.3333333, 50.8333333 ], [ -98.375, 50.875 ], [ -98.375, 51.2083333 ], [ -98.0833333, 51.0833333 ] ], [ [ -100.125, 50.7916667 ], [ -100.2083333, 50.7916667 ], [ -100.125, 50.8333333 ], [ -100.125, 50.7916667 ] ], [ [ -89.125, 46.875 ], [ -89.125, 46.7916667 ], [ -89.4166667, 46.8333333 ], [ -89.2916667, 46.8333333 ], [ -89.2916667, 46.875 ], [ -89.125, 46.875 ] ], [ [ -89.0833333, 46.5416667 ], [ -88.4583333, 46.625 ], [ -87.875, 46.5416667 ], [ -87.875, 46.125 ], [ -88.0416667, 46.0 ], [ -88.9166667, 46.0 ], [ -88.9166667, 46.4166667 ], [ -89.4583333, 46.4583333 ], [ -89.2083333, 46.6666667 ], [ -89.0833333, 46.5416667 ] ], [ [ -104.375, 44.2083333 ], [ -104.375, 44.25 ], [ -104.2916667, 44.3333333 ], [ -104.375, 44.2083333 ] ], [ [ -104.25, 43.9166667 ], [ -103.9166667, 43.8333333 ], [ -103.7083333, 43.6666667 ], [ -103.375, 43.7916667 ], [ -103.6666667, 43.5 ], [ -104.25, 43.8333333 ], [ -104.375, 44.2083333 ], [ -104.25, 43.9166667 ] ] ], [ [ [ -98.2083333, 49.0 ], [ -98.0416667, 49.25 ], [ -98.25, 49.4583333 ], [ -98.0, 49.7083333 ], [ -98.2916667, 49.9583333 ], [ -98.6666667, 49.8333333 ], [ -98.75, 49.6666667 ], [ -98.625, 49.3333333 ], [ -98.25, 49.2083333 ], [ -98.2083333, 49.0416667 ], [ -98.2083333, 49.0 ] ] ], [ [ [ -92.8333333, 49.7083333 ], [ -92.625, 49.7083333 ], [ -92.625, 49.7916667 ], [ -92.7916667, 49.75 ], [ -92.8333333, 49.7083333 ] ] ], [ [ [ -94.8333333, 49.3333333 ], [ -94.7916667, 49.3333333 ], [ -94.7916667, 49.4583333 ], [ -94.8333333, 49.4583333 ], [ -94.8333333, 49.3333333 ] ] ], [ [ [ -94.7916667, 49.2916667 ], [ -94.875, 49.2916667 ], [ -94.9166667, 49.1666667 ], [ -94.75, 49.0833333 ], [ -94.75, 49.125 ], [ -94.7916667, 49.125 ], [ -94.7916667, 49.2083333 ], [ -94.7083333, 49.2083333 ], [ -94.7083333, 49.25 ], [ -94.6666667, 49.25 ], [ -94.6666667, 49.2083333 ], [ -94.5833333, 49.2083333 ], [ -94.5833333, 49.2916667 ], [ -94.625, 49.2916667 ], [ -94.625, 49.3333333 ], [ -94.7916667, 49.3333333 ], [ -94.7916667, 49.2916667 ] ] ], [ [ [ -94.75, 49.0416667 ], [ -94.7083333, 49.0416667 ], [ -94.625, 49.0 ], [ -94.625, 49.0416667 ], [ -94.6666667, 49.0416667 ], [ -94.6666667, 49.0833333 ], [ -94.75, 49.0833333 ], [ -94.75, 49.0416667 ] ] ], [ [ [ -99.0, 48.2916667 ], [ -99.0416667, 48.3333333 ], [ -99.0416667, 48.375 ], [ -99.0833333, 48.2916667 ], [ -99.0, 48.2916667 ] ] ], [ [ [ -93.5, 46.375 ], [ -93.875, 46.2916667 ], [ -93.8333333, 46.0833333 ], [ -93.5416667, 46.0833333 ], [ -93.5, 46.375 ] ] ], [ [ [ -100.4583333, 44.875 ], [ -100.7083333, 44.875 ], [ -100.6666667, 44.5416667 ], [ -100.25, 45.0 ], [ -100.2916667, 45.4166667 ], [ -100.4583333, 44.875 ] ] ], [ [ [ -93.4583333, 49.5 ], [ -93.4583333, 49.4583333 ], [ -93.375, 49.4583333 ], [ -93.375, 49.5 ], [ -93.4583333, 49.5 ] ] ] ] } },
{ "type": "Feature", "properties": { "ID": 5 }, "geometry": { "type": "MultiPolygon", "coordinates": [ [ [ [ -93.1666667, 49.75 ], [ -93.1666667, 49.7083333 ], [ -93.125, 49.7083333 ], [ -93.125, 49.75 ], [ -93.1666667, 49.75 ] ] ], [ [ [ -93.0416667, 49.75 ], [ -93.0416667, 49.7083333 ], [ -93.0, 49.7083333 ], [ -93.0, 49.75 ], [ -93.0416667, 49.75 ] ] ], [ [ [ -92.7916667, 49.75 ], [ -92.7916667, 49.7083333 ], [ -92.75, 49.7083333 ], [ -92.7916667, 49.75 ] ] ], [ [ [ -92.625, 49.75 ], [ -92.6666667, 49.7083333 ], [ -92.625, 49.7083333 ], [ -92.625, 49.75 ] ] ], [ [ [ -93.125, 49.7083333 ], [ -93.0833333, 49.625 ], [ -93.0, 49.625 ], [ -93.0, 49.6666667 ], [ -93.0416667, 49.7083333 ], [ -93.125, 49.7083333 ] ] ], [ [ [ -93.2916667, 49.7083333 ], [ -93.4583333, 49.625 ], [ -93.4583333, 49.6666667 ], [ -93.5, 49.625 ], [ -93.5833333, 49.5833333 ], [ -93.5416667, 49.5416667 ], [ -93.5, 49.5 ], [ -93.375, 49.5 ], [ -93.375, 49.5416667 ], [ -93.4166667, 49.5833333 ], [ -93.2916667, 49.5833333 ], [ -93.2916667, 49.7083333 ] ] ], [ [ [ -93.5833333, 49.5833333 ], [ -93.7083333, 49.5833333 ], [ -93.6666667, 49.4583333 ], [ -93.625, 49.4583333 ], [ -93.5833333, 49.5416667 ], [ -93.5833333, 49.5833333 ] ] ], [ [ [ -93.375, 49.5 ], [ -93.375, 49.4583333 ], [ -93.3333333, 49.4583333 ], [ -93.3333333, 49.5 ], [ -93.375, 49.5 ] ] ], [ [ [ -93.625, 49.4583333 ], [ -93.625, 49.4166667 ], [ -93.5833333, 49.4166667 ], [ -93.625, 49.4583333 ] ] ], [ [ [ -93.4583333, 49.4583333 ], [ -93.4583333, 49.4166667 ], [ -93.375, 49.4166667 ], [ -93.375, 49.4583333 ], [ -93.4583333, 49.4583333 ] ] ], [ [ [ -94.8333333, 49.4166667 ], [ -94.8333333, 49.375 ], [ -94.7916667, 49.375 ], [ -94.7916667, 49.4166667 ], [ -94.8333333, 49.4166667 ] ] ], [ [ [ -94.1666667, 49.4166667 ], [ -94.25, 49.375 ], [ -94.2083333, 49.3333333 ], [ -94.1666667, 49.3333333 ], [ -94.1666667, 49.4166667 ] ] ], [ [ [ -93.6666667, 49.4583333 ], [ -93.8333333, 49.3333333 ], [ -93.625, 49.4166667 ], [ -93.6666667, 49.4583333 ] ] ], [ [ [ -94.6666667, 49.3333333 ], [ -94.6666667, 49.25 ], [ -94.625, 49.25 ], [ -94.625, 49.3333333 ], [ -94.6666667, 49.3333333 ] ] ], [ [ [ -93.5, 49.2916667 ], [ -93.5, 49.25 ], [ -93.4166667, 49.25 ], [ -93.5, 49.2916667 ] ] ], [ [ [ -93.8333333, 49.3333333 ], [ -94.0833333, 49.2916667 ], [ -93.9583333, 49.2083333 ], [ -93.8333333, 49.2083333 ], [ -93.8333333, 49.3333333 ] ] ], [ [ [ -94.75, 49.3333333 ], [ -94.7916667, 49.2083333 ], [ -94.7083333, 49.2083333 ], [ -94.7083333, 49.3333333 ], [ -94.75, 49.3333333 ] ] ], [ [ [ -94.625, 49.25 ], [ -94.625, 49.2083333 ], [ -94.5833333, 49.2083333 ], [ -94.5833333, 49.25 ], [ -94.625, 49.25 ] ] ], [ [ [ -94.4583333, 49.2083333 ], [ -94.4583333, 49.1666667 ], [ -94.4166667, 49.1666667 ], [ -94.4166667, 49.2083333 ], [ -94.4583333, 49.2083333 ] ] ], [ [ [ -94.0833333, 49.2083333 ], [ -94.0833333, 49.1666667 ], [ -94.0416667, 49.1666667 ], [ -94.0833333, 49.2083333 ] ] ], [ [ [ -93.9583333, 49.2083333 ], [ -94.0, 49.1666667 ], [ -93.9583333, 49.1666667 ], [ -93.9583333, 49.2083333 ] ] ], [ [ [ -93.5833333, 49.4166667 ], [ -93.75, 49.25 ], [ -93.8333333, 49.2083333 ], [ -93.7083333, 49.2083333 ], [ -93.6666667, 49.2083333 ], [ -93.6666667, 49.25 ], [ -93.5416667, 49.25 ], [ -93.5, 49.2916667 ], [ -93.5, 49.4166667 ], [ -93.5833333, 49.4166667 ] ] ], [ [ [ -94.5416667, 49.1666667 ], [ -94.5, 49.125 ], [ -94.5, 49.1666667 ], [ -94.5416667, 49.1666667 ] ] ], [ [ [ -94.1666667, 49.3333333 ], [ -94.1666667, 49.25 ], [ -94.25, 49.25 ], [ -94.2916667, 49.25 ], [ -94.3333333, 49.25 ], [ -94.375, 49.2083333 ], [ -94.4166667, 49.1666667 ], [ -94.4166667, 49.125 ], [ -94.125, 49.125 ], [ -94.125, 49.1666667 ], [ -94.2083333, 49.1666667 ], [ -94.0833333, 49.2083333 ], [ -94.0833333, 49.2916667 ], [ -94.1666667, 49.3333333 ] ] ], [ [ [ -94.875, 49.2916667 ], [ -94.9166667, 49.1666667 ], [ -94.75, 49.0833333 ], [ -94.75, 49.125 ], [ -94.8333333, 49.125 ], [ -94.7916667, 49.1666667 ], [ -94.7916667, 49.2083333 ], [ -94.8333333, 49.2916667 ], [ -94.875, 49.2916667 ] ] ], [ [ [ -94.75, 49.0833333 ], [ -94.75, 49.0416667 ], [ -94.7083333, 49.0416667 ], [ -94.7083333, 49.0833333 ], [ -94.75, 49.0833333 ] ] ], [ [ [ -94.7083333, 49.0416667 ], [ -94.625, 49.0 ], [ -94.625, 49.0416667 ], [ -94.7083333, 49.0416667 ] ] ], [ [ [ -94.4583333, 49.0833333 ], [ -94.4166667, 49.0 ], [ -94.4166667, 49.0833333 ], [ -94.4583333, 49.0833333 ] ] ], [ [ [ -99.0416667, 48.3333333 ], [ -99.0416667, 48.2916667 ], [ -99.0, 48.2916667 ], [ -99.0416667, 48.3333333 ] ] ], [ [ [ -89.3333333, 48.25 ], [ -90.0416667, 47.875 ], [ -89.5833333, 48.0 ], [ -89.3333333, 48.25 ] ] ], [ [ [ -88.375, 47.125 ], [ -88.0, 47.3333333 ], [ -88.1666667, 47.4583333 ], [ -88.5833333, 47.25 ], [ -88.375, 47.125 ] ] ], [ [ [ -93.5416667, 46.0833333 ], [ -93.5, 46.375 ], [ -93.875, 46.2916667 ], [ -93.8333333, 46.0833333 ], [ -93.5416667, 46.0833333 ] ] ], [ [ [ -82.4166667, 45.9583333 ], [ -82.4583333, 45.7083333 ], [ -81.875, 45.6666667 ], [ -81.9166667, 45.9583333 ], [ -82.4166667, 45.9583333 ] ] ], [ [ [ -104.4583333, 44.5833333 ], [ -104.4583333, 44.5416667 ], [ -104.4583333, 44.4583333 ], [ -104.4583333, 44.4166667 ], [ -104.375, 44.4166667 ], [ -104.3333333, 44.5416667 ], [ -104.4583333, 44.5833333 ] ] ], [ [ [ -100.2916667, 45.4166667 ], [ -100.4583333, 44.875 ], [ -100.7083333, 44.875 ], [ -100.6666667, 44.5416667 ], [ -100.25, 45.0 ], [ -100.2916667, 45.4166667 ] ] ], [ [ [ -73.1666667, 45.0833333 ], [ -73.4583333, 44.6666667 ], [ -73.2083333, 44.4166667 ], [ -73.1666667, 45.0833333 ] ] ], [ [ [ -104.0833333, 44.5 ], [ -104.1666667, 44.4583333 ], [ -104.2916667, 44.3333333 ], [ -104.375, 44.2083333 ], [ -104.25, 43.9166667 ], [ -103.9166667, 43.8333333 ], [ -103.7083333, 43.6666667 ], [ -103.375, 43.7916667 ], [ -103.5, 43.9583333 ], [ -103.4583333, 44.3333333 ], [ -103.8333333, 44.5 ], [ -104.0833333, 44.5 ] ] ], [ [ [ -74.0416667, 43.2083333 ], [ -74.25, 43.125 ], [ -74.0416667, 43.125 ], [ -74.0416667, 43.2083333 ] ] ], [ [ [ -107.0833333, 41.4583333 ], [ -107.1666667, 41.7083333 ], [ -107.5, 41.6666667 ], [ -107.4166667, 41.3333333 ], [ -107.0, 41.0416667 ], [ -107.0833333, 40.7083333 ], [ -106.8333333, 40.7083333 ], [ -106.75, 40.25 ], [ -106.625, 40.2083333 ], [ -106.5833333, 41.0833333 ], [ -106.8333333, 41.125 ], [ -107.0833333, 41.4583333 ] ] ], [ [ [ -104.6666667, 39.875 ], [ -104.875, 39.625 ], [ -104.4583333, 39.4166667 ], [ -104.375, 39.625 ], [ -104.6666667, 39.875 ] ] ], [ [ [ -79.4583333, 39.25 ], [ -79.5, 39.2083333 ], [ -79.4583333, 39.2083333 ], [ -79.4583333, 39.25 ] ] ], [ [ [ -70.6666667, 42.125 ], [ -70.7083333, 41.7916667 ], [ -70.9583333, 41.6666667 ], [ -71.375, 41.625 ], [ -71.5, 41.4583333 ], [ -72.25, 41.3333333 ], [ -72.4166667, 41.4583333 ], [ -72.5416667, 41.5 ], [ -73.5833333, 41.3333333 ], [ -73.7916667, 41.125 ], [ -74.2916667, 40.8333333 ], [ -74.25, 40.5416667 ], [ -74.3333333, 40.125 ], [ -74.2083333, 40.0833333 ], [ -74.2916667, 39.6666667 ], [ -74.5416667, 39.5833333 ], [ -74.7916667, 39.2083333 ], [ -75.25, 39.2916667 ], [ -74.9166667, 39.1666667 ], [ -74.375, 39.3333333 ], [ -74.125, 39.625 ], [ -73.9583333, 40.2083333 ], [ -74.0416667, 40.4583333 ], [ -73.8333333, 40.5833333 ], [ -73.25, 40.5833333 ], [ -72.0416667, 41.0 ], [ -72.2083333, 41.1666667 ], [ -72.5833333, 41.0 ], [ -73.1666667, 41.0 ], [ -73.6666667, 40.9166667 ], [ -72.8333333, 41.25 ], [ -72.1666667, 41.25 ], [ -71.4583333, 41.3333333 ], [ -71.2916667, 41.4583333 ], [ -70.75, 41.4166667 ], [ -70.2083333, 41.75 ], [ -70.5, 41.7916667 ], [ -70.6666667, 42.125 ] ] ], [ [ [ -79.2083333, 39.25 ], [ -79.4583333, 39.2083333 ], [ -79.4166667, 39.125 ], [ -79.2083333, 39.25 ] ] ], [ [ [ -80.4166667, 38.125 ], [ -80.1666667, 38.2916667 ], [ -80.4166667, 38.2916667 ], [ -80.4166667, 38.25 ], [ -80.4583333, 38.1666667 ], [ -80.5416667, 38.125 ], [ -80.6666667, 38.0416667 ], [ -80.5833333, 38.0 ], [ -80.4166667, 38.125 ] ] ], [ [ [ -75.7916667, 37.2916667 ], [ -75.625, 37.4166667 ], [ -75.5416667, 37.75 ], [ -75.3333333, 37.8333333 ], [ -75.0416667, 38.3333333 ], [ -75.0416667, 38.75 ], [ -75.2916667, 38.875 ], [ -75.2916667, 38.2083333 ], [ -75.375, 38.0416667 ], [ -75.8333333, 37.8333333 ], [ -76.0416667, 37.375 ], [ -75.7916667, 37.2916667 ] ] ], [ [ [ -75.75, 36.1666667 ], [ -75.75, 35.9166667 ], [ -75.5, 35.6666667 ], [ -75.5, 35.375 ], [ -75.4583333, 35.75 ], [ -75.75, 36.1666667 ] ] ], [ [ [ -85.625, 35.5416667 ], [ -85.9166667, 35.4583333 ], [ -85.6666667, 35.2083333 ], [ -85.5, 35.2916667 ], [ -85.625, 35.5416667 ] ] ], [ [ [ -84.3333333, 46.9166667 ], [ -84.4166667, 46.6666667 ], [ -84.0833333, 46.5833333 ], [ -84.0416667, 46.3333333 ], [ -83.4583333, 46.2916667 ], [ -83.25, 46.2083333 ], [ -82.2916667, 46.2083333 ], [ -82.0416667, 46.125 ], [ -81.5833333, 46.1666667 ], [ -81.4583333, 46.0 ], [ -80.7083333, 45.9583333 ], [ -80.375, 45.4583333 ], [ -80.0416667, 45.4166667 ], [ -80.0, 45.125 ], [ -79.6666667, 44.75 ], [ -79.9583333, 44.7083333 ], [ -80.0416667, 44.4583333 ], [ -80.625, 44.5833333 ], [ -81.25, 44.8333333 ], [ -81.25, 44.5833333 ], [ -81.5833333, 44.3333333 ], [ -81.7083333, 44.125 ], [ -81.6666667, 43.4166667 ], [ -82.1666667, 43.0416667 ], [ -82.4583333, 43.0 ], [ -82.625, 43.75 ], [ -82.875, 44.0416667 ], [ -83.3333333, 43.9166667 ], [ -83.625, 43.5833333 ], [ -83.9583333, 43.6666667 ], [ -83.9583333, 43.9166667 ], [ -83.5833333, 44.125 ], [ -83.3333333, 44.375 ], [ -83.3333333, 44.875 ], [ -83.4583333, 44.9166667 ], [ -83.4583333, 45.3333333 ], [ -84.2916667, 45.6666667 ], [ -84.9166667, 45.75 ], [ -85.0416667, 45.4583333 ], [ -85.375, 45.25 ], [ -85.375, 44.9166667 ], [ -85.5, 44.75 ], [ -85.7916667, 44.9166667 ], [ -86.0416667, 44.9166667 ], [ -86.375, 44.2083333 ], [ -86.5, 43.625 ], [ -86.25, 43.2916667 ], [ -86.2083333, 42.5833333 ], [ -86.5416667, 41.9583333 ], [ -86.8333333, 41.7083333 ], [ -87.4583333, 41.625 ], [ -87.8333333, 42.1666667 ], [ -87.8333333, 42.7083333 ], [ -87.9166667, 43.375 ], [ -87.7083333, 43.7083333 ], [ -87.7083333, 44.0833333 ], [ -87.5416667, 44.1666667 ], [ -87.5416667, 44.4583333 ], [ -87.375, 44.7916667 ], [ -87.625, 44.8333333 ], [ -87.875, 44.5416667 ], [ -88.0416667, 44.6666667 ], [ -87.875, 44.9583333 ], [ -87.3333333, 45.4583333 ], [ -87.2083333, 45.7083333 ], [ -86.7916667, 45.875 ], [ -86.3333333, 45.875 ], [ -86.2083333, 46.0 ], [ -85.6666667, 46.0 ], [ -85.25, 46.125 ], [ -84.75, 46.0 ], [ -83.9583333, 46.0 ], [ -84.25, 46.375 ], [ -85.0416667, 46.4583333 ], [ -85.0416667, 46.75 ], [ -85.4166667, 46.6666667 ], [ -86.1666667, 46.6666667 ], [ -86.5833333, 46.4583333 ], [ -87.4166667, 46.5 ], [ -87.625, 46.7916667 ], [ -88.1666667, 46.9166667 ], [ -88.7916667, 47.1666667 ], [ -89.125, 46.875 ], [ -89.125, 46.7916667 ], [ -89.4166667, 46.8333333 ], [ -89.75, 46.8333333 ], [ -90.25, 46.5833333 ], [ -90.625, 46.5833333 ], [ -90.875, 46.8333333 ], [ -91.2916667, 46.8333333 ], [ -91.7916667, 46.6666667 ], [ -92.125, 46.8333333 ], [ -91.625, 47.125 ], [ -92.2083333, 47.0833333 ], [ -92.3333333, 46.9583333 ], [ -92.3333333, 46.5 ], [ -91.75, 46.4583333 ], [ -91.5416667, 46.3333333 ], [ -91.4583333, 45.9583333 ], [ -92.1666667, 46.0 ], [ -92.8333333, 45.9583333 ], [ -93.2083333, 45.75 ], [ -93.5416667, 45.7916667 ], [ -93.7083333, 46.0 ], [ -94.5416667, 46.0 ], [ -94.4166667, 46.125 ], [ -94.9166667, 46.25 ], [ -95.3333333, 46.3333333 ], [ -95.625, 46.5 ], [ -95.7916667, 46.7916667 ], [ -96.25, 46.875 ], [ -96.25, 46.7083333 ], [ -96.875, 46.125 ], [ -97.2083333, 46.125 ], [ -97.1666667, 45.8333333 ], [ -97.5416667, 45.9166667 ], [ -97.625, 45.6666667 ], [ -98.0, 45.0833333 ], [ -98.3333333, 44.7083333 ], [ -98.875, 44.4583333 ], [ -99.125, 44.4583333 ], [ -99.0416667, 44.125 ], [ -99.0416667, 44.0833333 ], [ -99.375, 43.9166667 ], [ -99.4583333, 43.5833333 ], [ -99.8333333, 43.4583333 ], [ -100.5833333, 43.4166667 ], [ -100.3333333, 43.25 ], [ -100.375, 42.875 ], [ -100.5833333, 42.7916667 ], [ -101.0, 42.875 ], [ -100.9583333, 42.6666667 ], [ -101.4583333, 42.625 ], [ -101.5416667, 42.5 ], [ -102.1666667, 42.4583333 ], [ -102.125, 42.3333333 ], [ -102.25, 42.2083333 ], [ -102.2083333, 42.0833333 ], [ -102.1666667, 41.3333333 ], [ -102.5, 41.375 ], [ -102.6666667, 41.1666667 ], [ -102.75, 41.4583333 ], [ -103.3333333, 41.5416667 ], [ -104.0, 41.5416667 ], [ -104.0, 41.5833333 ], [ -104.0833333, 41.5 ], [ -104.5833333, 41.4583333 ], [ -105.0, 41.6666667 ], [ -105.2916667, 41.9583333 ], [ -105.3333333, 42.4166667 ], [ -105.5, 42.4583333 ], [ -105.7916667, 42.75 ], [ -106.125, 42.7083333 ], [ -106.25, 42.5 ], [ -105.8333333, 42.25 ], [ -105.7916667, 41.75 ], [ -106.0, 41.6666667 ], [ -106.5, 41.8333333 ], [ -106.625, 41.4583333 ], [ -106.25, 40.9166667 ], [ -106.0, 40.7083333 ], [ -106.0416667, 40.2083333 ], [ -106.2083333, 39.7916667 ], [ -106.5, 39.8333333 ], [ -106.2916667, 39.625 ], [ -106.3333333, 39.4583333 ], [ -106.375, 39.4583333 ], [ -106.625, 39.5416667 ], [ -106.6666667, 39.125 ], [ -106.375, 38.8333333 ], [ -106.375, 39.3333333 ], [ -106.0416667, 39.2916667 ], [ -105.7083333, 39.4166667 ], [ -105.5, 40.0416667 ], [ -105.25, 40.375 ], [ -105.2083333, 40.75 ], [ -105.4166667, 40.9166667 ], [ -104.7083333, 40.9583333 ], [ -104.375, 41.2916667 ], [ -103.8333333, 41.25 ], [ -103.7083333, 41.125 ], [ -103.125, 40.8333333 ], [ -103.5, 40.3333333 ], [ -103.2916667, 39.8333333 ], [ -102.9583333, 39.7916667 ], [ -102.6666667, 39.5833333 ], [ -102.5, 39.1666667 ], [ -102.1666667, 39.0416667 ], [ -101.5833333, 39.0416667 ], [ -101.1666667, 39.0 ], [ -100.8333333, 38.5416667 ], [ -100.8333333, 38.3333333 ], [ -100.4166667, 38.2083333 ], [ -100.1666667, 37.8333333 ], [ -100.0416667, 37.4583333 ], [ -99.8333333, 37.4166667 ], [ -99.4583333, 37.375 ], [ -99.3333333, 37.2083333 ], [ -99.0416667, 37.25 ], [ -98.5416667, 37.2083333 ], [ -98.25, 36.875 ], [ -98.25, 36.4166667 ], [ -98.0416667, 36.125 ], [ -97.3333333, 36.125 ], [ -96.7916667, 36.1666667 ], [ -96.7083333, 36.4583333 ], [ -96.5, 36.375 ], [ -96.4166667, 36.375 ], [ -95.875, 36.0416667 ], [ -95.5416667, 36.0416667 ], [ -95.2916667, 35.8333333 ], [ -95.0, 35.8333333 ], [ -94.7916667, 35.7083333 ], [ -94.75, 35.7083333 ], [ -94.7083333, 35.75 ], [ -94.7083333, 35.7083333 ], [ -94.625, 35.75 ], [ -93.875, 35.7083333 ], [ -93.5416667, 35.5833333 ], [ -93.1666667, 35.7083333 ], [ -93.125, 35.9166667 ], [ -93.2083333, 36.0 ], [ -93.0, 36.0833333 ], [ -93.0416667, 36.3333333 ], [ -93.375, 36.3333333 ], [ -93.375, 36.6666667 ], [ -93.25, 36.7916667 ], [ -92.5833333, 36.75 ], [ -92.4166667, 36.625 ], [ -92.2083333, 36.7916667 ], [ -91.8333333, 36.625 ], [ -91.5833333, 36.7916667 ], [ -91.0416667, 36.625 ], [ -90.9166667, 36.7083333 ], [ -90.7916667, 36.5 ], [ -91.0833333, 36.2916667 ], [ -91.0833333, 36.125 ], [ -91.5416667, 35.5416667 ], [ -91.375, 35.3333333 ], [ -91.3333333, 34.9166667 ], [ -91.2083333, 34.75 ], [ -90.75, 34.75 ], [ -90.6666667, 34.5416667 ], [ -90.375, 34.7083333 ], [ -90.0, 34.7083333 ], [ -89.75, 34.875 ], [ -89.5833333, 35.125 ], [ -89.0833333, 35.25 ], [ -88.8333333, 35.375 ], [ -88.5833333, 35.9166667 ], [ -88.1666667, 36.2083333 ], [ -87.75, 36.2916667 ], [ -87.7083333, 36.4166667 ], [ -87.2916667, 36.5833333 ], [ -87.0, 36.5416667 ], [ -86.9166667, 36.2916667 ], [ -86.2916667, 36.4166667 ], [ -85.875, 36.375 ], [ -85.6666667, 36.5 ], [ -85.5416667, 36.8333333 ], [ -85.125, 36.9166667 ], [ -85.0, 36.6666667 ], [ -85.0416667, 36.8333333 ], [ -84.8333333, 37.0416667 ], [ -84.375, 37.1666667 ], [ -84.0, 37.5 ], [ -84.125, 37.875 ], [ -83.9583333, 38.0 ], [ -83.75, 38.4166667 ], [ -83.4166667, 38.375 ], [ -83.25, 38.5833333 ], [ -82.9583333, 38.6666667 ], [ -82.75, 38.9583333 ], [ -82.6666667, 38.9166667 ], [ -82.5, 39.0833333 ], [ -82.0, 39.2083333 ], [ -81.7916667, 39.3333333 ], [ -81.3333333, 39.25 ], [ -81.25, 39.4166667 ], [ -80.9166667, 39.625 ], [ -80.8333333, 39.7916667 ], [ -80.7083333, 39.8333333 ], [ -80.7083333, 39.875 ], [ -80.2916667, 40.0416667 ], [ -79.9166667, 40.2916667 ], [ -79.875, 40.7083333 ], [ -79.4166667, 40.875 ], [ -79.2083333, 40.7916667 ], [ -79.1666667, 40.4583333 ], [ -79.7083333, 39.8333333 ], [ -79.625, 39.4166667 ], [ -79.625, 39.375 ], [ -79.375, 39.3333333 ], [ -79.125, 39.5 ], [ -78.9583333, 39.5 ], [ -78.7916667, 39.7916667 ], [ -78.625, 39.75 ], [ -78.0833333, 39.75 ], [ -77.4583333, 40.25 ], [ -77.125, 40.375 ], [ -76.9166667, 40.2916667 ], [ -76.4583333, 40.4166667 ], [ -76.4166667, 40.0833333 ], [ -76.8333333, 39.8333333 ], [ -76.9166667, 39.625 ], [ -76.7083333, 39.125 ], [ -76.375, 39.0 ], [ -76.3333333, 38.8333333 ], [ -76.375, 38.6666667 ], [ -76.1666667, 38.6666667 ], [ -76.1666667, 38.9583333 ], [ -76.0833333, 39.2916667 ], [ -75.7916667, 39.5416667 ], [ -75.4583333, 39.3333333 ], [ -75.4166667, 39.3333333 ], [ -75.25, 39.2916667 ], [ -75.3333333, 39.5833333 ], [ -75.125, 39.7083333 ], [ -75.25, 40.0833333 ], [ -75.625, 40.0833333 ], [ -75.7916667, 40.4166667 ], [ -76.2083333, 40.4166667 ], [ -75.9166667, 40.6666667 ], [ -76.0, 40.6666667 ], [ -75.7916667, 40.875 ], [ -75.875, 41.0833333 ], [ -75.2916667, 41.1666667 ], [ -75.4166667, 41.4166667 ], [ -75.375, 42.0 ], [ -75.25, 42.625 ], [ -74.875, 42.6666667 ], [ -74.7916667, 42.2916667 ], [ -74.9583333, 42.1666667 ], [ -74.8333333, 41.9166667 ], [ -74.625, 41.7083333 ], [ -74.6666667, 41.6666667 ], [ -74.3333333, 41.625 ], [ -74.375, 41.75 ], [ -74.0833333, 41.9166667 ], [ -74.0, 42.25 ], [ -74.2083333, 42.6666667 ], [ -74.7083333, 42.8333333 ], [ -74.7083333, 43.125 ], [ -74.4583333, 43.0 ], [ -74.25, 43.125 ], [ -74.5, 43.2916667 ], [ -74.9166667, 43.375 ], [ -75.1666667, 43.625 ], [ -75.3333333, 44.2083333 ], [ -75.5416667, 44.375 ], [ -75.25, 44.5416667 ], [ -75.0416667, 44.7916667 ], [ -74.5833333, 44.8333333 ], [ -74.25, 44.9583333 ], [ -73.875, 44.9583333 ], [ -73.5416667, 45.4166667 ], [ -73.6666667, 45.5416667 ], [ -74.3333333, 45.5416667 ], [ -74.375, 45.2916667 ], [ -74.7916667, 45.25 ], [ -75.0833333, 45.0833333 ], [ -75.75, 45.5416667 ], [ -76.625, 45.2916667 ], [ -76.8333333, 44.9166667 ], [ -77.375, 44.9166667 ], [ -78.0, 44.8333333 ], [ -78.125, 45.0 ], [ -78.875, 45.4583333 ], [ -78.9583333, 45.75 ], [ -79.2083333, 46.0 ], [ -79.4166667, 46.0 ], [ -79.4583333, 46.375 ], [ -79.9166667, 46.375 ], [ -80.2083333, 46.25 ], [ -80.5416667, 46.375 ], [ -81.9583333, 46.3333333 ], [ -82.1666667, 46.375 ], [ -82.5833333, 46.6666667 ], [ -83.375, 46.5416667 ], [ -84.3333333, 46.9166667 ] ], [ [ -89.2083333, 46.6666667 ], [ -89.0833333, 46.5416667 ], [ -88.4583333, 46.625 ], [ -87.875, 46.5416667 ], [ -87.875, 46.125 ], [ -88.0416667, 46.0 ], [ -88.9166667, 46.0 ], [ -88.9166667, 46.4166667 ], [ -89.4583333, 46.4583333 ], [ -89.2083333, 46.6666667 ] ], [ [ -75.8333333, 44.5416667 ], [ -76.0833333, 44.2083333 ], [ -76.2083333, 43.8333333 ], [ -76.2083333, 43.5 ], [ -76.4583333, 43.5 ], [ -76.9166667, 43.25 ], [ -77.6666667, 43.25 ], [ -77.9583333, 43.375 ], [ -78.5833333, 43.375 ], [ -78.9583333, 43.25 ], [ -79.7083333, 43.2083333 ], [ -79.75, 43.375 ], [ -79.5, 43.6666667 ], [ -78.8333333, 43.9166667 ], [ -77.875, 44.0 ], [ -77.4166667, 44.2083333 ], [ -76.75, 44.2083333 ], [ -76.1666667, 44.375 ], [ -75.8333333, 44.5416667 ] ], [ [ -79.0833333, 43.125 ], [ -78.875, 43.0833333 ], [ -78.8333333, 42.7916667 ], [ -79.125, 42.5416667 ], [ -80.4583333, 41.9583333 ], [ -80.625, 41.9583333 ], [ -81.375, 41.7083333 ], [ -81.7083333, 41.4583333 ], [ -82.0833333, 41.5 ], [ -82.375, 41.375 ], [ -83.0, 41.5416667 ], [ -83.4583333, 41.7916667 ], [ -83.2083333, 42.0416667 ], [ -83.1666667, 42.2916667 ], [ -82.9166667, 42.4166667 ], [ -82.7916667, 42.7083333 ], [ -82.4583333, 42.2916667 ], [ -83.0833333, 42.2916667 ], [ -83.0416667, 42.0416667 ], [ -82.5416667, 42.0416667 ], [ -82.125, 42.2916667 ], [ -81.9166667, 42.2916667 ], [ -81.4166667, 42.6666667 ], [ -80.5416667, 42.625 ], [ -80.2083333, 42.8333333 ], [ -79.1666667, 42.9166667 ], [ -79.0833333, 43.125 ] ], [ [ -78.4166667, 42.0833333 ], [ -78.1666667, 42.0833333 ], [ -78.125, 42.3333333 ], [ -77.625, 42.4166667 ], [ -77.375, 42.2916667 ], [ -77.25, 42.25 ], [ -77.125, 42.125 ], [ -77.3333333, 41.875 ], [ -77.9166667, 41.875 ], [ -78.0833333, 41.7083333 ], [ -78.4166667, 41.7916667 ], [ -78.4166667, 42.0833333 ] ], [ [ -106.0833333, 41.2916667 ], [ -106.0, 41.6666667 ], [ -105.6666667, 41.6666667 ], [ -105.5416667, 41.4583333 ], [ -105.5416667, 41.125 ], [ -106.0833333, 40.9583333 ], [ -106.0833333, 41.2916667 ] ], [ [ -77.4583333, 40.625 ], [ -77.5416667, 40.7083333 ], [ -77.4583333, 40.6666667 ], [ -77.4583333, 40.625 ] ], [ [ -77.0416667, 40.75 ], [ -77.375, 40.7083333 ], [ -77.2083333, 40.8333333 ], [ -76.9166667, 40.9166667 ], [ -76.9583333, 40.5 ], [ -77.125, 40.375 ], [ -77.4583333, 40.5 ], [ -77.4583333, 40.625 ], [ -77.0416667, 40.75 ] ] ] ] } }
]
}
