{
"type": "FeatureCollection",
"name": "Stachys_hispida",
"crs": { "type": "name", "properties": { "name": "urn:ogc:def:crs:OGC:1.3:CRS84" } },
"features": [
{ "type": "Feature", "properties": { "ID": 1 }, "geometry": { "type": "MultiPolygon", "coordinates": [ [ [ [ -91.25, 50.79167 ], [ -91.375, 50.79167 ], [ -91.375, 50.75 ], [ -91.25, 50.75 ], [ -91.25, 50.79167 ] ] ], [ [ [ -90.66667, 50.58333 ], [ -90.70833, 50.5 ], [ -90.625, 50.5 ], [ -90.66667, 50.58333 ] ] ], [ [ [ -84.70833, 49.5 ], [ -84.70833, 49.45833 ], [ -84.54167, 49.45833 ], [ -84.54167, 49.5 ], [ -84.70833, 49.5 ] ] ], [ [ [ -84.20833, 49.5 ], [ -84.25, 49.5 ], [ -84.25, 49.375 ], [ -84.125, 49.375 ], [ -84.125, 49.5 ], [ -84.16667, 49.5 ], [ -84.20833, 49.5 ] ] ], [ [ [ -85.04167, 49.5 ], [ -85.125, 49.45833 ], [ -85.0, 49.33333 ], [ -84.95833, 49.375 ], [ -84.95833, 49.45833 ], [ -85.04167, 49.5 ] ] ], [ [ [ -69.16667, 49.16667 ], [ -69.16667, 49.04167 ], [ -69.125, 49.04167 ], [ -69.125, 49.16667 ], [ -69.16667, 49.16667 ] ] ], [ [ [ -66.75, 49.125 ], [ -66.75, 49.08333 ], [ -66.875, 49.08333 ], [ -66.875, 49.04167 ], [ -67.0, 49.04167 ], [ -67.0, 49.0 ], [ -66.83333, 49.0 ], [ -66.83333, 49.04167 ], [ -66.66667, 49.04167 ], [ -66.66667, 49.08333 ], [ -66.75, 49.125 ] ] ], [ [ [ -81.16667, 49.16667 ], [ -81.16667, 49.08333 ], [ -81.20833, 49.04167 ], [ -81.16667, 48.95833 ], [ -81.04167, 48.95833 ], [ -81.04167, 49.04167 ], [ -80.95833, 49.04167 ], [ -80.95833, 49.125 ], [ -81.125, 49.125 ], [ -81.16667, 49.16667 ] ] ], [ [ [ -68.25, 48.45833 ], [ -68.04167, 48.45833 ], [ -68.04167, 48.5 ], [ -68.25, 48.5 ], [ -68.25, 48.45833 ] ] ], [ [ [ -72.29167, 48.70833 ], [ -72.29167, 48.5 ], [ -72.20833, 48.41667 ], [ -72.04167, 48.33333 ], [ -71.625, 48.33333 ], [ -71.66667, 48.41667 ], [ -71.75, 48.41667 ], [ -71.70833, 48.5 ], [ -71.70833, 48.625 ], [ -71.75, 48.66667 ], [ -71.91667, 48.66667 ], [ -71.91667, 48.70833 ], [ -72.29167, 48.70833 ] ] ], [ [ [ -68.625, 48.33333 ], [ -68.625, 48.25 ], [ -68.70833, 48.20833 ], [ -68.75, 48.125 ], [ -68.66667, 48.08333 ], [ -68.58333, 48.16667 ], [ -68.5, 48.16667 ], [ -68.5, 48.29167 ], [ -68.58333, 48.29167 ], [ -68.625, 48.33333 ] ] ], [ [ [ -92.91667, 48.125 ], [ -92.95833, 48.04167 ], [ -92.83333, 48.04167 ], [ -92.91667, 48.125 ] ] ], [ [ [ -94.70833, 47.875 ], [ -94.70833, 48.0 ], [ -94.66667, 48.08333 ], [ -94.5, 48.08333 ], [ -94.5, 48.16667 ], [ -94.54167, 48.20833 ], [ -94.75, 48.20833 ], [ -94.83333, 48.16667 ], [ -94.83333, 48.125 ], [ -95.0, 48.125 ], [ -95.08333, 48.08333 ], [ -95.08333, 48.04167 ], [ -95.20833, 48.04167 ], [ -95.25, 47.91667 ], [ -95.0, 47.91667 ], [ -94.91667, 47.875 ], [ -94.70833, 47.875 ] ] ], [ [ [ -76.375, 47.875 ], [ -76.375, 47.79167 ], [ -76.25, 47.79167 ], [ -76.29167, 47.875 ], [ -76.375, 47.875 ] ] ], [ [ [ -66.41667, 48.08333 ], [ -66.45833, 48.04167 ], [ -66.45833, 47.875 ], [ -66.375, 47.91667 ], [ -66.20833, 47.91667 ], [ -66.20833, 47.875 ], [ -66.08333, 47.83333 ], [ -66.125, 47.75 ], [ -65.95833, 47.75 ], [ -65.95833, 47.79167 ], [ -65.79167, 47.79167 ], [ -65.79167, 47.91667 ], [ -65.95833, 47.91667 ], [ -65.95833, 47.95833 ], [ -66.125, 47.95833 ], [ -66.125, 48.0 ], [ -66.33333, 48.0 ], [ -66.33333, 48.04167 ], [ -66.41667, 48.08333 ] ] ], [ [ [ -95.875, 47.70833 ], [ -95.83333, 47.66667 ], [ -95.75, 47.75 ], [ -95.875, 47.75 ], [ -95.875, 47.70833 ] ] ], [ [ [ -93.08333, 47.41667 ], [ -93.125, 47.33333 ], [ -93.0, 47.33333 ], [ -93.08333, 47.41667 ] ] ], [ [ [ -98.0, 47.25 ], [ -98.0, 47.125 ], [ -97.95833, 47.125 ], [ -97.95833, 47.25 ], [ -98.0, 47.25 ] ] ], [ [ [ -97.75, 47.16667 ], [ -97.79167, 47.08333 ], [ -97.66667, 47.08333 ], [ -97.66667, 47.16667 ], [ -97.75, 47.16667 ] ] ], [ [ [ -66.33333, 47.04167 ], [ -66.5, 47.04167 ], [ -66.5, 47.08333 ], [ -66.625, 47.08333 ], [ -66.66667, 47.04167 ], [ -66.66667, 47.0 ], [ -66.41667, 47.0 ], [ -66.33333, 47.04167 ] ] ], [ [ [ -96.875, 47.20833 ], [ -96.875, 47.08333 ], [ -96.91667, 47.04167 ], [ -97.0, 47.04167 ], [ -97.04167, 46.95833 ], [ -97.04167, 46.875 ], [ -96.95833, 46.875 ], [ -96.91667, 46.79167 ], [ -96.75, 46.79167 ], [ -96.75, 46.83333 ], [ -96.66667, 46.91667 ], [ -96.79167, 47.04167 ], [ -96.79167, 47.20833 ], [ -96.875, 47.20833 ] ] ], [ [ [ -66.16667, 46.91667 ], [ -66.16667, 46.70833 ], [ -66.0, 46.70833 ], [ -65.95833, 46.75 ], [ -65.95833, 46.875 ], [ -66.0, 46.91667 ], [ -66.16667, 46.91667 ] ] ], [ [ [ -70.08333, 45.04167 ], [ -70.125, 44.95833 ], [ -70.04167, 44.95833 ], [ -70.08333, 45.04167 ] ] ], [ [ [ -69.91667, 45.0 ], [ -69.95833, 44.95833 ], [ -69.95833, 44.875 ], [ -69.875, 44.875 ], [ -69.83333, 44.91667 ], [ -69.91667, 45.0 ] ] ], [ [ [ -97.08333, 44.58333 ], [ -97.16667, 44.58333 ], [ -97.16667, 44.45833 ], [ -97.08333, 44.45833 ], [ -97.08333, 44.58333 ] ] ], [ [ [ -72.33333, 43.0 ], [ -72.375, 42.91667 ], [ -72.375, 42.75 ], [ -72.25, 42.79167 ], [ -72.25, 42.95833 ], [ -72.33333, 43.0 ] ] ], [ [ [ -72.58333, 42.375 ], [ -72.5, 42.33333 ], [ -72.5, 42.41667 ], [ -72.58333, 42.375 ] ] ], [ [ [ -96.91667, 41.45833 ], [ -96.91667, 41.41667 ], [ -96.79167, 41.41667 ], [ -96.79167, 41.45833 ], [ -96.91667, 41.45833 ] ] ], [ [ [ -74.79167, 39.33333 ], [ -74.95833, 39.33333 ], [ -74.91667, 39.25 ], [ -74.83333, 39.25 ], [ -74.79167, 39.33333 ] ] ], [ [ [ -91.45833, 38.79167 ], [ -91.45833, 38.66667 ], [ -91.375, 38.70833 ], [ -91.375, 38.79167 ], [ -91.45833, 38.79167 ] ] ], [ [ [ -92.25, 38.625 ], [ -92.29167, 38.54167 ], [ -92.08333, 38.54167 ], [ -92.125, 38.625 ], [ -92.25, 38.625 ] ] ], [ [ [ -79.66667, 38.29167 ], [ -79.70833, 38.20833 ], [ -79.66667, 38.20833 ], [ -79.66667, 38.29167 ] ] ], [ [ [ -79.79167, 38.16667 ], [ -79.79167, 38.125 ], [ -79.75, 38.16667 ], [ -79.79167, 38.16667 ] ] ], [ [ [ -84.66667, 38.08333 ], [ -84.66667, 38.0 ], [ -84.54167, 38.0 ], [ -84.54167, 38.08333 ], [ -84.66667, 38.08333 ] ] ], [ [ [ -82.04167, 36.375 ], [ -82.04167, 36.29167 ], [ -81.95833, 36.29167 ], [ -81.95833, 36.375 ], [ -82.04167, 36.375 ] ] ], [ [ [ -83.625, 35.79167 ], [ -83.625, 35.70833 ], [ -83.41667, 35.70833 ], [ -83.41667, 35.75 ], [ -83.58333, 35.75 ], [ -83.625, 35.79167 ] ] ], [ [ [ -75.5, 35.375 ], [ -75.54167, 35.29167 ], [ -75.625, 35.29167 ], [ -75.70833, 35.25 ], [ -75.70833, 35.20833 ], [ -75.5, 35.20833 ], [ -75.5, 35.375 ] ] ], [ [ [ -75.70833, 35.20833 ], [ -75.83333, 35.20833 ], [ -75.83333, 35.16667 ], [ -75.70833, 35.16667 ], [ -75.70833, 35.20833 ] ] ], [ [ [ -64.70833, 32.41667 ], [ -64.75, 32.33333 ], [ -64.91667, 32.33333 ], [ -64.91667, 32.25 ], [ -64.75, 32.25 ], [ -64.625, 32.33333 ], [ -64.625, 32.41667 ], [ -64.70833, 32.41667 ] ] ], [ [ [ -90.75, 50.79167 ], [ -90.79167, 50.875 ], [ -90.95833, 50.875 ], [ -90.95833, 50.79167 ], [ -91.04167, 50.79167 ], [ -91.0, 50.875 ], [ -91.125, 50.875 ], [ -91.125, 50.83333 ], [ -91.25, 50.83333 ], [ -91.25, 50.79167 ], [ -91.08333, 50.79167 ], [ -91.08333, 50.70833 ], [ -91.29167, 50.70833 ], [ -91.29167, 50.66667 ], [ -91.375, 50.66667 ], [ -91.375, 50.75 ], [ -91.75, 50.75 ], [ -91.75, 50.70833 ], [ -91.91667, 50.70833 ], [ -91.91667, 50.66667 ], [ -92.08333, 50.66667 ], [ -92.08333, 50.58333 ], [ -92.25, 50.58333 ], [ -92.29167, 50.54167 ], [ -92.375, 50.58333 ], [ -92.41667, 50.54167 ], [ -92.33333, 50.45833 ], [ -92.33333, 50.41667 ], [ -92.75, 50.41667 ], [ -92.83333, 50.45833 ], [ -92.95833, 50.45833 ], [ -92.95833, 50.41667 ], [ -92.83333, 50.41667 ], [ -92.83333, 50.29167 ], [ -92.75, 50.20833 ], [ -92.66667, 50.20833 ], [ -92.66667, 49.875 ], [ -92.83333, 49.79167 ], [ -92.91667, 49.79167 ], [ -92.91667, 49.70833 ], [ -92.875, 49.625 ], [ -92.95833, 49.625 ], [ -93.0, 49.66667 ], [ -93.0, 49.79167 ], [ -93.20833, 49.79167 ], [ -93.25, 49.83333 ], [ -93.25, 49.91667 ], [ -93.33333, 49.91667 ], [ -93.29167, 50.0 ], [ -93.41667, 50.0 ], [ -93.41667, 50.08333 ], [ -93.625, 50.08333 ], [ -93.58333, 50.16667 ], [ -93.70833, 50.16667 ], [ -93.70833, 50.08333 ], [ -93.91667, 50.08333 ], [ -93.91667, 50.04167 ], [ -93.75, 50.04167 ], [ -93.75, 50.0 ], [ -93.91667, 50.0 ], [ -94.0, 49.95833 ], [ -94.0, 50.125 ], [ -94.125, 50.16667 ], [ -94.125, 50.04167 ], [ -94.08333, 50.0 ], [ -94.08333, 49.91667 ], [ -94.20833, 49.91667 ], [ -94.20833, 49.75 ], [ -94.29167, 49.70833 ], [ -94.33333, 49.75 ], [ -94.41667, 49.75 ], [ -94.54167, 49.66667 ], [ -94.625, 49.54167 ], [ -94.625, 49.45833 ], [ -94.5, 49.45833 ], [ -94.41667, 49.5 ], [ -94.375, 49.41667 ], [ -94.29167, 49.41667 ], [ -94.20833, 49.33333 ], [ -94.20833, 49.29167 ], [ -94.375, 49.29167 ], [ -94.41667, 49.20833 ], [ -94.5, 49.16667 ], [ -94.58333, 49.16667 ], [ -94.625, 49.08333 ], [ -94.75, 49.04167 ], [ -94.83333, 48.95833 ], [ -94.83333, 48.875 ], [ -94.79167, 48.83333 ], [ -94.66667, 48.83333 ], [ -94.66667, 48.875 ], [ -94.58333, 48.95833 ], [ -94.375, 48.95833 ], [ -94.375, 49.0 ], [ -94.29167, 49.08333 ], [ -94.16667, 49.08333 ], [ -94.125, 49.04167 ], [ -94.125, 48.95833 ], [ -93.95833, 48.95833 ], [ -93.95833, 48.875 ], [ -93.875, 48.875 ], [ -93.875, 48.79167 ], [ -93.83333, 48.75 ], [ -93.875, 48.66667 ], [ -93.70833, 48.66667 ], [ -93.66667, 48.70833 ], [ -93.58333, 48.70833 ], [ -93.54167, 48.66667 ], [ -93.54167, 48.58333 ], [ -93.5, 48.54167 ], [ -93.16667, 48.54167 ], [ -93.125, 48.45833 ], [ -93.04167, 48.41667 ], [ -92.875, 48.41667 ], [ -92.79167, 48.375 ], [ -92.75, 48.29167 ], [ -92.625, 48.29167 ], [ -92.625, 48.20833 ], [ -92.54167, 48.125 ], [ -92.54167, 48.0 ], [ -92.625, 48.0 ], [ -92.66667, 47.91667 ], [ -92.58333, 47.875 ], [ -92.45833, 47.875 ], [ -92.41667, 47.83333 ], [ -92.41667, 47.70833 ], [ -92.45833, 47.66667 ], [ -92.45833, 47.58333 ], [ -92.66667, 47.58333 ], [ -92.66667, 47.5 ], [ -92.58333, 47.5 ], [ -92.58333, 47.29167 ], [ -92.625, 47.20833 ], [ -92.70833, 47.125 ], [ -92.83333, 47.125 ], [ -92.83333, 47.04167 ], [ -92.95833, 46.91667 ], [ -93.0, 46.83333 ], [ -93.08333, 46.83333 ], [ -93.08333, 46.875 ], [ -93.20833, 46.875 ], [ -93.29167, 46.83333 ], [ -93.33333, 46.75 ], [ -93.41667, 46.79167 ], [ -93.54167, 46.79167 ], [ -93.54167, 46.95833 ], [ -93.5, 46.95833 ], [ -93.41667, 47.04167 ], [ -93.375, 47.125 ], [ -93.375, 47.29167 ], [ -93.29167, 47.33333 ], [ -93.54167, 47.33333 ], [ -93.54167, 47.41667 ], [ -93.45833, 47.54167 ], [ -93.5, 47.58333 ], [ -93.625, 47.58333 ], [ -93.625, 47.66667 ], [ -93.70833, 47.66667 ], [ -93.75, 47.75 ], [ -93.91667, 47.75 ], [ -93.91667, 47.83333 ], [ -94.0, 47.875 ], [ -94.125, 48.0 ], [ -94.54167, 48.0 ], [ -94.625, 47.95833 ], [ -94.625, 47.875 ], [ -94.70833, 47.875 ], [ -94.75, 47.83333 ], [ -94.70833, 47.75 ], [ -94.79167, 47.70833 ], [ -94.91667, 47.70833 ], [ -94.95833, 47.625 ], [ -94.95833, 47.54167 ], [ -95.45833, 47.54167 ], [ -95.5, 47.45833 ], [ -95.58333, 47.5 ], [ -95.875, 47.5 ], [ -95.91667, 47.54167 ], [ -95.91667, 47.625 ], [ -95.875, 47.70833 ], [ -96.125, 47.70833 ], [ -96.125, 47.75 ], [ -96.20833, 47.79167 ], [ -96.5, 47.79167 ], [ -96.5, 47.83333 ], [ -96.54167, 47.875 ], [ -96.54167, 47.95833 ], [ -96.75, 47.95833 ], [ -96.70833, 48.04167 ], [ -96.625, 48.0 ], [ -96.5, 48.0 ], [ -96.41667, 48.04167 ], [ -96.45833, 48.08333 ], [ -96.58333, 48.08333 ], [ -96.625, 48.16667 ], [ -96.66667, 48.20833 ], [ -96.66667, 48.29167 ], [ -96.70833, 48.33333 ], [ -96.79167, 48.33333 ], [ -96.79167, 48.29167 ], [ -96.83333, 48.33333 ], [ -96.91667, 48.29167 ], [ -96.91667, 48.20833 ], [ -96.79167, 48.20833 ], [ -96.79167, 48.16667 ], [ -96.79167, 47.91667 ], [ -96.66667, 47.91667 ], [ -96.625, 47.83333 ], [ -96.83333, 47.83333 ], [ -96.83333, 47.91667 ], [ -96.95833, 47.91667 ], [ -96.95833, 48.0 ], [ -97.04167, 48.0 ], [ -97.04167, 48.20833 ], [ -96.95833, 48.29167 ], [ -97.0, 48.33333 ], [ -97.08333, 48.33333 ], [ -97.125, 48.29167 ], [ -97.125, 48.20833 ], [ -97.25, 48.20833 ], [ -97.20833, 48.125 ], [ -97.41667, 48.125 ], [ -97.41667, 47.95833 ], [ -97.5, 47.91667 ], [ -97.625, 47.875 ], [ -97.625, 47.79167 ], [ -97.75, 47.70833 ], [ -97.79167, 47.625 ], [ -97.79167, 47.33333 ], [ -97.70833, 47.20833 ], [ -97.45833, 47.20833 ], [ -97.41667, 47.125 ], [ -97.29167, 47.125 ], [ -97.29167, 47.16667 ], [ -97.125, 47.16667 ], [ -97.125, 47.25 ], [ -97.04167, 47.25 ], [ -97.04167, 47.33333 ], [ -96.83333, 47.33333 ], [ -96.875, 47.375 ], [ -96.875, 47.45833 ], [ -96.79167, 47.45833 ], [ -96.83333, 47.54167 ], [ -96.70833, 47.625 ], [ -96.45833, 47.625 ], [ -96.41667, 47.54167 ], [ -96.33333, 47.5 ], [ -96.25, 47.5 ], [ -96.16667, 47.41667 ], [ -96.16667, 47.29167 ], [ -96.125, 47.29167 ], [ -96.125, 46.875 ], [ -96.20833, 46.875 ], [ -96.20833, 46.70833 ], [ -96.16667, 46.625 ], [ -96.04167, 46.625 ], [ -96.16667, 46.5 ], [ -96.16667, 46.45833 ], [ -96.58333, 46.45833 ], [ -96.54167, 46.33333 ], [ -96.625, 46.33333 ], [ -96.625, 46.08333 ], [ -96.66667, 46.08333 ], [ -96.66667, 45.95833 ], [ -96.75, 45.95833 ], [ -96.75, 45.83333 ], [ -96.875, 45.83333 ], [ -96.91667, 45.91667 ], [ -97.0, 45.91667 ], [ -97.04167, 45.875 ], [ -97.0, 45.79167 ], [ -97.08333, 45.79167 ], [ -97.08333, 45.625 ], [ -97.04167, 45.54167 ], [ -96.95833, 45.54167 ], [ -96.95833, 45.45833 ], [ -96.875, 45.41667 ], [ -96.875, 45.29167 ], [ -96.91667, 45.20833 ], [ -96.83333, 45.08333 ], [ -96.83333, 44.79167 ], [ -96.79167, 44.75 ], [ -96.83333, 44.66667 ], [ -96.70833, 44.66667 ], [ -96.70833, 44.5 ], [ -96.66667, 44.5 ], [ -96.66667, 44.25 ], [ -96.70833, 44.20833 ], [ -97.0, 44.20833 ], [ -97.04167, 44.25 ], [ -97.04167, 44.33333 ], [ -97.08333, 44.375 ], [ -97.375, 44.375 ], [ -97.375, 44.33333 ], [ -97.5, 44.33333 ], [ -97.5, 44.25 ], [ -97.54167, 44.20833 ], [ -97.66667, 44.20833 ], [ -97.79167, 44.125 ], [ -97.79167, 44.04167 ], [ -97.875, 43.95833 ], [ -97.95833, 43.91667 ], [ -97.95833, 43.875 ], [ -97.91667, 43.79167 ], [ -98.04167, 43.79167 ], [ -98.04167, 43.70833 ], [ -97.95833, 43.70833 ], [ -97.875, 43.625 ], [ -97.83333, 43.54167 ], [ -97.83333, 43.45833 ], [ -97.66667, 43.45833 ], [ -97.54167, 43.375 ], [ -97.58333, 43.29167 ], [ -97.58333, 43.0 ], [ -97.66667, 42.95833 ], [ -97.66667, 42.875 ], [ -97.79167, 42.75 ], [ -97.79167, 42.54167 ], [ -97.66667, 42.45833 ], [ -97.45833, 42.45833 ], [ -97.45833, 42.5 ], [ -97.33333, 42.5 ], [ -97.33333, 42.54167 ], [ -97.20833, 42.54167 ], [ -97.20833, 42.58333 ], [ -97.08333, 42.58333 ], [ -97.04167, 42.5 ], [ -97.04167, 42.41667 ], [ -96.95833, 42.375 ], [ -96.95833, 42.25 ], [ -96.79167, 42.08333 ], [ -96.58333, 42.08333 ], [ -96.58333, 41.79167 ], [ -96.66667, 41.75 ], [ -96.70833, 41.66667 ], [ -96.66667, 41.58333 ], [ -96.66667, 41.41667 ], [ -96.54167, 41.41667 ], [ -96.45833, 41.33333 ], [ -96.5, 41.29167 ], [ -96.5, 41.08333 ], [ -96.625, 40.95833 ], [ -96.70833, 40.95833 ], [ -96.70833, 41.04167 ], [ -96.83333, 41.16667 ], [ -96.91667, 41.16667 ], [ -96.95833, 41.0 ], [ -96.91667, 41.0 ], [ -96.91667, 40.875 ], [ -96.875, 40.875 ], [ -96.875, 40.75 ], [ -96.79167, 40.70833 ], [ -96.79167, 40.625 ], [ -96.625, 40.45833 ], [ -96.54167, 40.45833 ], [ -96.5, 40.41667 ], [ -96.5, 40.33333 ], [ -96.41667, 40.29167 ], [ -96.33333, 40.125 ], [ -96.33333, 40.04167 ], [ -96.25, 40.04167 ], [ -96.20833, 40.0 ], [ -96.20833, 39.83333 ], [ -96.125, 39.75 ], [ -96.125, 39.66667 ], [ -96.04167, 39.58333 ], [ -96.0, 39.5 ], [ -95.91667, 39.45833 ], [ -95.91667, 39.33333 ], [ -95.83333, 39.25 ], [ -95.91667, 39.25 ], [ -95.91667, 39.16667 ], [ -95.875, 39.125 ], [ -95.79167, 39.125 ], [ -95.70833, 38.91667 ], [ -95.54167, 38.91667 ], [ -95.54167, 38.95833 ], [ -95.41667, 38.95833 ], [ -95.45833, 39.08333 ], [ -95.16667, 39.08333 ], [ -95.16667, 39.125 ], [ -95.0, 39.29167 ], [ -94.83333, 39.29167 ], [ -94.79167, 39.20833 ], [ -94.66667, 39.20833 ], [ -94.66667, 39.16667 ], [ -94.5, 39.16667 ], [ -94.5, 39.20833 ], [ -94.41667, 39.25 ], [ -94.20833, 39.25 ], [ -94.125, 39.29167 ], [ -94.125, 39.20833 ], [ -94.125, 39.16667 ], [ -94.04167, 39.125 ], [ -93.95833, 39.04167 ], [ -93.91667, 38.95833 ], [ -93.91667, 38.83333 ], [ -93.83333, 38.75 ], [ -93.75, 38.70833 ], [ -93.625, 38.70833 ], [ -93.54167, 38.625 ], [ -93.54167, 38.58333 ], [ -93.375, 38.58333 ], [ -93.33333, 38.66667 ], [ -92.95833, 38.66667 ], [ -92.95833, 38.625 ], [ -92.79167, 38.625 ], [ -92.75, 38.66667 ], [ -92.75, 38.75 ], [ -92.66667, 38.79167 ], [ -92.66667, 38.83333 ], [ -92.54167, 38.83333 ], [ -92.54167, 38.875 ], [ -92.29167, 38.875 ], [ -92.29167, 38.91667 ], [ -92.125, 38.91667 ], [ -92.125, 39.0 ], [ -91.875, 39.0 ], [ -91.83333, 39.04167 ], [ -91.66667, 39.04167 ], [ -91.66667, 39.0 ], [ -91.54167, 39.0 ], [ -91.45833, 38.91667 ], [ -91.45833, 38.875 ], [ -91.125, 38.875 ], [ -91.04167, 38.70833 ], [ -90.95833, 38.75 ], [ -90.95833, 39.04167 ], [ -90.91667, 39.08333 ], [ -90.95833, 39.125 ], [ -90.83333, 39.25 ], [ -90.75, 39.29167 ], [ -90.75, 39.41667 ], [ -90.20833, 39.41667 ], [ -90.20833, 39.375 ], [ -89.91667, 39.375 ], [ -89.79167, 39.125 ], [ -89.70833, 39.08333 ], [ -89.70833, 39.0 ], [ -89.33333, 39.0 ], [ -89.33333, 38.95833 ], [ -89.20833, 38.95833 ], [ -89.20833, 39.0 ], [ -88.91667, 39.0 ], [ -88.91667, 39.04167 ], [ -88.625, 39.04167 ], [ -88.625, 39.08333 ], [ -88.375, 39.08333 ], [ -88.29167, 39.125 ], [ -88.25, 39.20833 ], [ -88.16667, 39.16667 ], [ -88.04167, 39.16667 ], [ -88.04167, 39.20833 ], [ -87.875, 39.20833 ], [ -87.875, 39.16667 ], [ -87.54167, 39.16667 ], [ -87.45833, 39.25 ], [ -87.33333, 39.25 ], [ -87.33333, 39.16667 ], [ -87.20833, 39.16667 ], [ -87.16667, 39.08333 ], [ -87.0, 39.08333 ], [ -86.875, 39.16667 ], [ -86.79167, 39.16667 ], [ -86.79167, 39.25 ], [ -86.70833, 39.29167 ], [ -86.70833, 39.375 ], [ -86.54167, 39.45833 ], [ -86.41667, 39.45833 ], [ -86.41667, 39.5 ], [ -86.33333, 39.54167 ], [ -85.66667, 39.54167 ], [ -85.625, 39.5 ], [ -85.54167, 39.58333 ], [ -85.54167, 39.83333 ], [ -85.58333, 39.83333 ], [ -85.58333, 39.95833 ], [ -85.5, 40.04167 ], [ -85.5, 40.125 ], [ -85.375, 40.125 ], [ -85.33333, 40.16667 ], [ -85.33333, 40.25 ], [ -84.875, 40.25 ], [ -84.875, 40.125 ], [ -84.91667, 40.08333 ], [ -84.91667, 39.83333 ], [ -84.58333, 39.83333 ], [ -84.58333, 39.875 ], [ -84.5, 39.95833 ], [ -84.54167, 40.0 ], [ -84.45833, 40.08333 ], [ -84.5, 40.20833 ], [ -84.58333, 40.29167 ], [ -84.66667, 40.29167 ], [ -84.70833, 40.25 ], [ -84.79167, 40.33333 ], [ -84.70833, 40.45833 ], [ -84.75, 40.5 ], [ -84.70833, 40.54167 ], [ -84.58333, 40.54167 ], [ -84.58333, 40.5 ], [ -84.5, 40.5 ], [ -84.5, 40.41667 ], [ -84.45833, 40.375 ], [ -84.375, 40.375 ], [ -84.375, 40.41667 ], [ -84.25, 40.41667 ], [ -84.16667, 40.45833 ], [ -84.16667, 40.33333 ], [ -84.20833, 40.25 ], [ -84.125, 40.20833 ], [ -84.04167, 40.04167 ], [ -84.04167, 39.875 ], [ -84.125, 39.875 ], [ -84.25, 39.79167 ], [ -84.25, 39.70833 ], [ -84.125, 39.625 ], [ -84.0, 39.625 ], [ -84.0, 39.54167 ], [ -83.91667, 39.54167 ], [ -83.91667, 39.45833 ], [ -83.83333, 39.375 ], [ -83.75, 39.375 ], [ -83.70833, 39.45833 ], [ -83.625, 39.5 ], [ -83.54167, 39.5 ], [ -83.54167, 39.58333 ], [ -83.375, 39.58333 ], [ -83.29167, 39.41667 ], [ -83.29167, 39.29167 ], [ -83.16667, 39.29167 ], [ -83.16667, 39.16667 ], [ -83.125, 39.16667 ], [ -83.125, 38.91667 ], [ -83.16667, 38.83333 ], [ -83.33333, 38.66667 ], [ -83.41667, 38.66667 ], [ -83.45833, 38.58333 ], [ -83.54167, 38.5 ], [ -83.625, 38.5 ], [ -83.91667, 38.20833 ], [ -83.91667, 38.125 ], [ -84.0, 38.08333 ], [ -84.0, 37.875 ], [ -83.95833, 37.875 ], [ -83.95833, 37.41667 ], [ -83.875, 37.41667 ], [ -83.875, 37.20833 ], [ -83.79167, 37.20833 ], [ -83.79167, 37.0 ], [ -83.70833, 36.91667 ], [ -83.5, 36.91667 ], [ -83.5, 36.83333 ], [ -83.375, 36.83333 ], [ -83.375, 36.79167 ], [ -83.25, 36.79167 ], [ -83.125, 36.875 ], [ -82.83333, 36.875 ], [ -82.75, 36.91667 ], [ -82.70833, 36.83333 ], [ -82.79167, 36.83333 ], [ -82.79167, 36.75 ], [ -82.70833, 36.75 ], [ -82.70833, 36.625 ], [ -82.75, 36.54167 ], [ -82.79167, 36.54167 ], [ -82.79167, 36.375 ], [ -82.91667, 36.25 ], [ -83.0, 36.25 ], [ -83.04167, 36.16667 ], [ -83.04167, 36.04167 ], [ -83.0, 36.0 ], [ -82.79167, 36.0 ], [ -82.79167, 36.04167 ], [ -82.70833, 36.08333 ], [ -82.58333, 36.08333 ], [ -82.58333, 36.125 ], [ -82.33333, 36.125 ], [ -82.25, 36.16667 ], [ -82.20833, 36.25 ], [ -82.125, 36.25 ], [ -82.08333, 36.29167 ], [ -82.08333, 36.41667 ], [ -82.04167, 36.5 ], [ -81.95833, 36.58333 ], [ -81.79167, 36.66667 ], [ -81.875, 36.75 ], [ -81.95833, 36.75 ], [ -81.95833, 36.91667 ], [ -82.0, 36.91667 ], [ -82.0, 37.04167 ], [ -81.95833, 37.125 ], [ -81.875, 37.20833 ], [ -81.83333, 37.29167 ], [ -81.58333, 37.29167 ], [ -81.5, 37.25 ], [ -81.5, 37.33333 ], [ -81.375, 37.33333 ], [ -81.29167, 37.375 ], [ -81.29167, 37.20833 ], [ -81.20833, 37.20833 ], [ -81.16667, 37.25 ], [ -81.16667, 37.375 ], [ -81.20833, 37.45833 ], [ -81.125, 37.5 ], [ -81.16667, 37.54167 ], [ -81.08333, 37.625 ], [ -81.08333, 37.79167 ], [ -81.04167, 37.83333 ], [ -81.04167, 37.875 ], [ -81.125, 37.875 ], [ -81.08333, 37.95833 ], [ -81.125, 38.0 ], [ -81.0, 38.125 ], [ -80.91667, 38.125 ], [ -80.79167, 38.20833 ], [ -80.79167, 38.29167 ], [ -80.83333, 38.33333 ], [ -80.83333, 38.45833 ], [ -80.70833, 38.45833 ], [ -80.70833, 38.54167 ], [ -80.66667, 38.58333 ], [ -80.45833, 38.58333 ], [ -80.45833, 38.70833 ], [ -80.41667, 38.75 ], [ -80.45833, 38.79167 ], [ -80.20833, 38.79167 ], [ -80.16667, 38.66667 ], [ -80.08333, 38.66667 ], [ -80.04167, 38.75 ], [ -80.04167, 38.875 ], [ -79.91667, 38.875 ], [ -79.91667, 38.79167 ], [ -79.83333, 38.79167 ], [ -79.83333, 38.95833 ], [ -79.79167, 38.95833 ], [ -79.79167, 39.125 ], [ -79.70833, 39.125 ], [ -79.70833, 39.20833 ], [ -79.45833, 39.45833 ], [ -79.29167, 39.45833 ], [ -79.20833, 39.375 ], [ -79.20833, 39.25 ], [ -79.29167, 39.16667 ], [ -79.33333, 39.08333 ], [ -79.45833, 38.95833 ], [ -79.45833, 38.83333 ], [ -79.54167, 38.83333 ], [ -79.54167, 38.625 ], [ -79.625, 38.58333 ], [ -79.625, 38.45833 ], [ -79.58333, 38.41667 ], [ -79.5, 38.41667 ], [ -79.625, 38.29167 ], [ -79.66667, 38.20833 ], [ -79.66667, 38.125 ], [ -79.75, 38.08333 ], [ -79.75, 38.0 ], [ -79.83333, 37.95833 ], [ -79.83333, 37.875 ], [ -79.91667, 37.79167 ], [ -79.95833, 37.79167 ], [ -79.875, 37.95833 ], [ -79.79167, 38.04167 ], [ -79.79167, 38.125 ], [ -79.83333, 38.125 ], [ -79.83333, 38.16667 ], [ -79.875, 38.125 ], [ -79.95833, 38.0 ], [ -80.04167, 38.0 ], [ -80.04167, 37.875 ], [ -80.16667, 37.875 ], [ -80.16667, 37.79167 ], [ -80.20833, 37.75 ], [ -80.33333, 37.75 ], [ -80.29167, 37.66667 ], [ -80.41667, 37.66667 ], [ -80.45833, 37.625 ], [ -80.58333, 37.625 ], [ -80.58333, 37.70833 ], [ -80.75, 37.70833 ], [ -80.75, 37.66667 ], [ -80.875, 37.66667 ], [ -80.875, 37.79167 ], [ -80.91667, 37.79167 ], [ -80.91667, 37.625 ], [ -80.95833, 37.54167 ], [ -80.875, 37.45833 ], [ -80.875, 37.25 ], [ -80.79167, 37.16667 ], [ -80.79167, 37.0 ], [ -80.75, 37.0 ], [ -80.75, 36.875 ], [ -80.79167, 36.83333 ], [ -80.91667, 36.83333 ], [ -80.95833, 36.79167 ], [ -80.95833, 36.70833 ], [ -81.04167, 36.70833 ], [ -81.08333, 36.625 ], [ -81.16667, 36.58333 ], [ -80.875, 36.58333 ], [ -80.875, 36.66667 ], [ -80.79167, 36.66667 ], [ -80.79167, 36.75 ], [ -80.625, 36.75 ], [ -80.625, 36.83333 ], [ -80.58333, 36.91667 ], [ -80.5, 36.95833 ], [ -80.5, 37.04167 ], [ -80.41667, 37.04167 ], [ -80.33333, 37.08333 ], [ -80.20833, 37.20833 ], [ -80.0, 37.20833 ], [ -79.95833, 37.125 ], [ -79.95833, 37.04167 ], [ -80.08333, 37.04167 ], [ -80.08333, 36.95833 ], [ -79.95833, 36.95833 ], [ -79.95833, 36.91667 ], [ -80.16667, 36.91667 ], [ -80.29167, 36.79167 ], [ -80.20833, 36.70833 ], [ -80.29167, 36.66667 ], [ -80.375, 36.58333 ], [ -80.375, 36.41667 ], [ -80.41667, 36.33333 ], [ -80.5, 36.25 ], [ -80.54167, 36.25 ], [ -80.54167, 36.125 ], [ -80.625, 35.95833 ], [ -80.66667, 35.875 ], [ -80.41667, 35.875 ], [ -80.41667, 35.91667 ], [ -80.29167, 35.91667 ], [ -80.16667, 35.83333 ], [ -80.125, 35.75 ], [ -80.125, 35.45833 ], [ -80.25, 35.33333 ], [ -80.25, 35.08333 ], [ -80.29167, 35.08333 ], [ -80.29167, 34.95833 ], [ -80.375, 34.91667 ], [ -80.375, 34.83333 ], [ -80.45833, 34.79167 ], [ -80.54167, 34.66667 ], [ -80.66667, 34.66667 ], [ -80.66667, 34.625 ], [ -80.91667, 34.625 ], [ -80.95833, 34.58333 ], [ -80.95833, 34.29167 ], [ -81.04167, 34.20833 ], [ -81.16667, 34.20833 ], [ -81.20833, 34.125 ], [ -81.29167, 34.125 ], [ -81.375, 34.08333 ], [ -81.375, 34.0 ], [ -81.66667, 33.70833 ], [ -81.83333, 33.375 ], [ -81.91667, 33.375 ], [ -81.91667, 33.29167 ], [ -81.95833, 33.25 ], [ -82.04167, 33.25 ], [ -82.04167, 33.16667 ], [ -82.16667, 33.08333 ], [ -82.29167, 33.08333 ], [ -82.54167, 32.83333 ], [ -82.54167, 32.75 ], [ -82.66667, 32.625 ], [ -82.625, 32.58333 ], [ -82.66667, 32.54167 ], [ -82.66667, 32.20833 ], [ -82.83333, 32.20833 ], [ -82.91667, 32.16667 ], [ -82.95833, 32.04167 ], [ -82.79167, 32.04167 ], [ -82.79167, 32.08333 ], [ -82.58333, 32.08333 ], [ -82.54167, 32.125 ], [ -82.54167, 32.20833 ], [ -82.45833, 32.20833 ], [ -82.41667, 32.29167 ], [ -82.41667, 32.41667 ], [ -82.375, 32.41667 ], [ -82.375, 32.54167 ], [ -82.33333, 32.58333 ], [ -82.25, 32.58333 ], [ -82.25, 32.66667 ], [ -82.16667, 32.70833 ], [ -82.0, 32.70833 ], [ -82.0, 32.75 ], [ -81.875, 32.75 ], [ -81.83333, 32.70833 ], [ -81.79167, 32.75 ], [ -81.79167, 32.83333 ], [ -81.625, 32.83333 ], [ -81.625, 33.08333 ], [ -81.45833, 33.08333 ], [ -81.41667, 33.20833 ], [ -81.33333, 33.29167 ], [ -81.20833, 33.29167 ], [ -81.20833, 33.33333 ], [ -81.125, 33.375 ], [ -81.0, 33.375 ], [ -80.83333, 33.29167 ], [ -80.70833, 33.29167 ], [ -80.66667, 33.375 ], [ -80.58333, 33.375 ], [ -80.58333, 33.45833 ], [ -80.375, 33.45833 ], [ -80.375, 33.41667 ], [ -80.20833, 33.41667 ], [ -80.20833, 33.54167 ], [ -80.125, 33.625 ], [ -80.125, 33.66667 ], [ -79.95833, 33.66667 ], [ -79.95833, 33.625 ], [ -79.79167, 33.625 ], [ -79.79167, 33.70833 ], [ -79.70833, 33.70833 ], [ -79.70833, 33.79167 ], [ -79.54167, 33.79167 ], [ -79.54167, 33.83333 ], [ -79.20833, 33.83333 ], [ -79.16667, 33.91667 ], [ -78.95833, 33.91667 ], [ -78.95833, 33.875 ], [ -78.79167, 33.875 ], [ -78.70833, 33.91667 ], [ -78.70833, 34.0 ], [ -78.58333, 34.08333 ], [ -78.41667, 34.25 ], [ -78.29167, 34.25 ], [ -78.20833, 34.29167 ], [ -78.20833, 34.41667 ], [ -78.16667, 34.41667 ], [ -78.16667, 34.58333 ], [ -78.125, 34.66667 ], [ -77.95833, 34.66667 ], [ -77.95833, 34.70833 ], [ -77.83333, 34.70833 ], [ -77.83333, 34.66667 ], [ -77.70833, 34.66667 ], [ -77.66667, 34.58333 ], [ -77.58333, 34.54167 ], [ -77.58333, 34.45833 ], [ -77.5, 34.5 ], [ -77.29167, 34.5 ], [ -77.25, 34.58333 ], [ -77.16667, 34.625 ], [ -77.0, 34.625 ], [ -77.0, 34.66667 ], [ -76.58333, 34.66667 ], [ -76.58333, 34.58333 ], [ -76.5, 34.58333 ], [ -76.45833, 34.625 ], [ -76.45833, 34.70833 ], [ -76.375, 34.79167 ], [ -76.25, 34.91667 ], [ -76.16667, 34.91667 ], [ -76.125, 35.0 ], [ -76.04167, 35.04167 ], [ -75.95833, 35.04167 ], [ -75.91667, 35.125 ], [ -75.83333, 35.16667 ], [ -75.95833, 35.16667 ], [ -76.0, 35.08333 ], [ -76.08333, 35.08333 ], [ -76.16667, 35.04167 ], [ -76.375, 35.04167 ], [ -76.41667, 35.08333 ], [ -76.54167, 35.08333 ], [ -76.54167, 35.16667 ], [ -76.45833, 35.20833 ], [ -76.45833, 35.33333 ], [ -76.625, 35.33333 ], [ -76.625, 35.375 ], [ -76.41667, 35.375 ], [ -76.41667, 35.33333 ], [ -76.08333, 35.33333 ], [ -76.0, 35.375 ], [ -76.0, 35.45833 ], [ -75.91667, 35.54167 ], [ -75.75, 35.54167 ], [ -75.70833, 35.58333 ], [ -75.70833, 35.875 ], [ -75.625, 35.75 ], [ -75.54167, 35.75 ], [ -75.5, 35.66667 ], [ -75.5, 35.375 ], [ -75.45833, 35.375 ], [ -75.45833, 35.75 ], [ -75.54167, 35.79167 ], [ -75.54167, 35.875 ], [ -75.66667, 36.125 ], [ -75.75, 36.16667 ], [ -75.75, 36.29167 ], [ -75.79167, 36.29167 ], [ -75.79167, 36.41667 ], [ -75.83333, 36.41667 ], [ -75.83333, 36.58333 ], [ -75.875, 36.58333 ], [ -75.875, 36.70833 ], [ -75.91667, 36.70833 ], [ -75.95833, 36.79167 ], [ -75.95833, 36.95833 ], [ -76.25, 36.95833 ], [ -76.25, 37.125 ], [ -76.29167, 37.16667 ], [ -76.375, 37.16667 ], [ -76.375, 37.25 ], [ -76.33333, 37.29167 ], [ -76.25, 37.29167 ], [ -76.25, 37.66667 ], [ -76.29167, 37.75 ], [ -76.20833, 37.91667 ], [ -76.25, 37.95833 ], [ -76.375, 37.95833 ], [ -76.45833, 38.0 ], [ -76.5, 38.08333 ], [ -76.375, 38.08333 ], [ -76.29167, 38.16667 ], [ -76.33333, 38.20833 ], [ -76.41667, 38.20833 ], [ -76.45833, 38.25 ], [ -76.45833, 38.5 ], [ -76.5, 38.5 ], [ -76.5, 38.83333 ], [ -76.45833, 38.83333 ], [ -76.45833, 38.95833 ], [ -76.375, 39.0 ], [ -76.375, 38.83333 ], [ -76.33333, 38.83333 ], [ -76.375, 38.79167 ], [ -76.375, 38.66667 ], [ -76.16667, 38.66667 ], [ -76.16667, 38.625 ], [ -76.29167, 38.625 ], [ -76.33333, 38.54167 ], [ -76.33333, 38.5 ], [ -76.29167, 38.41667 ], [ -76.29167, 38.29167 ], [ -76.20833, 38.29167 ], [ -76.125, 38.20833 ], [ -76.125, 38.08333 ], [ -76.08333, 38.04167 ], [ -76.08333, 37.91667 ], [ -75.95833, 37.91667 ], [ -75.95833, 38.04167 ], [ -76.0, 38.04167 ], [ -76.0, 38.20833 ], [ -75.95833, 38.20833 ], [ -75.95833, 38.08333 ], [ -75.91667, 38.08333 ], [ -75.91667, 37.875 ], [ -75.875, 37.91667 ], [ -75.79167, 37.91667 ], [ -75.75, 37.83333 ], [ -75.83333, 37.83333 ], [ -75.875, 37.75 ], [ -75.875, 37.66667 ], [ -75.95833, 37.625 ], [ -75.95833, 37.5 ], [ -76.0, 37.5 ], [ -76.0, 37.375 ], [ -76.04167, 37.375 ], [ -76.04167, 37.16667 ], [ -76.0, 37.08333 ], [ -75.875, 37.08333 ], [ -75.79167, 37.16667 ], [ -75.79167, 37.29167 ], [ -75.70833, 37.29167 ], [ -75.70833, 37.375 ], [ -75.625, 37.41667 ], [ -75.625, 37.54167 ], [ -75.58333, 37.54167 ], [ -75.58333, 37.66667 ], [ -75.54167, 37.75 ], [ -75.45833, 37.83333 ], [ -75.33333, 37.83333 ], [ -75.29167, 37.875 ], [ -75.29167, 37.95833 ], [ -75.20833, 38.0 ], [ -75.125, 38.16667 ], [ -75.125, 38.29167 ], [ -75.04167, 38.33333 ], [ -75.04167, 38.75 ], [ -75.125, 38.79167 ], [ -75.33333, 38.79167 ], [ -75.29167, 38.83333 ], [ -75.33333, 38.91667 ], [ -75.375, 38.91667 ], [ -75.375, 39.29167 ], [ -75.5, 39.41667 ], [ -75.5, 39.45833 ], [ -75.54167, 39.54167 ], [ -75.54167, 39.875 ], [ -75.5, 39.95833 ], [ -75.41667, 40.0 ], [ -75.41667, 40.08333 ], [ -75.29167, 40.08333 ], [ -75.29167, 40.16667 ], [ -75.33333, 40.20833 ], [ -75.29167, 40.25 ], [ -75.04167, 40.25 ], [ -75.04167, 40.08333 ], [ -75.08333, 40.0 ], [ -75.16667, 40.0 ], [ -75.125, 39.91667 ], [ -75.125, 39.83333 ], [ -75.04167, 39.75 ], [ -74.70833, 39.75 ], [ -74.70833, 39.79167 ], [ -74.625, 39.875 ], [ -74.54167, 39.91667 ], [ -74.45833, 39.91667 ], [ -74.41667, 40.0 ], [ -74.33333, 40.0 ], [ -74.33333, 40.125 ], [ -74.375, 40.16667 ], [ -74.25, 40.29167 ], [ -74.25, 40.625 ], [ -74.29167, 40.70833 ], [ -74.375, 40.70833 ], [ -74.375, 40.875 ], [ -74.45833, 40.83333 ], [ -74.58333, 40.83333 ], [ -74.58333, 41.125 ], [ -74.5, 41.16667 ], [ -74.5, 41.25 ], [ -74.375, 41.33333 ], [ -74.25, 41.33333 ], [ -74.25, 41.375 ], [ -74.16667, 41.41667 ], [ -74.04167, 41.41667 ], [ -74.04167, 41.45833 ], [ -73.95833, 41.5 ], [ -73.83333, 41.5 ], [ -73.75, 41.54167 ], [ -73.75, 41.66667 ], [ -73.66667, 41.70833 ], [ -73.66667, 41.79167 ], [ -73.58333, 41.75 ], [ -73.41667, 41.91667 ], [ -73.29167, 41.91667 ], [ -73.29167, 42.0 ], [ -73.25, 42.08333 ], [ -73.33333, 42.08333 ], [ -73.33333, 42.20833 ], [ -73.29167, 42.25 ], [ -73.20833, 42.25 ], [ -73.20833, 42.33333 ], [ -73.16667, 42.41667 ], [ -73.16667, 42.54167 ], [ -73.29167, 42.54167 ], [ -73.33333, 42.58333 ], [ -73.29167, 42.66667 ], [ -73.20833, 42.625 ], [ -73.16667, 42.66667 ], [ -73.16667, 42.95833 ], [ -73.08333, 43.125 ], [ -73.0, 43.16667 ], [ -72.95833, 43.25 ], [ -72.95833, 43.375 ], [ -72.91667, 43.41667 ], [ -72.83333, 43.41667 ], [ -72.79167, 43.5 ], [ -72.66667, 43.58333 ], [ -72.45833, 43.58333 ], [ -72.5, 43.54167 ], [ -72.5, 43.375 ], [ -72.41667, 43.375 ], [ -72.45833, 43.29167 ], [ -72.45833, 43.16667 ], [ -72.41667, 43.16667 ], [ -72.41667, 43.25 ], [ -72.33333, 43.25 ], [ -72.29167, 43.33333 ], [ -72.04167, 43.33333 ], [ -72.04167, 43.54167 ], [ -71.95833, 43.5 ], [ -71.83333, 43.5 ], [ -71.83333, 43.58333 ], [ -71.75, 43.625 ], [ -71.75, 43.70833 ], [ -71.66667, 43.70833 ], [ -71.66667, 43.83333 ], [ -71.5, 44.125 ], [ -71.58333, 44.20833 ], [ -71.375, 44.20833 ], [ -71.375, 44.29167 ], [ -71.29167, 44.33333 ], [ -71.25, 44.29167 ], [ -71.16667, 44.375 ], [ -71.0, 44.45833 ], [ -70.91667, 44.5 ], [ -70.83333, 44.5 ], [ -70.75, 44.58333 ], [ -70.75, 44.66667 ], [ -70.66667, 44.66667 ], [ -70.625, 44.70833 ], [ -70.625, 44.83333 ], [ -70.45833, 44.83333 ], [ -70.45833, 44.875 ], [ -70.54167, 44.95833 ], [ -70.41667, 45.08333 ], [ -70.33333, 45.08333 ], [ -70.29167, 45.16667 ], [ -70.33333, 45.25 ], [ -70.25, 45.33333 ], [ -70.16667, 45.29167 ], [ -70.08333, 45.29167 ], [ -70.0, 45.20833 ], [ -69.95833, 45.20833 ], [ -69.95833, 45.33333 ], [ -69.83333, 45.33333 ], [ -69.83333, 45.41667 ], [ -69.79167, 45.45833 ], [ -69.66667, 45.45833 ], [ -69.66667, 45.41667 ], [ -69.58333, 45.45833 ], [ -69.58333, 45.54167 ], [ -69.5, 45.54167 ], [ -69.41667, 45.58333 ], [ -69.29167, 45.5 ], [ -69.0, 45.5 ], [ -68.83333, 45.58333 ], [ -68.75, 45.54167 ], [ -68.75, 45.66667 ], [ -68.625, 45.66667 ], [ -68.54167, 45.58333 ], [ -68.5, 45.625 ], [ -68.5, 45.875 ], [ -68.41667, 45.83333 ], [ -68.33333, 45.83333 ], [ -68.29167, 45.91667 ], [ -68.29167, 46.08333 ], [ -68.08333, 46.08333 ], [ -68.0, 46.125 ], [ -67.95833, 46.20833 ], [ -67.875, 46.20833 ], [ -67.70833, 46.375 ], [ -67.70833, 46.45833 ], [ -67.625, 46.45833 ], [ -67.58333, 46.54167 ], [ -67.45833, 46.54167 ], [ -67.375, 46.625 ], [ -67.375, 46.75 ], [ -67.41667, 46.79167 ], [ -67.375, 46.875 ], [ -67.20833, 46.875 ], [ -67.20833, 46.91667 ], [ -67.125, 46.95833 ], [ -66.95833, 46.95833 ], [ -66.95833, 47.0 ], [ -66.79167, 47.0 ], [ -66.79167, 47.04167 ], [ -66.66667, 47.04167 ], [ -66.66667, 47.20833 ], [ -66.75, 47.25 ], [ -66.75, 47.33333 ], [ -66.79167, 47.33333 ], [ -66.79167, 47.45833 ], [ -66.70833, 47.625 ], [ -66.54167, 47.625 ], [ -66.54167, 47.66667 ], [ -66.625, 47.70833 ], [ -66.70833, 47.79167 ], [ -66.75, 47.75 ], [ -66.83333, 47.75 ], [ -66.79167, 47.83333 ], [ -66.83333, 47.875 ], [ -66.75, 47.95833 ], [ -66.58333, 47.95833 ], [ -66.54167, 48.04167 ], [ -66.58333, 48.08333 ], [ -66.75, 48.08333 ], [ -66.75, 48.04167 ], [ -66.95833, 48.04167 ], [ -66.95833, 48.20833 ], [ -66.91667, 48.25 ], [ -66.83333, 48.25 ], [ -66.75, 48.29167 ], [ -66.58333, 48.29167 ], [ -66.58333, 48.33333 ], [ -66.45833, 48.33333 ], [ -66.45833, 48.29167 ], [ -66.33333, 48.29167 ], [ -66.33333, 48.125 ], [ -66.20833, 48.125 ], [ -66.20833, 48.08333 ], [ -66.04167, 48.08333 ], [ -66.0, 48.16667 ], [ -65.875, 48.16667 ], [ -65.83333, 48.08333 ], [ -65.625, 48.08333 ], [ -65.625, 48.04167 ], [ -65.5, 48.04167 ], [ -65.5, 48.0 ], [ -65.375, 48.0 ], [ -65.375, 48.125 ], [ -65.45833, 48.125 ], [ -65.58333, 48.20833 ], [ -65.66667, 48.20833 ], [ -65.75, 48.375 ], [ -66.125, 48.375 ], [ -66.125, 48.33333 ], [ -66.41667, 48.33333 ], [ -66.41667, 48.375 ], [ -66.5, 48.41667 ], [ -66.66667, 48.41667 ], [ -66.66667, 48.45833 ], [ -66.79167, 48.45833 ], [ -66.79167, 48.66667 ], [ -66.875, 48.70833 ], [ -67.0, 48.70833 ], [ -67.0, 48.66667 ], [ -67.125, 48.66667 ], [ -67.20833, 48.625 ], [ -67.29167, 48.54167 ], [ -67.29167, 48.45833 ], [ -67.375, 48.45833 ], [ -67.375, 48.33333 ], [ -67.45833, 48.33333 ], [ -67.5, 48.29167 ], [ -67.45833, 48.20833 ], [ -67.58333, 48.20833 ], [ -67.66667, 48.25 ], [ -67.75, 48.20833 ], [ -67.875, 48.20833 ], [ -67.875, 48.08333 ], [ -67.95833, 48.0 ], [ -67.95833, 47.95833 ], [ -68.08333, 47.95833 ], [ -68.16667, 47.875 ], [ -68.16667, 47.83333 ], [ -68.45833, 47.83333 ], [ -68.54167, 47.83333 ], [ -68.625, 47.91667 ], [ -68.625, 48.0 ], [ -68.83333, 48.0 ], [ -68.83333, 47.91667 ], [ -68.91667, 47.91667 ], [ -68.91667, 48.0 ], [ -69.0, 48.04167 ], [ -69.0, 48.125 ], [ -68.95833, 48.16667 ], [ -68.875, 48.16667 ], [ -68.79167, 48.20833 ], [ -68.75, 48.29167 ], [ -68.66667, 48.29167 ], [ -68.625, 48.33333 ], [ -68.54167, 48.375 ], [ -68.5, 48.29167 ], [ -68.45833, 48.375 ], [ -68.25, 48.375 ], [ -68.25, 48.45833 ], [ -68.33333, 48.54167 ], [ -68.5, 48.54167 ], [ -68.58333, 48.45833 ], [ -68.75, 48.375 ], [ -68.79167, 48.29167 ], [ -68.875, 48.25 ], [ -68.95833, 48.25 ], [ -69.0, 48.16667 ], [ -69.125, 48.16667 ], [ -69.125, 48.125 ], [ -69.29167, 48.125 ], [ -69.33333, 48.04167 ], [ -69.5, 48.04167 ], [ -69.54167, 47.95833 ], [ -69.5, 47.875 ], [ -69.5, 47.79167 ], [ -69.375, 47.79167 ], [ -69.375, 47.58333 ], [ -69.45833, 47.5 ], [ -69.625, 47.5 ], [ -69.70833, 47.54167 ], [ -69.70833, 47.625 ], [ -69.75, 47.66667 ], [ -69.83333, 47.58333 ], [ -69.91667, 47.54167 ], [ -70.0, 47.54167 ], [ -70.08333, 47.45833 ], [ -70.08333, 47.375 ], [ -70.125, 47.33333 ], [ -70.20833, 47.33333 ], [ -70.375, 47.16667 ], [ -70.5, 47.16667 ], [ -70.54167, 47.08333 ], [ -70.66667, 47.08333 ], [ -70.66667, 47.04167 ], [ -70.75, 47.04167 ], [ -70.54167, 47.25 ], [ -70.5, 47.33333 ], [ -70.5, 47.45833 ], [ -70.45833, 47.45833 ], [ -70.45833, 47.33333 ], [ -70.375, 47.375 ], [ -70.29167, 47.45833 ], [ -70.20833, 47.45833 ], [ -70.20833, 47.58333 ], [ -70.16667, 47.66667 ], [ -70.20833, 47.75 ], [ -70.41667, 47.75 ], [ -70.5, 47.66667 ], [ -70.5, 47.625 ], [ -70.66667, 47.45833 ], [ -70.70833, 47.45833 ], [ -70.70833, 47.66667 ], [ -70.66667, 47.66667 ], [ -70.58333, 47.75 ], [ -70.58333, 47.83333 ], [ -70.33333, 47.95833 ], [ -70.20833, 47.95833 ], [ -70.20833, 48.04167 ], [ -70.16667, 48.08333 ], [ -70.04167, 48.08333 ], [ -70.0, 48.04167 ], [ -70.0, 47.95833 ], [ -69.95833, 47.91667 ], [ -69.83333, 47.91667 ], [ -69.75, 47.95833 ], [ -69.75, 48.04167 ], [ -69.70833, 48.125 ], [ -69.625, 48.125 ], [ -69.58333, 48.16667 ], [ -69.58333, 48.25 ], [ -69.54167, 48.29167 ], [ -69.375, 48.29167 ], [ -69.41667, 48.375 ], [ -69.45833, 48.58333 ], [ -69.54167, 48.5 ], [ -69.66667, 48.5 ], [ -69.66667, 48.66667 ], [ -69.58333, 48.66667 ], [ -69.625, 48.75 ], [ -69.54167, 48.83333 ], [ -69.45833, 48.91667 ], [ -69.5, 48.95833 ], [ -69.625, 48.95833 ], [ -69.66667, 48.91667 ], [ -69.66667, 48.79167 ], [ -69.75, 48.79167 ], [ -69.75, 48.70833 ], [ -69.79167, 48.70833 ], [ -69.75, 48.66667 ], [ -69.75, 48.625 ], [ -69.875, 48.625 ], [ -69.875, 48.54167 ], [ -69.91667, 48.5 ], [ -70.04167, 48.5 ], [ -70.08333, 48.58333 ], [ -70.29167, 48.58333 ], [ -70.25, 48.54167 ], [ -70.25, 48.45833 ], [ -70.45833, 48.45833 ], [ -70.45833, 48.5 ], [ -70.70833, 48.5 ], [ -70.70833, 48.54167 ], [ -70.91667, 48.54167 ], [ -70.91667, 48.5 ], [ -71.25, 48.5 ], [ -71.25, 48.41667 ], [ -71.29167, 48.375 ], [ -71.58333, 48.375 ], [ -71.5, 48.29167 ], [ -71.375, 48.20833 ], [ -71.375, 48.125 ], [ -71.5, 48.0 ], [ -71.54167, 48.04167 ], [ -71.75, 48.04167 ], [ -71.75, 48.08333 ], [ -71.83333, 48.125 ], [ -72.0, 48.125 ], [ -72.0, 48.04167 ], [ -72.08333, 47.95833 ], [ -72.25, 47.95833 ], [ -72.25, 47.91667 ], [ -72.5, 47.91667 ], [ -72.5, 47.79167 ], [ -72.58333, 47.75 ], [ -72.66667, 47.75 ], [ -72.66667, 47.70833 ], [ -72.79167, 47.70833 ], [ -72.83333, 47.66667 ], [ -72.91667, 47.66667 ], [ -72.91667, 47.58333 ], [ -73.04167, 47.54167 ], [ -73.08333, 47.5 ], [ -73.20833, 47.5 ], [ -73.20833, 47.45833 ], [ -73.33333, 47.45833 ], [ -73.33333, 47.375 ], [ -73.45833, 47.375 ], [ -73.45833, 47.33333 ], [ -73.58333, 47.33333 ], [ -73.58333, 47.29167 ], [ -73.70833, 47.29167 ], [ -73.70833, 47.33333 ], [ -73.83333, 47.33333 ], [ -73.83333, 47.29167 ], [ -73.875, 47.375 ], [ -74.0, 47.375 ], [ -74.08333, 47.33333 ], [ -74.125, 47.375 ], [ -74.125, 47.45833 ], [ -74.16667, 47.5 ], [ -74.20833, 47.54167 ], [ -74.29167, 47.5 ], [ -74.5, 47.5 ], [ -74.5, 47.45833 ], [ -74.70833, 47.45833 ], [ -74.70833, 47.375 ], [ -74.79167, 47.33333 ], [ -74.91667, 47.33333 ], [ -74.95833, 47.45833 ], [ -75.08333, 47.45833 ], [ -75.08333, 47.41667 ], [ -75.25, 47.41667 ], [ -75.25, 47.5 ], [ -75.66667, 47.5 ], [ -75.66667, 47.54167 ], [ -75.875, 47.54167 ], [ -75.875, 47.625 ], [ -75.95833, 47.625 ], [ -76.0, 47.54167 ], [ -76.0, 47.45833 ], [ -76.125, 47.45833 ], [ -76.29167, 47.54167 ], [ -76.29167, 47.66667 ], [ -76.5, 47.66667 ], [ -76.58333, 47.70833 ], [ -76.58333, 47.83333 ], [ -76.5, 47.95833 ], [ -76.66667, 47.95833 ], [ -76.75, 48.0 ], [ -76.79167, 48.08333 ], [ -76.66667, 48.08333 ], [ -76.66667, 48.16667 ], [ -76.79167, 48.16667 ], [ -76.79167, 48.125 ], [ -77.04167, 48.125 ], [ -77.0, 48.20833 ], [ -77.08333, 48.29167 ], [ -77.08333, 48.54167 ], [ -77.25, 48.54167 ], [ -77.375, 48.45833 ], [ -77.375, 48.33333 ], [ -77.45833, 48.33333 ], [ -77.54167, 48.25 ], [ -78.0, 48.25 ], [ -78.0, 48.33333 ], [ -78.16667, 48.33333 ], [ -78.29167, 48.41667 ], [ -78.41667, 48.41667 ], [ -78.45833, 48.45833 ], [ -78.45833, 48.54167 ], [ -78.625, 48.54167 ], [ -78.625, 48.58333 ], [ -78.79167, 48.58333 ], [ -78.875, 48.5 ], [ -78.875, 48.45833 ], [ -79.0, 48.45833 ], [ -79.04167, 48.41667 ], [ -79.16667, 48.41667 ], [ -79.16667, 48.5 ], [ -79.20833, 48.54167 ], [ -79.33333, 48.54167 ], [ -79.33333, 48.5 ], [ -79.45833, 48.5 ], [ -79.58333, 48.58333 ], [ -79.5, 48.625 ], [ -79.375, 48.625 ], [ -79.375, 48.66667 ], [ -79.45833, 48.75 ], [ -79.54167, 48.75 ], [ -79.625, 48.79167 ], [ -79.66667, 48.70833 ], [ -79.83333, 48.70833 ], [ -79.83333, 48.875 ], [ -79.875, 48.91667 ], [ -80.04167, 48.91667 ], [ -80.16667, 48.83333 ], [ -80.16667, 48.75 ], [ -80.125, 48.70833 ], [ -80.04167, 48.70833 ], [ -80.0, 48.58333 ], [ -80.08333, 48.58333 ], [ -80.08333, 48.66667 ], [ -80.16667, 48.66667 ], [ -80.29167, 48.54167 ], [ -80.5, 48.54167 ], [ -80.5, 48.5 ], [ -80.625, 48.5 ], [ -80.70833, 48.54167 ], [ -80.83333, 48.54167 ], [ -81.0, 48.625 ], [ -81.125, 48.625 ], [ -81.125, 48.58333 ], [ -81.25, 48.58333 ], [ -81.25, 48.625 ], [ -81.54167, 48.625 ], [ -81.58333, 48.66667 ], [ -81.66667, 48.58333 ], [ -81.70833, 48.66667 ], [ -81.79167, 48.66667 ], [ -81.83333, 48.58333 ], [ -81.875, 48.54167 ], [ -81.91667, 48.45833 ], [ -82.25, 48.45833 ], [ -82.20833, 48.41667 ], [ -82.20833, 48.29167 ], [ -82.29167, 48.20833 ], [ -82.45833, 48.20833 ], [ -82.5, 48.25 ], [ -82.5, 48.29167 ], [ -82.5, 48.33333 ], [ -82.625, 48.33333 ], [ -82.625, 48.45833 ], [ -82.66667, 48.375 ], [ -82.79167, 48.375 ], [ -82.79167, 48.41667 ], [ -82.70833, 48.5 ], [ -82.75, 48.54167 ], [ -82.75, 48.58333 ], [ -82.75, 48.79167 ], [ -82.66667, 48.95833 ], [ -82.58333, 48.95833 ], [ -82.54167, 49.0 ], [ -82.54167, 49.20833 ], [ -82.5, 49.29167 ], [ -82.66667, 49.29167 ], [ -82.66667, 49.16667 ], [ -82.75, 49.16667 ], [ -82.75, 49.25 ], [ -82.79167, 49.29167 ], [ -82.79167, 49.375 ], [ -82.66667, 49.375 ], [ -82.66667, 49.75 ], [ -82.79167, 49.75 ], [ -82.79167, 49.79167 ], [ -82.95833, 49.79167 ], [ -83.0, 49.83333 ], [ -83.0, 49.91667 ], [ -83.33333, 49.91667 ], [ -83.375, 49.875 ], [ -83.66667, 49.875 ], [ -83.66667, 49.83333 ], [ -83.75, 49.75 ], [ -83.75, 49.70833 ], [ -83.95833, 49.70833 ], [ -84.04167, 49.58333 ], [ -84.0, 49.5 ], [ -83.91667, 49.45833 ], [ -83.91667, 49.41667 ], [ -84.04167, 49.41667 ], [ -84.04167, 49.33333 ], [ -84.125, 49.29167 ], [ -84.125, 49.20833 ], [ -84.20833, 49.16667 ], [ -84.29167, 49.16667 ], [ -84.375, 49.08333 ], [ -84.375, 49.25 ], [ -84.45833, 49.25 ], [ -84.5, 49.20833 ], [ -84.70833, 49.20833 ], [ -84.75, 49.29167 ], [ -84.83333, 49.25 ], [ -85.125, 49.25 ], [ -85.125, 49.20833 ], [ -85.25, 49.20833 ], [ -85.25, 49.29167 ], [ -85.33333, 49.45833 ], [ -85.41667, 49.41667 ], [ -85.45833, 49.5 ], [ -85.375, 49.54167 ], [ -85.29167, 49.625 ], [ -85.25, 49.70833 ], [ -85.125, 49.70833 ], [ -85.08333, 49.75 ], [ -85.16667, 49.83333 ], [ -85.16667, 49.95833 ], [ -85.29167, 50.0 ], [ -85.29167, 49.875 ], [ -85.33333, 49.83333 ], [ -85.45833, 49.83333 ], [ -85.45833, 49.75 ], [ -85.70833, 49.75 ], [ -85.75, 49.83333 ], [ -86.0, 49.83333 ], [ -86.0, 49.79167 ], [ -86.125, 49.79167 ], [ -86.20833, 49.91667 ], [ -86.20833, 49.83333 ], [ -86.58333, 49.83333 ], [ -86.66667, 49.79167 ], [ -86.66667, 49.70833 ], [ -86.875, 49.5 ], [ -86.95833, 49.45833 ], [ -87.04167, 49.45833 ], [ -87.08333, 49.54167 ], [ -87.25, 49.625 ], [ -87.25, 49.70833 ], [ -87.375, 49.83333 ], [ -87.375, 50.08333 ], [ -87.45833, 50.04167 ], [ -87.54167, 50.04167 ], [ -87.58333, 49.95833 ], [ -87.66667, 49.95833 ], [ -87.66667, 50.04167 ], [ -87.75, 50.08333 ], [ -88.0, 50.08333 ], [ -88.0, 50.125 ], [ -88.125, 50.125 ], [ -88.16667, 50.20833 ], [ -88.25, 50.20833 ], [ -88.33333, 50.25 ], [ -88.375, 50.20833 ], [ -88.75, 50.20833 ], [ -88.75, 50.16667 ], [ -88.875, 50.16667 ], [ -88.875, 50.20833 ], [ -89.125, 50.20833 ], [ -89.125, 50.25 ], [ -89.25, 50.25 ], [ -89.41667, 50.41667 ], [ -89.375, 50.33333 ], [ -89.54167, 50.33333 ], [ -89.5, 50.41667 ], [ -89.5, 50.5 ], [ -89.83333, 50.5 ], [ -89.83333, 50.54167 ], [ -89.95833, 50.54167 ], [ -90.04167, 50.5 ], [ -90.04167, 50.45833 ], [ -90.16667, 50.45833 ], [ -90.16667, 50.5 ], [ -90.29167, 50.5 ], [ -90.29167, 50.58333 ], [ -90.375, 50.625 ], [ -90.58333, 50.625 ], [ -90.54167, 50.54167 ], [ -90.54167, 50.45833 ], [ -90.75, 50.45833 ], [ -90.75, 50.58333 ], [ -90.66667, 50.70833 ], [ -90.75, 50.79167 ] ], [ [ -90.83333, 50.75 ], [ -90.75, 50.79167 ], [ -90.79167, 50.70833 ], [ -90.83333, 50.75 ] ], [ [ -91.70833, 50.66667 ], [ -91.70833, 50.70833 ], [ -91.54167, 50.70833 ], [ -91.45833, 50.66667 ], [ -91.5, 50.58333 ], [ -91.5, 50.45833 ], [ -91.66667, 50.45833 ], [ -91.66667, 50.41667 ], [ -91.83333, 50.41667 ], [ -91.83333, 50.58333 ], [ -91.79167, 50.58333 ], [ -91.70833, 50.66667 ] ], [ [ -91.29167, 50.66667 ], [ -91.20833, 50.625 ], [ -91.25, 50.5 ], [ -91.375, 50.5 ], [ -91.375, 50.45833 ], [ -91.41667, 50.54167 ], [ -91.375, 50.58333 ], [ -91.29167, 50.58333 ], [ -91.29167, 50.66667 ] ], [ [ -91.375, 50.45833 ], [ -91.25, 50.41667 ], [ -91.25, 50.33333 ], [ -91.375, 50.33333 ], [ -91.375, 50.45833 ] ], [ [ -91.66667, 50.41667 ], [ -91.54167, 50.41667 ], [ -91.54167, 50.375 ], [ -91.66667, 50.375 ], [ -91.66667, 50.41667 ] ], [ [ -88.20833, 49.375 ], [ -88.20833, 49.66667 ], [ -88.16667, 49.75 ], [ -88.08333, 49.83333 ], [ -88.0, 49.79167 ], [ -87.875, 49.79167 ], [ -87.79167, 49.66667 ], [ -87.79167, 49.54167 ], [ -87.875, 49.41667 ], [ -87.91667, 49.375 ], [ -88.20833, 49.375 ] ], [ [ -90.70833, 49.20833 ], [ -90.41667, 49.20833 ], [ -90.41667, 49.125 ], [ -90.33333, 49.04167 ], [ -90.33333, 48.95833 ], [ -90.375, 48.91667 ], [ -90.58333, 48.91667 ], [ -90.58333, 49.0 ], [ -90.66667, 49.04167 ], [ -90.79167, 49.04167 ], [ -90.75, 49.125 ], [ -90.66667, 49.125 ], [ -90.70833, 49.20833 ] ], [ [ -88.375, 48.95833 ], [ -88.29167, 48.95833 ], [ -88.33333, 49.04167 ], [ -88.25, 49.16667 ], [ -88.125, 49.16667 ], [ -88.08333, 49.08333 ], [ -87.95833, 49.08333 ], [ -87.875, 48.95833 ], [ -87.75, 48.95833 ], [ -87.75, 48.91667 ], [ -87.54167, 48.91667 ], [ -87.54167, 48.875 ], [ -87.41667, 48.875 ], [ -87.41667, 48.83333 ], [ -87.20833, 48.83333 ], [ -87.04167, 48.91667 ], [ -87.04167, 49.04167 ], [ -86.95833, 49.125 ], [ -86.79167, 49.04167 ], [ -86.66667, 49.04167 ], [ -86.66667, 49.08333 ], [ -86.33333, 49.08333 ], [ -86.33333, 49.0 ], [ -86.29167, 48.95833 ], [ -86.20833, 48.95833 ], [ -86.20833, 48.79167 ], [ -86.125, 48.875 ], [ -86.04167, 48.875 ], [ -86.0, 48.75 ], [ -85.91667, 48.75 ], [ -85.875, 48.70833 ], [ -85.95833, 48.625 ], [ -85.91667, 48.54167 ], [ -85.91667, 48.375 ], [ -85.83333, 48.375 ], [ -85.83333, 48.25 ], [ -85.66667, 48.25 ], [ -85.58333, 48.20833 ], [ -85.58333, 48.16667 ], [ -85.45833, 48.16667 ], [ -85.45833, 48.20833 ], [ -85.29167, 48.20833 ], [ -85.29167, 48.25 ], [ -85.0, 48.25 ], [ -85.0, 48.29167 ], [ -84.75, 48.29167 ], [ -84.70833, 48.375 ], [ -84.66667, 48.375 ], [ -84.5, 48.45833 ], [ -84.375, 48.45833 ], [ -84.375, 48.5 ], [ -84.29167, 48.54167 ], [ -84.08333, 48.54167 ], [ -84.08333, 48.58333 ], [ -83.91667, 48.58333 ], [ -83.83333, 48.54167 ], [ -83.66667, 48.41667 ], [ -83.58333, 48.41667 ], [ -83.54167, 48.375 ], [ -83.54167, 48.25 ], [ -83.45833, 48.29167 ], [ -83.29167, 48.29167 ], [ -83.20833, 48.25 ], [ -83.04167, 48.25 ], [ -82.875, 48.25 ], [ -83.0, 48.16667 ], [ -82.95833, 48.08333 ], [ -82.83333, 48.08333 ], [ -82.83333, 48.0 ], [ -82.75, 47.91667 ], [ -82.58333, 47.83333 ], [ -82.375, 47.83333 ], [ -82.375, 47.75 ], [ -82.20833, 47.75 ], [ -82.20833, 47.66667 ], [ -82.08333, 47.66667 ], [ -82.0, 47.625 ], [ -82.0, 47.54167 ], [ -81.875, 47.54167 ], [ -81.875, 47.45833 ], [ -81.83333, 47.375 ], [ -81.66667, 47.375 ], [ -81.66667, 47.25 ], [ -81.54167, 47.16667 ], [ -81.375, 47.16667 ], [ -81.375, 47.125 ], [ -81.58333, 47.125 ], [ -81.54167, 47.08333 ], [ -81.41667, 47.08333 ], [ -81.41667, 47.04167 ], [ -81.0, 47.04167 ], [ -80.95833, 47.08333 ], [ -80.83333, 47.08333 ], [ -80.83333, 47.125 ], [ -80.91667, 47.20833 ], [ -81.0, 47.20833 ], [ -81.0, 47.29167 ], [ -80.875, 47.29167 ], [ -80.875, 47.33333 ], [ -80.75, 47.33333 ], [ -80.75, 47.16667 ], [ -80.66667, 47.16667 ], [ -80.66667, 47.25 ], [ -80.58333, 47.25 ], [ -80.58333, 47.125 ], [ -80.70833, 47.08333 ], [ -80.875, 47.0 ], [ -80.91667, 46.91667 ], [ -80.91667, 46.79167 ], [ -81.0, 46.83333 ], [ -81.0, 46.66667 ], [ -81.04167, 46.625 ], [ -81.0, 46.58333 ], [ -81.04167, 46.54167 ], [ -81.04167, 46.41667 ], [ -80.83333, 46.41667 ], [ -80.875, 46.5 ], [ -80.70833, 46.5 ], [ -80.66667, 46.45833 ], [ -80.41667, 46.45833 ], [ -80.41667, 46.41667 ], [ -80.29167, 46.41667 ], [ -80.29167, 46.54167 ], [ -80.25, 46.54167 ], [ -80.20833, 46.54167 ], [ -80.125, 46.5 ], [ -80.0, 46.5 ], [ -79.95833, 46.45833 ], [ -79.79167, 46.45833 ], [ -79.75, 46.375 ], [ -79.66667, 46.33333 ], [ -79.58333, 46.33333 ], [ -79.58333, 46.25 ], [ -79.54167, 46.20833 ], [ -79.54167, 46.125 ], [ -79.45833, 46.125 ], [ -79.41667, 46.04167 ], [ -79.125, 46.04167 ], [ -79.125, 46.0 ], [ -78.79167, 46.0 ], [ -78.70833, 45.91667 ], [ -78.5, 45.91667 ], [ -78.375, 45.79167 ], [ -78.375, 45.70833 ], [ -78.16667, 45.70833 ], [ -78.08333, 45.625 ], [ -78.125, 45.58333 ], [ -78.125, 45.45833 ], [ -78.04167, 45.45833 ], [ -78.0, 45.45833 ], [ -77.91667, 45.45833 ], [ -77.875, 45.5 ], [ -77.875, 45.58333 ], [ -77.75, 45.70833 ], [ -77.66667, 45.70833 ], [ -77.625, 45.79167 ], [ -77.45833, 45.79167 ], [ -77.41667, 45.79167 ], [ -77.375, 45.79167 ], [ -77.375, 45.70833 ], [ -77.08333, 45.70833 ], [ -77.08333, 45.66667 ], [ -76.875, 45.66667 ], [ -76.83333, 45.70833 ], [ -76.70833, 45.70833 ], [ -76.70833, 45.79167 ], [ -76.625, 45.79167 ], [ -76.625, 45.91667 ], [ -76.25, 45.91667 ], [ -76.33333, 45.875 ], [ -76.25, 45.83333 ], [ -76.20833, 45.75 ], [ -76.08333, 45.75 ], [ -76.08333, 45.70833 ], [ -76.04167, 45.75 ], [ -75.79167, 45.75 ], [ -75.70833, 45.66667 ], [ -75.58333, 45.66667 ], [ -75.58333, 45.70833 ], [ -75.45833, 45.70833 ], [ -75.375, 45.79167 ], [ -75.25, 45.79167 ], [ -75.16667, 45.875 ], [ -75.16667, 45.95833 ], [ -74.79167, 45.95833 ], [ -74.79167, 45.91667 ], [ -74.58333, 45.91667 ], [ -74.54167, 46.0 ], [ -74.45833, 46.08333 ], [ -74.41667, 46.16667 ], [ -74.41667, 46.33333 ], [ -74.375, 46.375 ], [ -74.04167, 46.375 ], [ -74.04167, 46.41667 ], [ -73.625, 46.41667 ], [ -73.625, 46.375 ], [ -73.41667, 46.375 ], [ -73.41667, 46.41667 ], [ -73.33333, 46.5 ], [ -73.20833, 46.5 ], [ -73.20833, 46.58333 ], [ -73.16667, 46.625 ], [ -73.08333, 46.625 ], [ -73.04167, 46.70833 ], [ -72.95833, 46.70833 ], [ -72.91667, 46.66667 ], [ -72.70833, 46.66667 ], [ -72.66667, 46.625 ], [ -72.66667, 46.54167 ], [ -72.625, 46.45833 ], [ -72.70833, 46.45833 ], [ -72.70833, 46.25 ], [ -72.66667, 46.16667 ], [ -72.45833, 46.16667 ], [ -72.41667, 46.125 ], [ -72.41667, 45.83333 ], [ -72.33333, 45.70833 ], [ -72.33333, 45.58333 ], [ -72.5, 45.58333 ], [ -72.54167, 45.66667 ], [ -72.625, 45.75 ], [ -72.66667, 45.70833 ], [ -72.875, 45.70833 ], [ -72.875, 45.66667 ], [ -73.0, 45.66667 ], [ -73.0, 45.625 ], [ -72.91667, 45.625 ], [ -72.875, 45.58333 ], [ -72.875, 45.5 ], [ -72.91667, 45.41667 ], [ -73.0, 45.45833 ], [ -73.04167, 45.45833 ], [ -73.125, 45.41667 ], [ -73.16667, 45.375 ], [ -73.375, 45.375 ], [ -73.375, 45.41667 ], [ -73.625, 45.41667 ], [ -73.625, 45.375 ], [ -73.75, 45.375 ], [ -73.79167, 45.33333 ], [ -73.83333, 45.29167 ], [ -73.875, 45.25 ], [ -73.91667, 45.16667 ], [ -73.95833, 45.16667 ], [ -74.0, 45.08333 ], [ -74.375, 45.08333 ], [ -74.41667, 45.04167 ], [ -74.54167, 45.04167 ], [ -74.625, 45.0 ], [ -74.625, 44.95833 ], [ -74.875, 44.95833 ], [ -74.875, 45.0 ], [ -75.25, 45.0 ], [ -75.29167, 45.08333 ], [ -75.45833, 45.08333 ], [ -75.54167, 45.125 ], [ -75.54167, 45.20833 ], [ -75.625, 45.375 ], [ -75.58333, 45.41667 ], [ -75.625, 45.45833 ], [ -75.75, 45.45833 ], [ -75.75, 45.41667 ], [ -75.95833, 45.41667 ], [ -75.95833, 45.5 ], [ -76.08333, 45.625 ], [ -76.33333, 45.625 ], [ -76.33333, 45.58333 ], [ -76.83333, 45.58333 ], [ -76.79167, 45.54167 ], [ -76.79167, 45.33333 ], [ -76.70833, 45.25 ], [ -76.54167, 45.16667 ], [ -76.41667, 45.16667 ], [ -76.41667, 45.125 ], [ -76.29167, 45.125 ], [ -76.29167, 45.08333 ], [ -76.0, 45.08333 ], [ -75.875, 45.0 ], [ -75.875, 44.91667 ], [ -75.79167, 44.91667 ], [ -75.79167, 44.75 ], [ -75.70833, 44.75 ], [ -75.58333, 44.625 ], [ -75.58333, 44.54167 ], [ -75.41667, 44.375 ], [ -75.375, 44.29167 ], [ -75.33333, 44.29167 ], [ -75.33333, 44.16667 ], [ -75.25, 44.125 ], [ -75.25, 43.95833 ], [ -75.16667, 43.95833 ], [ -75.08333, 43.875 ], [ -75.08333, 43.83333 ], [ -74.95833, 43.83333 ], [ -74.95833, 43.75 ], [ -74.625, 43.75 ], [ -74.625, 43.70833 ], [ -74.5, 43.70833 ], [ -74.45833, 43.66667 ], [ -74.33333, 43.66667 ], [ -74.25, 43.625 ], [ -74.125, 43.5 ], [ -74.125, 43.375 ], [ -74.16667, 43.33333 ], [ -74.29167, 43.33333 ], [ -74.5, 43.16667 ], [ -75.0, 43.16667 ], [ -75.04167, 43.125 ], [ -75.25, 43.125 ], [ -75.33333, 43.08333 ], [ -75.33333, 43.04167 ], [ -75.58333, 43.04167 ], [ -75.58333, 43.0 ], [ -75.875, 43.0 ], [ -75.91667, 42.91667 ], [ -76.04167, 42.91667 ], [ -76.04167, 42.79167 ], [ -76.125, 42.79167 ], [ -76.20833, 42.75 ], [ -76.20833, 42.70833 ], [ -76.41667, 42.70833 ], [ -76.45833, 42.75 ], [ -76.45833, 42.83333 ], [ -76.54167, 42.95833 ], [ -76.41667, 43.04167 ], [ -76.41667, 43.125 ], [ -76.5, 43.08333 ], [ -76.66667, 43.08333 ], [ -76.70833, 43.16667 ], [ -76.875, 43.16667 ], [ -77.04167, 43.08333 ], [ -77.20833, 43.08333 ], [ -77.20833, 43.0 ], [ -77.33333, 43.0 ], [ -77.33333, 43.08333 ], [ -77.41667, 43.125 ], [ -77.41667, 43.25 ], [ -77.66667, 43.25 ], [ -77.66667, 43.29167 ], [ -77.75, 43.33333 ], [ -77.875, 43.33333 ], [ -77.875, 43.29167 ], [ -78.0, 43.29167 ], [ -78.0, 43.375 ], [ -78.5, 43.375 ], [ -78.54167, 43.33333 ], [ -78.58333, 43.33333 ], [ -78.79167, 43.33333 ], [ -78.79167, 43.29167 ], [ -78.95833, 43.29167 ], [ -78.95833, 43.25 ], [ -79.16667, 43.25 ], [ -79.16667, 43.20833 ], [ -79.29167, 43.20833 ], [ -79.29167, 43.16667 ], [ -79.41667, 43.16667 ], [ -79.41667, 43.20833 ], [ -79.70833, 43.20833 ], [ -79.79167, 43.25 ], [ -79.79167, 43.375 ], [ -79.75, 43.375 ], [ -79.625, 43.5 ], [ -79.625, 43.58333 ], [ -79.5, 43.66667 ], [ -79.375, 43.66667 ], [ -79.375, 43.70833 ], [ -79.29167, 43.75 ], [ -79.20833, 43.75 ], [ -79.16667, 43.83333 ], [ -79.04167, 43.83333 ], [ -79.04167, 43.875 ], [ -79.125, 43.91667 ], [ -79.16667, 43.95833 ], [ -79.375, 43.95833 ], [ -79.375, 44.04167 ], [ -79.25, 44.125 ], [ -79.125, 44.125 ], [ -79.125, 44.08333 ], [ -79.0, 44.08333 ], [ -79.0, 44.04167 ], [ -78.95833, 44.04167 ], [ -78.875, 44.125 ], [ -78.875, 44.20833 ], [ -78.91667, 44.25 ], [ -79.0, 44.25 ], [ -79.04167, 44.33333 ], [ -79.16667, 44.33333 ], [ -79.16667, 44.375 ], [ -79.375, 44.375 ], [ -79.375, 44.41667 ], [ -79.45833, 44.45833 ], [ -79.66667, 44.45833 ], [ -79.75, 44.41667 ], [ -79.79167, 44.33333 ], [ -79.91667, 44.33333 ], [ -79.95833, 44.25 ], [ -79.91667, 44.16667 ], [ -80.125, 44.16667 ], [ -80.125, 44.125 ], [ -80.20833, 44.125 ], [ -80.25, 44.08333 ], [ -80.25, 44.0 ], [ -80.33333, 44.0 ], [ -80.41667, 43.95833 ], [ -80.45833, 43.875 ], [ -80.54167, 43.875 ], [ -80.58333, 43.83333 ], [ -80.58333, 43.70833 ], [ -80.66667, 43.625 ], [ -80.70833, 43.54167 ], [ -80.75, 43.54167 ], [ -80.75, 43.41667 ], [ -80.79167, 43.41667 ], [ -80.79167, 43.25 ], [ -80.83333, 43.16667 ], [ -80.875, 43.16667 ], [ -80.875, 43.0 ], [ -80.70833, 43.0 ], [ -80.70833, 43.04167 ], [ -80.5, 43.04167 ], [ -80.41667, 43.0 ], [ -80.41667, 42.95833 ], [ -80.25, 42.95833 ], [ -80.25, 42.91667 ], [ -80.125, 42.91667 ], [ -80.08333, 42.83333 ], [ -79.83333, 42.83333 ], [ -79.83333, 42.875 ], [ -79.5, 42.875 ], [ -79.5, 42.91667 ], [ -79.16667, 42.91667 ], [ -79.16667, 42.875 ], [ -79.04167, 42.875 ], [ -79.04167, 43.04167 ], [ -79.0, 43.08333 ], [ -78.875, 43.08333 ], [ -78.875, 42.875 ], [ -78.83333, 42.79167 ], [ -78.75, 42.79167 ], [ -78.75, 42.875 ], [ -78.79167, 42.95833 ], [ -78.625, 42.95833 ], [ -78.625, 43.0 ], [ -78.41667, 43.0 ], [ -78.41667, 42.91667 ], [ -78.375, 42.875 ], [ -78.29167, 42.875 ], [ -78.29167, 42.79167 ], [ -78.20833, 42.79167 ], [ -78.20833, 42.70833 ], [ -78.25, 42.66667 ], [ -78.33333, 42.66667 ], [ -78.58333, 42.54167 ], [ -78.58333, 42.45833 ], [ -78.66667, 42.45833 ], [ -78.75, 42.41667 ], [ -78.75, 42.375 ], [ -78.875, 42.375 ], [ -78.95833, 42.29167 ], [ -78.95833, 42.25 ], [ -79.125, 42.25 ], [ -79.20833, 42.20833 ], [ -79.20833, 42.16667 ], [ -79.375, 42.16667 ], [ -79.5, 42.29167 ], [ -79.5, 42.33333 ], [ -79.625, 42.33333 ], [ -79.79167, 42.25 ], [ -79.79167, 42.20833 ], [ -79.91667, 42.20833 ], [ -80.0, 42.16667 ], [ -80.0, 42.125 ], [ -80.125, 42.125 ], [ -80.20833, 42.08333 ], [ -80.20833, 42.04167 ], [ -80.33333, 42.04167 ], [ -80.33333, 42.0 ], [ -80.45833, 42.0 ], [ -80.45833, 41.95833 ], [ -80.625, 41.95833 ], [ -80.625, 41.91667 ], [ -80.75, 41.91667 ], [ -80.75, 41.875 ], [ -80.875, 41.875 ], [ -80.875, 41.83333 ], [ -81.04167, 41.83333 ], [ -81.04167, 41.79167 ], [ -81.16667, 41.79167 ], [ -81.16667, 41.75 ], [ -81.29167, 41.75 ], [ -81.375, 41.70833 ], [ -81.41667, 41.625 ], [ -81.5, 41.625 ], [ -81.54167, 41.54167 ], [ -81.625, 41.54167 ], [ -81.70833, 41.5 ], [ -81.70833, 41.45833 ], [ -81.95833, 41.45833 ], [ -81.95833, 41.5 ], [ -82.08333, 41.5 ], [ -82.08333, 41.45833 ], [ -82.20833, 41.45833 ], [ -82.20833, 41.41667 ], [ -82.375, 41.41667 ], [ -82.375, 41.375 ], [ -82.58333, 41.375 ], [ -82.58333, 41.41667 ], [ -82.66667, 41.45833 ], [ -82.83333, 41.45833 ], [ -82.83333, 41.41667 ], [ -83.0, 41.41667 ], [ -83.0, 41.45833 ], [ -83.08333, 41.5 ], [ -83.0, 41.54167 ], [ -83.25, 41.66667 ], [ -83.41667, 41.66667 ], [ -83.5, 41.70833 ], [ -83.45833, 41.79167 ], [ -83.20833, 42.04167 ], [ -83.20833, 42.16667 ], [ -83.16667, 42.16667 ], [ -83.16667, 42.29167 ], [ -83.08333, 42.375 ], [ -82.95833, 42.375 ], [ -82.91667, 42.41667 ], [ -82.91667, 42.54167 ], [ -82.83333, 42.58333 ], [ -82.83333, 42.66667 ], [ -82.79167, 42.70833 ], [ -82.625, 42.70833 ], [ -82.58333, 42.625 ], [ -82.58333, 42.54167 ], [ -82.41667, 42.54167 ], [ -82.375, 42.45833 ], [ -82.375, 42.375 ], [ -82.45833, 42.29167 ], [ -83.08333, 42.29167 ], [ -83.08333, 42.08333 ], [ -83.04167, 42.04167 ], [ -82.54167, 42.04167 ], [ -82.41667, 42.16667 ], [ -82.29167, 42.16667 ], [ -82.29167, 42.20833 ], [ -82.125, 42.29167 ], [ -81.91667, 42.29167 ], [ -81.83333, 42.33333 ], [ -81.83333, 42.41667 ], [ -81.79167, 42.45833 ], [ -81.70833, 42.45833 ], [ -81.66667, 42.54167 ], [ -81.5, 42.625 ], [ -81.625, 42.70833 ], [ -81.625, 42.79167 ], [ -81.70833, 42.79167 ], [ -81.75, 42.875 ], [ -81.75, 43.20833 ], [ -81.70833, 43.29167 ], [ -81.83333, 43.29167 ], [ -81.875, 43.20833 ], [ -82.0, 43.20833 ], [ -82.08333, 43.125 ], [ -82.16667, 43.08333 ], [ -82.16667, 43.04167 ], [ -82.29167, 43.04167 ], [ -82.29167, 43.0 ], [ -82.45833, 43.0 ], [ -82.54167, 43.16667 ], [ -82.54167, 43.41667 ], [ -82.58333, 43.41667 ], [ -82.58333, 43.54167 ], [ -82.625, 43.54167 ], [ -82.625, 43.75 ], [ -82.70833, 43.91667 ], [ -82.79167, 44.0 ], [ -82.875, 44.04167 ], [ -83.04167, 44.04167 ], [ -83.125, 44.0 ], [ -83.125, 43.95833 ], [ -83.25, 43.95833 ], [ -83.33333, 43.91667 ], [ -83.33333, 43.83333 ], [ -83.41667, 43.75 ], [ -83.45833, 43.66667 ], [ -83.58333, 43.66667 ], [ -83.625, 43.58333 ], [ -83.75, 43.58333 ], [ -83.75, 43.625 ], [ -83.875, 43.625 ], [ -83.95833, 43.66667 ], [ -83.95833, 43.91667 ], [ -83.91667, 44.0 ], [ -83.83333, 44.04167 ], [ -83.70833, 44.04167 ], [ -83.58333, 44.125 ], [ -83.58333, 44.25 ], [ -83.45833, 44.33333 ], [ -83.375, 44.33333 ], [ -83.33333, 44.375 ], [ -83.33333, 44.875 ], [ -83.41667, 44.875 ], [ -83.45833, 44.91667 ], [ -83.45833, 45.08333 ], [ -83.33333, 45.08333 ], [ -83.33333, 45.16667 ], [ -83.41667, 45.16667 ], [ -83.41667, 45.29167 ], [ -83.45833, 45.33333 ], [ -83.625, 45.33333 ], [ -83.625, 45.375 ], [ -83.70833, 45.41667 ], [ -83.875, 45.41667 ], [ -83.875, 45.45833 ], [ -83.95833, 45.5 ], [ -84.16667, 45.5 ], [ -84.16667, 45.58333 ], [ -84.29167, 45.66667 ], [ -84.54167, 45.66667 ], [ -84.54167, 45.70833 ], [ -84.625, 45.75 ], [ -84.91667, 45.75 ], [ -85.0, 45.66667 ], [ -85.08333, 45.625 ], [ -85.08333, 45.5 ], [ -85.04167, 45.45833 ], [ -84.875, 45.45833 ], [ -84.91667, 45.375 ], [ -85.16667, 45.375 ], [ -85.16667, 45.33333 ], [ -85.29167, 45.33333 ], [ -85.375, 45.25 ], [ -85.375, 44.91667 ], [ -85.45833, 44.875 ], [ -85.45833, 44.79167 ], [ -85.5, 44.75 ], [ -85.625, 44.75 ], [ -85.66667, 44.79167 ], [ -85.66667, 45.08333 ], [ -85.75, 45.0 ], [ -85.79167, 44.91667 ], [ -86.04167, 44.91667 ], [ -86.08333, 44.83333 ], [ -86.08333, 44.70833 ], [ -86.20833, 44.66667 ], [ -86.20833, 44.5 ], [ -86.25, 44.5 ], [ -86.25, 44.33333 ], [ -86.29167, 44.25 ], [ -86.375, 44.20833 ], [ -86.375, 44.125 ], [ -86.45833, 44.125 ], [ -86.5, 44.08333 ], [ -86.41667, 44.0 ], [ -86.41667, 43.75 ], [ -86.5, 43.625 ], [ -86.375, 43.375 ], [ -86.375, 43.29167 ], [ -86.25, 43.29167 ], [ -86.25, 43.04167 ], [ -86.20833, 43.04167 ], [ -86.20833, 42.58333 ], [ -86.25, 42.58333 ], [ -86.25, 42.41667 ], [ -86.33333, 42.25 ], [ -86.41667, 42.16667 ], [ -86.45833, 42.08333 ], [ -86.54167, 42.04167 ], [ -86.54167, 41.95833 ], [ -86.625, 41.91667 ], [ -86.625, 41.83333 ], [ -86.70833, 41.83333 ], [ -86.75, 41.75 ], [ -86.83333, 41.70833 ], [ -86.95833, 41.70833 ], [ -86.95833, 41.66667 ], [ -87.08333, 41.66667 ], [ -87.08333, 41.625 ], [ -87.45833, 41.625 ], [ -87.625, 41.79167 ], [ -87.66667, 41.875 ], [ -87.66667, 42.04167 ], [ -87.70833, 42.04167 ], [ -87.83333, 42.16667 ], [ -87.83333, 42.70833 ], [ -87.79167, 42.79167 ], [ -87.875, 42.83333 ], [ -87.875, 43.0 ], [ -87.91667, 43.0 ], [ -87.91667, 43.375 ], [ -87.875, 43.375 ], [ -87.83333, 43.45833 ], [ -87.83333, 43.58333 ], [ -87.79167, 43.66667 ], [ -87.70833, 43.70833 ], [ -87.75, 43.79167 ], [ -87.75, 43.95833 ], [ -87.70833, 43.95833 ], [ -87.70833, 44.08333 ], [ -87.625, 44.16667 ], [ -87.54167, 44.16667 ], [ -87.54167, 44.45833 ], [ -87.5, 44.45833 ], [ -87.5, 44.58333 ], [ -87.41667, 44.625 ], [ -87.41667, 44.70833 ], [ -87.375, 44.79167 ], [ -87.41667, 44.83333 ], [ -87.625, 44.83333 ], [ -87.70833, 44.75 ], [ -87.70833, 44.66667 ], [ -87.75, 44.625 ], [ -87.83333, 44.625 ], [ -87.875, 44.54167 ], [ -88.04167, 44.54167 ], [ -88.04167, 44.66667 ], [ -87.95833, 44.83333 ], [ -87.875, 44.875 ], [ -87.875, 44.95833 ], [ -87.79167, 45.0 ], [ -87.66667, 45.0 ], [ -87.625, 45.08333 ], [ -87.625, 45.20833 ], [ -87.54167, 45.20833 ], [ -87.5, 45.29167 ], [ -87.33333, 45.45833 ], [ -87.29167, 45.54167 ], [ -87.20833, 45.625 ], [ -87.20833, 45.70833 ], [ -87.125, 45.70833 ], [ -87.08333, 45.75 ], [ -87.08333, 45.875 ], [ -87.04167, 45.875 ], [ -86.95833, 45.95833 ], [ -86.95833, 45.75 ], [ -86.875, 45.79167 ], [ -86.79167, 45.875 ], [ -86.625, 45.875 ], [ -86.54167, 45.91667 ], [ -86.5, 45.875 ], [ -86.54167, 45.79167 ], [ -86.45833, 45.79167 ], [ -86.33333, 45.875 ], [ -86.33333, 45.95833 ], [ -86.20833, 45.95833 ], [ -86.20833, 46.0 ], [ -85.66667, 46.0 ], [ -85.66667, 46.04167 ], [ -85.58333, 46.125 ], [ -85.25, 46.125 ], [ -85.25, 46.08333 ], [ -85.08333, 46.08333 ], [ -85.08333, 46.04167 ], [ -84.95833, 46.04167 ], [ -84.91667, 45.95833 ], [ -84.83333, 45.95833 ], [ -84.75, 45.875 ], [ -84.75, 46.0 ], [ -84.70833, 46.08333 ], [ -84.54167, 46.08333 ], [ -84.54167, 46.04167 ], [ -84.29167, 46.04167 ], [ -84.29167, 46.0 ], [ -83.95833, 46.0 ], [ -83.95833, 46.04167 ], [ -84.04167, 46.08333 ], [ -84.125, 46.16667 ], [ -84.29167, 46.16667 ], [ -84.29167, 46.25 ], [ -84.5, 46.25 ], [ -84.54167, 46.29167 ], [ -84.54167, 46.375 ], [ -84.625, 46.375 ], [ -84.625, 46.45833 ], [ -85.04167, 46.45833 ], [ -85.04167, 46.75 ], [ -85.29167, 46.75 ], [ -85.29167, 46.70833 ], [ -85.41667, 46.70833 ], [ -85.41667, 46.66667 ], [ -86.16667, 46.66667 ], [ -86.25, 46.625 ], [ -86.25, 46.58333 ], [ -86.375, 46.58333 ], [ -86.375, 46.54167 ], [ -86.5, 46.54167 ], [ -86.58333, 46.45833 ], [ -86.95833, 46.45833 ], [ -86.95833, 46.5 ], [ -87.41667, 46.5 ], [ -87.41667, 46.58333 ], [ -87.625, 46.79167 ], [ -87.70833, 46.79167 ], [ -87.75, 46.875 ], [ -87.875, 46.875 ], [ -87.875, 46.91667 ], [ -88.16667, 46.91667 ], [ -88.20833, 46.83333 ], [ -88.33333, 46.83333 ], [ -88.41667, 46.75 ], [ -88.5, 46.75 ], [ -88.5, 46.91667 ], [ -88.45833, 47.0 ], [ -88.58333, 47.125 ], [ -88.66667, 47.16667 ], [ -88.79167, 47.16667 ], [ -88.91667, 47.04167 ], [ -88.91667, 47.0 ], [ -89.125, 47.0 ], [ -89.16667, 46.91667 ], [ -89.33333, 46.83333 ], [ -89.75, 46.83333 ], [ -89.75, 46.79167 ], [ -89.875, 46.79167 ], [ -89.91667, 46.70833 ], [ -90.0, 46.66667 ], [ -90.125, 46.66667 ], [ -90.125, 46.625 ], [ -90.25, 46.625 ], [ -90.25, 46.58333 ], [ -90.625, 46.58333 ], [ -90.625, 46.625 ], [ -90.79167, 46.625 ], [ -90.79167, 46.58333 ], [ -90.95833, 46.58333 ], [ -90.95833, 46.66667 ], [ -90.875, 46.70833 ], [ -90.875, 46.83333 ], [ -90.79167, 46.91667 ], [ -91.04167, 46.91667 ], [ -91.08333, 46.83333 ], [ -91.29167, 46.83333 ], [ -91.375, 46.79167 ], [ -91.375, 46.75 ], [ -91.625, 46.75 ], [ -91.625, 46.70833 ], [ -91.79167, 46.70833 ], [ -91.79167, 46.66667 ], [ -92.04167, 46.66667 ], [ -92.125, 46.70833 ], [ -92.125, 46.83333 ], [ -92.08333, 46.875 ], [ -91.95833, 46.875 ], [ -91.79167, 46.95833 ], [ -91.75, 47.04167 ], [ -91.66667, 47.04167 ], [ -91.625, 47.125 ], [ -91.45833, 47.20833 ], [ -91.375, 47.29167 ], [ -91.29167, 47.29167 ], [ -91.25, 47.375 ], [ -91.16667, 47.41667 ], [ -91.08333, 47.5 ], [ -91.0, 47.5 ], [ -90.91667, 47.54167 ], [ -90.875, 47.625 ], [ -90.79167, 47.66667 ], [ -90.66667, 47.66667 ], [ -90.66667, 47.70833 ], [ -90.54167, 47.70833 ], [ -90.54167, 47.75 ], [ -90.33333, 47.75 ], [ -90.33333, 47.79167 ], [ -90.16667, 47.79167 ], [ -90.16667, 47.83333 ], [ -90.04167, 47.83333 ], [ -90.04167, 47.875 ], [ -89.91667, 47.875 ], [ -89.91667, 47.91667 ], [ -89.79167, 47.91667 ], [ -89.79167, 47.95833 ], [ -89.70833, 48.0 ], [ -89.58333, 48.0 ], [ -89.54167, 48.08333 ], [ -89.45833, 48.08333 ], [ -89.33333, 48.16667 ], [ -89.33333, 48.25 ], [ -89.25, 48.29167 ], [ -89.25, 48.45833 ], [ -89.20833, 48.5 ], [ -89.08333, 48.5 ], [ -89.08333, 48.54167 ], [ -88.91667, 48.54167 ], [ -88.91667, 48.58333 ], [ -88.79167, 48.58333 ], [ -88.75, 48.5 ], [ -88.83333, 48.45833 ], [ -88.83333, 48.375 ], [ -88.75, 48.375 ], [ -88.75, 48.45833 ], [ -88.66667, 48.625 ], [ -88.54167, 48.75 ], [ -88.58333, 48.79167 ], [ -88.5, 48.875 ], [ -88.29167, 48.875 ], [ -88.29167, 48.91667 ], [ -88.375, 48.95833 ] ], [ [ -79.20833, 48.125 ], [ -79.08333, 48.125 ], [ -79.08333, 48.04167 ], [ -79.16667, 48.0 ], [ -79.25, 48.0 ], [ -79.20833, 48.125 ] ], [ [ -79.16667, 47.95833 ], [ -79.125, 47.875 ], [ -79.20833, 47.875 ], [ -79.16667, 47.95833 ] ], [ [ -77.20833, 47.95833 ], [ -77.08333, 47.95833 ], [ -77.08333, 47.91667 ], [ -77.20833, 47.91667 ], [ -77.20833, 47.95833 ] ], [ [ -76.79167, 47.95833 ], [ -76.70833, 47.95833 ], [ -76.70833, 47.875 ], [ -76.79167, 47.875 ], [ -76.79167, 47.95833 ] ], [ [ -69.125, 47.91667 ], [ -69.04167, 47.91667 ], [ -69.0, 47.875 ], [ -68.91667, 47.875 ], [ -68.91667, 47.75 ], [ -69.0, 47.70833 ], [ -69.0, 47.625 ], [ -69.04167, 47.58333 ], [ -69.125, 47.58333 ], [ -69.16667, 47.625 ], [ -69.16667, 47.70833 ], [ -69.08333, 47.70833 ], [ -69.08333, 47.83333 ], [ -69.16667, 47.83333 ], [ -69.125, 47.91667 ] ], [ [ -77.375, 47.875 ], [ -77.25, 47.875 ], [ -77.25, 47.75 ], [ -77.375, 47.875 ] ], [ [ -79.25, 47.5 ], [ -79.125, 47.5 ], [ -79.16667, 47.375 ], [ -79.25, 47.375 ], [ -79.25, 47.20833 ], [ -79.375, 47.20833 ], [ -79.45833, 47.29167 ], [ -79.45833, 47.16667 ], [ -79.5, 47.125 ], [ -79.83333, 47.125 ], [ -80.0, 47.16667 ], [ -80.125, 47.16667 ], [ -80.125, 47.20833 ], [ -80.20833, 47.25 ], [ -80.04167, 47.41667 ], [ -79.95833, 47.375 ], [ -79.83333, 47.375 ], [ -79.875, 47.45833 ], [ -79.79167, 47.54167 ], [ -79.79167, 47.625 ], [ -79.58333, 47.625 ], [ -79.58333, 47.70833 ], [ -79.5, 47.79167 ], [ -79.29167, 47.79167 ], [ -79.20833, 47.79167 ], [ -79.16667, 47.70833 ], [ -79.25, 47.66667 ], [ -79.29167, 47.66667 ], [ -79.29167, 47.54167 ], [ -79.25, 47.5 ] ], [ [ -66.91667, 47.70833 ], [ -66.875, 47.70833 ], [ -66.875, 47.58333 ], [ -66.91667, 47.58333 ], [ -66.91667, 47.70833 ] ], [ [ -70.70833, 47.45833 ], [ -70.70833, 47.33333 ], [ -70.79167, 47.25 ], [ -70.875, 47.20833 ], [ -70.875, 47.04167 ], [ -70.91667, 47.04167 ], [ -70.91667, 46.91667 ], [ -71.58333, 46.91667 ], [ -71.625, 46.83333 ], [ -71.70833, 46.79167 ], [ -71.91667, 46.79167 ], [ -71.91667, 46.83333 ], [ -72.08333, 46.83333 ], [ -72.125, 46.875 ], [ -72.125, 46.95833 ], [ -72.16667, 47.04167 ], [ -72.125, 47.08333 ], [ -72.125, 47.25 ], [ -72.08333, 47.29167 ], [ -71.95833, 47.29167 ], [ -71.91667, 47.375 ], [ -71.83333, 47.375 ], [ -71.79167, 47.45833 ], [ -71.54167, 47.58333 ], [ -71.41667, 47.58333 ], [ -71.41667, 47.625 ], [ -71.25, 47.625 ], [ -71.25, 47.66667 ], [ -70.95833, 47.66667 ], [ -70.875, 47.625 ], [ -70.70833, 47.45833 ] ], [ [ -79.16667, 47.625 ], [ -79.125, 47.58333 ], [ -79.0, 47.58333 ], [ -78.91667, 47.54167 ], [ -78.91667, 47.33333 ], [ -79.0, 47.375 ], [ -79.08333, 47.45833 ], [ -79.08333, 47.54167 ], [ -79.16667, 47.54167 ], [ -79.16667, 47.625 ] ], [ [ -68.04167, 47.25 ], [ -68.20833, 47.25 ], [ -68.20833, 47.16667 ], [ -68.33333, 47.16667 ], [ -68.41667, 47.25 ], [ -68.41667, 47.375 ], [ -68.45833, 47.45833 ], [ -68.29167, 47.45833 ], [ -68.20833, 47.5 ], [ -68.16667, 47.41667 ], [ -68.08333, 47.41667 ], [ -68.04167, 47.375 ], [ -68.04167, 47.25 ] ], [ [ -75.5, 46.625 ], [ -75.5, 46.58333 ], [ -75.54167, 46.58333 ], [ -75.54167, 46.625 ], [ -75.5, 46.625 ] ], [ [ -75.54167, 46.625 ], [ -75.625, 46.66667 ], [ -75.54167, 46.66667 ], [ -75.54167, 46.625 ] ], [ [ -75.54167, 46.66667 ], [ -75.58333, 46.75 ], [ -75.66667, 46.79167 ], [ -75.41667, 46.79167 ], [ -75.41667, 46.875 ], [ -75.33333, 46.875 ], [ -75.33333, 46.70833 ], [ -75.5, 46.70833 ], [ -75.5, 46.66667 ], [ -75.54167, 46.66667 ] ], [ [ -72.29167, 46.58333 ], [ -72.20833, 46.58333 ], [ -72.20833, 46.5 ], [ -72.29167, 46.5 ], [ -72.29167, 46.58333 ] ], [ [ -87.125, 46.41667 ], [ -86.95833, 46.41667 ], [ -86.875, 46.33333 ], [ -86.91667, 46.29167 ], [ -86.91667, 46.20833 ], [ -87.0, 46.20833 ], [ -87.04167, 46.25 ], [ -87.04167, 46.33333 ], [ -87.125, 46.33333 ], [ -87.125, 46.41667 ] ], [ [ -95.58333, 45.58333 ], [ -95.54167, 45.54167 ], [ -95.41667, 45.54167 ], [ -95.33333, 45.45833 ], [ -95.29167, 45.375 ], [ -95.33333, 45.29167 ], [ -95.33333, 45.16667 ], [ -95.45833, 45.08333 ], [ -95.625, 45.08333 ], [ -95.70833, 45.125 ], [ -95.79167, 45.25 ], [ -95.79167, 45.45833 ], [ -95.75, 45.5 ], [ -95.58333, 45.58333 ] ], [ [ -79.79167, 44.33333 ], [ -79.58333, 44.33333 ], [ -79.625, 44.25 ], [ -79.83333, 44.25 ], [ -79.79167, 44.33333 ] ], [ [ -79.375, 44.29167 ], [ -79.29167, 44.25 ], [ -79.29167, 44.125 ], [ -79.41667, 44.125 ], [ -79.41667, 44.25 ], [ -79.375, 44.29167 ] ], [ [ -78.58333, 43.16667 ], [ -78.5, 43.08333 ], [ -78.625, 43.08333 ], [ -78.58333, 43.16667 ] ], [ [ -96.95833, 43.125 ], [ -96.875, 43.125 ], [ -96.875, 43.0 ], [ -96.95833, 43.0 ], [ -96.95833, 43.125 ] ], [ [ -77.16667, 42.91667 ], [ -77.08333, 42.83333 ], [ -77.16667, 42.83333 ], [ -77.16667, 42.91667 ] ], [ [ -75.75, 42.79167 ], [ -75.625, 42.79167 ], [ -75.54167, 42.66667 ], [ -75.54167, 42.5 ], [ -75.58333, 42.45833 ], [ -75.70833, 42.45833 ], [ -75.79167, 42.5 ], [ -75.79167, 42.75 ], [ -75.75, 42.79167 ] ], [ [ -75.20833, 42.70833 ], [ -75.16667, 42.75 ], [ -75.04167, 42.75 ], [ -75.08333, 42.66667 ], [ -75.08333, 42.58333 ], [ -75.25, 42.58333 ], [ -75.375, 42.45833 ], [ -75.45833, 42.5 ], [ -75.5, 42.625 ], [ -75.45833, 42.625 ], [ -75.41667, 42.70833 ], [ -75.33333, 42.625 ], [ -75.20833, 42.70833 ] ], [ [ -74.79167, 42.0 ], [ -74.70833, 42.0 ], [ -74.70833, 42.08333 ], [ -74.625, 42.08333 ], [ -74.54167, 42.16667 ], [ -74.54167, 42.25 ], [ -74.45833, 42.29167 ], [ -74.375, 42.29167 ], [ -74.33333, 42.375 ], [ -74.375, 42.45833 ], [ -74.29167, 42.54167 ], [ -74.125, 42.54167 ], [ -74.125, 42.45833 ], [ -74.20833, 42.41667 ], [ -74.16667, 42.33333 ], [ -74.08333, 42.33333 ], [ -74.04167, 42.25 ], [ -74.04167, 42.125 ], [ -74.08333, 42.08333 ], [ -74.20833, 42.08333 ], [ -74.29167, 42.04167 ], [ -74.33333, 42.0 ], [ -74.33333, 41.875 ], [ -74.58333, 41.875 ], [ -74.58333, 41.70833 ], [ -74.625, 41.70833 ], [ -74.625, 41.58333 ], [ -74.75, 41.375 ], [ -75.125, 41.375 ], [ -75.125, 41.29167 ], [ -75.20833, 41.33333 ], [ -75.375, 41.5 ], [ -75.45833, 41.5 ], [ -75.5, 41.45833 ], [ -75.5, 41.58333 ], [ -75.58333, 41.625 ], [ -75.58333, 41.70833 ], [ -75.625, 41.75 ], [ -75.58333, 41.79167 ], [ -75.66667, 41.83333 ], [ -75.66667, 41.91667 ], [ -75.54167, 41.91667 ], [ -75.5, 42.0 ], [ -75.54167, 42.04167 ], [ -75.41667, 42.04167 ], [ -75.33333, 42.0 ], [ -75.33333, 42.08333 ], [ -75.25, 42.125 ], [ -75.125, 42.125 ], [ -75.125, 42.04167 ], [ -74.875, 42.04167 ], [ -74.91667, 41.95833 ], [ -74.79167, 41.95833 ], [ -74.79167, 42.0 ] ], [ [ -79.54167, 42.25 ], [ -79.45833, 42.16667 ], [ -79.45833, 42.125 ], [ -79.66667, 42.125 ], [ -79.70833, 42.20833 ], [ -79.66667, 42.25 ], [ -79.54167, 42.25 ] ], [ [ -77.45833, 41.83333 ], [ -77.5, 41.79167 ], [ -77.75, 41.79167 ], [ -77.75, 41.70833 ], [ -77.91667, 41.70833 ], [ -77.95833, 41.79167 ], [ -77.95833, 41.95833 ], [ -77.875, 42.0 ], [ -77.875, 42.04167 ], [ -77.70833, 42.04167 ], [ -77.625, 42.08333 ], [ -77.625, 41.95833 ], [ -77.58333, 41.95833 ], [ -77.58333, 41.91667 ], [ -77.45833, 41.83333 ] ], [ [ -74.33333, 41.75 ], [ -74.29167, 41.66667 ], [ -74.375, 41.66667 ], [ -74.33333, 41.75 ] ], [ [ -81.20833, 41.70833 ], [ -81.04167, 41.70833 ], [ -81.04167, 41.66667 ], [ -81.16667, 41.66667 ], [ -81.20833, 41.70833 ] ], [ [ -75.95833, 41.04167 ], [ -75.83333, 41.04167 ], [ -75.83333, 40.95833 ], [ -75.91667, 40.91667 ], [ -75.91667, 41.0 ], [ -75.95833, 41.04167 ] ], [ [ -85.45833, 40.66667 ], [ -85.54167, 40.75 ], [ -85.66667, 40.75 ], [ -85.75, 40.79167 ], [ -85.70833, 40.875 ], [ -85.58333, 40.875 ], [ -85.58333, 40.95833 ], [ -85.29167, 40.95833 ], [ -85.29167, 40.75 ], [ -85.375, 40.66667 ], [ -85.41667, 40.66667 ], [ -85.45833, 40.66667 ] ], [ [ -84.54167, 40.79167 ], [ -84.5, 40.70833 ], [ -84.58333, 40.70833 ], [ -84.54167, 40.79167 ] ], [ [ -83.875, 40.79167 ], [ -83.83333, 40.75 ], [ -83.875, 40.66667 ], [ -83.83333, 40.58333 ], [ -83.70833, 40.58333 ], [ -83.70833, 40.54167 ], [ -83.91667, 40.54167 ], [ -83.91667, 40.45833 ], [ -84.04167, 40.45833 ], [ -84.04167, 40.58333 ], [ -84.0, 40.66667 ], [ -83.875, 40.79167 ] ], [ [ -93.16667, 40.29167 ], [ -93.125, 40.25 ], [ -93.04167, 40.25 ], [ -93.0, 40.20833 ], [ -93.0, 40.08333 ], [ -93.20833, 40.08333 ], [ -93.20833, 40.25 ], [ -93.16667, 40.29167 ] ], [ [ -79.125, 40.08333 ], [ -79.04167, 40.08333 ], [ -78.95833, 40.04167 ], [ -78.875, 39.95833 ], [ -78.79167, 39.95833 ], [ -78.70833, 39.91667 ], [ -78.79167, 39.875 ], [ -78.66667, 39.75 ], [ -78.70833, 39.66667 ], [ -78.83333, 39.66667 ], [ -78.83333, 39.625 ], [ -78.95833, 39.625 ], [ -78.95833, 39.70833 ], [ -78.91667, 39.75 ], [ -79.125, 39.75 ], [ -79.125, 39.83333 ], [ -79.16667, 39.875 ], [ -79.16667, 40.04167 ], [ -79.125, 40.08333 ] ], [ [ -76.91667, 39.45833 ], [ -76.70833, 39.45833 ], [ -76.70833, 39.375 ], [ -76.625, 39.375 ], [ -76.54167, 39.29167 ], [ -76.54167, 39.20833 ], [ -76.58333, 39.16667 ], [ -76.83333, 39.16667 ], [ -76.91667, 39.20833 ], [ -77.0, 39.20833 ], [ -77.0, 39.375 ], [ -76.91667, 39.375 ], [ -76.91667, 39.45833 ] ], [ [ -76.375, 39.0 ], [ -76.41667, 39.04167 ], [ -76.41667, 39.20833 ], [ -76.33333, 39.20833 ], [ -76.29167, 39.125 ], [ -76.25, 39.125 ], [ -76.25, 39.0 ], [ -76.375, 39.0 ] ], [ [ -78.45833, 38.45833 ], [ -78.45833, 38.375 ], [ -78.54167, 38.33333 ], [ -78.54167, 38.41667 ], [ -78.45833, 38.45833 ] ], [ [ -76.95833, 38.29167 ], [ -76.83333, 38.20833 ], [ -76.95833, 38.20833 ], [ -76.95833, 38.29167 ] ], [ [ -76.83333, 38.20833 ], [ -76.58333, 38.20833 ], [ -76.58333, 38.16667 ], [ -76.83333, 38.16667 ], [ -76.83333, 38.20833 ] ], [ [ -79.08333, 38.0 ], [ -79.04167, 37.95833 ], [ -78.91667, 37.95833 ], [ -78.91667, 37.875 ], [ -79.04167, 37.79167 ], [ -79.125, 37.79167 ], [ -79.16667, 37.70833 ], [ -79.25, 37.70833 ], [ -79.25, 37.79167 ], [ -79.20833, 37.875 ], [ -79.08333, 38.0 ] ], [ [ -83.20833, 37.66667 ], [ -83.375, 37.66667 ], [ -83.33333, 37.75 ], [ -83.41667, 37.83333 ], [ -83.20833, 37.83333 ], [ -83.16667, 37.79167 ], [ -83.125, 37.70833 ], [ -83.20833, 37.66667 ] ], [ [ -80.25, 37.375 ], [ -80.33333, 37.375 ], [ -80.29167, 37.45833 ], [ -80.16667, 37.45833 ], [ -80.25, 37.41667 ], [ -80.25, 37.375 ] ], [ [ -80.5, 37.41667 ], [ -80.5, 37.33333 ], [ -80.58333, 37.33333 ], [ -80.625, 37.41667 ], [ -80.5, 37.41667 ] ], [ [ -79.54167, 37.20833 ], [ -79.41667, 37.20833 ], [ -79.41667, 37.16667 ], [ -79.29167, 37.16667 ], [ -79.29167, 37.08333 ], [ -79.20833, 37.08333 ], [ -79.20833, 37.0 ], [ -79.25, 36.95833 ], [ -79.25, 36.875 ], [ -79.33333, 36.875 ], [ -79.375, 36.79167 ], [ -79.45833, 36.83333 ], [ -79.54167, 36.83333 ], [ -79.625, 36.875 ], [ -79.625, 37.125 ], [ -79.54167, 37.16667 ], [ -79.54167, 37.20833 ] ], [ [ -82.95833, 37.04167 ], [ -83.0, 37.125 ], [ -82.875, 37.125 ], [ -82.875, 37.04167 ], [ -82.95833, 37.04167 ] ], [ [ -82.95833, 37.04167 ], [ -82.91667, 36.95833 ], [ -83.04167, 36.95833 ], [ -82.95833, 37.04167 ] ], [ [ -79.95833, 36.91667 ], [ -79.91667, 36.91667 ], [ -79.91667, 37.04167 ], [ -79.875, 37.04167 ], [ -79.875, 36.875 ], [ -79.95833, 36.91667 ] ], [ [ -79.54167, 36.75 ], [ -79.45833, 36.75 ], [ -79.45833, 36.66667 ], [ -79.625, 36.66667 ], [ -79.625, 36.70833 ], [ -79.54167, 36.75 ] ], [ [ -75.75, 36.16667 ], [ -75.75, 36.0 ], [ -76.29167, 36.0 ], [ -76.375, 35.95833 ], [ -76.41667, 36.04167 ], [ -76.375, 36.08333 ], [ -76.16667, 36.08333 ], [ -76.16667, 36.125 ], [ -76.04167, 36.125 ], [ -76.04167, 36.16667 ], [ -75.875, 36.16667 ], [ -75.875, 36.08333 ], [ -75.79167, 36.04167 ], [ -75.79167, 36.16667 ], [ -75.75, 36.16667 ] ], [ [ -79.25, 35.75 ], [ -79.25, 35.83333 ], [ -79.29167, 35.875 ], [ -79.25, 35.91667 ], [ -79.29167, 35.95833 ], [ -79.125, 36.125 ], [ -79.04167, 36.08333 ], [ -78.91667, 36.08333 ], [ -78.91667, 36.0 ], [ -78.83333, 36.0 ], [ -78.875, 35.91667 ], [ -78.875, 35.75 ], [ -79.04167, 35.75 ], [ -79.08333, 35.66667 ], [ -79.16667, 35.66667 ], [ -79.25, 35.75 ] ], [ [ -76.66667, 36.0 ], [ -76.5, 36.0 ], [ -76.5, 35.95833 ], [ -76.66667, 35.95833 ], [ -76.66667, 36.0 ] ], [ [ -76.04167, 35.875 ], [ -76.0, 35.875 ], [ -76.0, 35.70833 ], [ -76.04167, 35.70833 ], [ -76.04167, 35.875 ] ] ], [ [ [ -88.04167, 48.83333 ], [ -88.0, 48.79167 ], [ -87.83333, 48.79167 ], [ -87.83333, 48.83333 ], [ -88.04167, 48.83333 ] ] ], [ [ [ -88.16667, 48.70833 ], [ -88.33333, 48.70833 ], [ -88.33333, 48.66667 ], [ -88.16667, 48.66667 ], [ -88.16667, 48.70833 ] ] ], [ [ [ -86.0, 48.16667 ], [ -85.875, 48.04167 ], [ -85.875, 48.0 ], [ -85.75, 48.0 ], [ -85.79167, 48.08333 ], [ -85.875, 48.08333 ], [ -85.91667, 48.16667 ], [ -86.0, 48.16667 ] ] ], [ [ [ -88.75, 48.04167 ], [ -88.875, 48.04167 ], [ -88.875, 48.0 ], [ -88.75, 48.0 ], [ -88.75, 48.04167 ] ] ], [ [ [ -88.875, 48.0 ], [ -89.0, 48.0 ], [ -89.0, 47.95833 ], [ -88.875, 47.95833 ], [ -88.875, 48.0 ] ] ], [ [ [ -89.0, 47.95833 ], [ -89.125, 47.95833 ], [ -89.125, 47.875 ], [ -89.04167, 47.875 ], [ -89.0, 47.95833 ] ] ], [ [ [ -88.125, 47.45833 ], [ -88.20833, 47.41667 ], [ -88.16667, 47.29167 ], [ -88.08333, 47.29167 ], [ -88.0, 47.33333 ], [ -88.04167, 47.41667 ], [ -87.75, 47.41667 ], [ -87.75, 47.45833 ], [ -88.125, 47.45833 ] ] ], [ [ [ -82.5, 46.91667 ], [ -82.54167, 46.83333 ], [ -82.45833, 46.83333 ], [ -82.5, 46.91667 ] ] ], [ [ [ -82.0, 46.58333 ], [ -82.08333, 46.66667 ], [ -82.41667, 46.66667 ], [ -82.5, 46.70833 ], [ -82.54167, 46.79167 ], [ -82.625, 46.75 ], [ -82.83333, 46.75 ], [ -82.875, 46.66667 ], [ -82.79167, 46.625 ], [ -82.66667, 46.625 ], [ -82.5, 46.54167 ], [ -82.5, 46.45833 ], [ -82.33333, 46.45833 ], [ -82.33333, 46.41667 ], [ -82.04167, 46.41667 ], [ -81.875, 46.5 ], [ -81.875, 46.54167 ], [ -81.95833, 46.58333 ], [ -82.0, 46.58333 ] ] ], [ [ [ -83.66667, 46.08333 ], [ -83.70833, 46.0 ], [ -83.79167, 45.95833 ], [ -83.54167, 45.95833 ], [ -83.58333, 46.0 ], [ -83.58333, 46.08333 ], [ -83.66667, 46.08333 ] ] ], [ [ [ -85.58333, 45.70833 ], [ -85.58333, 45.625 ], [ -85.5, 45.625 ], [ -85.5, 45.70833 ], [ -85.58333, 45.70833 ] ] ], [ [ [ -74.04167, 45.45833 ], [ -74.04167, 45.41667 ], [ -74.0, 45.41667 ], [ -74.04167, 45.45833 ] ] ], [ [ [ -74.83333, 45.04167 ], [ -74.875, 45.0 ], [ -74.83333, 45.0 ], [ -74.83333, 45.04167 ] ] ], [ [ [ -87.125, 45.16667 ], [ -87.25, 45.16667 ], [ -87.25, 45.04167 ], [ -87.33333, 44.95833 ], [ -87.375, 44.875 ], [ -87.29167, 44.83333 ], [ -87.20833, 44.91667 ], [ -87.20833, 45.04167 ], [ -87.16667, 45.08333 ], [ -87.08333, 45.08333 ], [ -87.125, 45.16667 ] ] ], [ [ [ -78.95833, 43.91667 ], [ -78.95833, 43.875 ], [ -78.83333, 43.875 ], [ -78.83333, 43.91667 ], [ -78.95833, 43.91667 ] ] ], [ [ [ -76.08333, 43.16667 ], [ -76.16667, 43.125 ], [ -76.29167, 43.125 ], [ -76.29167, 43.04167 ], [ -76.25, 43.0 ], [ -75.95833, 43.0 ], [ -75.95833, 43.04167 ], [ -75.79167, 43.125 ], [ -75.70833, 43.20833 ], [ -75.75, 43.25 ], [ -76.08333, 43.25 ], [ -76.08333, 43.16667 ] ] ], [ [ [ -78.95833, 42.54167 ], [ -78.95833, 42.41667 ], [ -78.875, 42.41667 ], [ -78.875, 42.5 ], [ -78.95833, 42.54167 ] ] ], [ [ [ -79.25, 42.5 ], [ -79.33333, 42.5 ], [ -79.41667, 42.45833 ], [ -79.45833, 42.375 ], [ -79.33333, 42.375 ], [ -79.33333, 42.41667 ], [ -79.25, 42.5 ] ] ] ] } },
{ "type": "Feature", "properties": { "ID": 2 }, "geometry": { "type": "MultiPolygon", "coordinates": [ [ [ [ -73.95833, 45.29167 ], [ -74.0, 45.41667 ], [ -74.04167, 45.41667 ], [ -74.0, 45.375 ], [ -74.04167, 45.29167 ], [ -74.16667, 45.29167 ], [ -74.20833, 45.25 ], [ -74.125, 45.16667 ], [ -74.125, 45.20833 ], [ -73.95833, 45.20833 ], [ -73.95833, 45.16667 ], [ -73.91667, 45.16667 ], [ -73.875, 45.25 ], [ -73.83333, 45.29167 ], [ -73.83333, 45.33333 ], [ -73.91667, 45.29167 ], [ -73.95833, 45.29167 ] ] ], [ [ [ -79.375, 44.29167 ], [ -79.41667, 44.25 ], [ -79.41667, 44.125 ], [ -79.29167, 44.125 ], [ -79.29167, 44.25 ], [ -79.375, 44.29167 ] ] ], [ [ [ -79.125, 44.08333 ], [ -79.125, 44.125 ], [ -79.25, 44.125 ], [ -79.375, 44.04167 ], [ -79.375, 43.95833 ], [ -79.16667, 43.95833 ], [ -79.125, 43.91667 ], [ -79.08333, 43.95833 ], [ -79.125, 44.0 ], [ -79.125, 44.08333 ] ] ], [ [ [ -80.75, 43.54167 ], [ -80.83333, 43.45833 ], [ -80.75, 43.41667 ], [ -80.75, 43.54167 ] ] ] ] } }
]
}
