{
"type": "FeatureCollection",
"name": "Carex_meadii",
"crs": { "type": "name", "properties": { "name": "urn:ogc:def:crs:OGC:1.3:CRS84" } },
"features": [
{ "type": "Feature", "properties": { "ID": 1 }, "geometry": { "type": "MultiPolygon", "coordinates": [ [ [ [ -95.72473, 47.9538 ], [ -95.68497, 48.00097 ], [ -95.56638, 48.00069 ], [ -95.52606, 48.09506 ], [ -95.44686, 48.0948 ], [ -95.32667, 48.21247 ], [ -95.2451, 48.37753 ], [ -95.24, 48.75579 ], [ -95.31926, 48.8271 ], [ -95.31811, 48.92171 ], [ -95.47773, 49.04061 ], [ -95.55827, 49.04085 ], [ -95.59786, 49.13561 ], [ -95.75911, 49.1596 ], [ -95.7589, 49.20694 ], [ -95.88007, 49.20707 ], [ -95.87997, 49.25441 ], [ -96.00125, 49.25446 ], [ -96.00125, 49.30181 ], [ -96.20354, 49.30168 ], [ -96.28458, 49.32523 ], [ -96.24453, 49.42001 ], [ -96.08245, 49.49122 ], [ -95.96054, 49.65705 ], [ -95.96043, 49.79922 ], [ -95.91961, 49.79921 ], [ -95.91933, 49.98885 ], [ -95.9603, 49.98886 ], [ -95.96019, 50.13115 ], [ -96.04236, 50.15486 ], [ -96.04243, 50.24975 ], [ -96.12486, 50.29716 ], [ -96.16628, 50.36831 ], [ -96.24878, 50.36821 ], [ -96.29054, 50.46308 ], [ -96.37351, 50.51039 ], [ -96.53895, 50.50993 ], [ -96.53801, 50.41499 ], [ -96.62004, 50.36723 ], [ -96.90878, 50.36589 ], [ -96.9943, 50.53156 ], [ -96.99692, 50.67403 ], [ -97.61909, 50.66912 ], [ -97.61767, 50.62163 ], [ -97.82486, 50.61947 ], [ -97.94831, 50.59431 ], [ -97.94321, 50.45189 ], [ -97.9019, 50.45238 ], [ -97.89612, 50.28629 ], [ -98.06084, 50.28431 ], [ -98.09928, 50.21263 ], [ -98.22265, 50.21101 ], [ -98.22072, 50.16358 ], [ -98.5083, 50.15944 ], [ -98.58934, 50.13445 ], [ -98.62585, 50.03897 ], [ -98.61454, 49.802 ], [ -98.57373, 49.80265 ], [ -98.5671, 49.66052 ], [ -98.35143, 49.37947 ], [ -98.27042, 49.38062 ], [ -98.22611, 49.28651 ], [ -98.1434, 49.24027 ], [ -97.98178, 49.24233 ], [ -97.85976, 49.2201 ], [ -97.81627, 49.1259 ], [ -97.7371, 49.17412 ], [ -97.65497, 49.12764 ], [ -97.49366, 49.12921 ], [ -97.49239, 49.08188 ], [ -97.61327, 49.08072 ], [ -97.61122, 49.00974 ], [ -97.69026, 48.96161 ], [ -97.72827, 48.89022 ], [ -97.80705, 48.84204 ], [ -97.84404, 48.747 ], [ -97.83166, 48.3688 ], [ -97.78813, 48.25112 ], [ -97.74843, 48.25156 ], [ -97.66623, 48.15791 ], [ -97.5863, 48.1351 ], [ -97.59095, 48.30048 ], [ -97.43201, 48.30198 ], [ -97.3514, 48.25542 ], [ -97.2688, 48.11433 ], [ -97.11036, 48.11551 ], [ -97.03072, 48.09242 ], [ -96.95272, 48.16379 ], [ -96.83379, 48.16446 ], [ -96.67381, 48.04709 ], [ -96.67268, 47.95261 ], [ -96.59319, 47.90569 ], [ -96.59196, 47.78762 ], [ -96.43443, 47.78813 ], [ -96.43407, 47.74091 ], [ -96.31602, 47.74119 ], [ -96.31628, 47.78841 ], [ -96.11937, 47.78869 ], [ -95.96177, 47.88318 ], [ -95.88272, 47.954 ], [ -95.88253, 48.04848 ], [ -95.76383, 48.04835 ], [ -95.72473, 47.9538 ] ] ], [ [ [ -97.04205, 50.86382 ], [ -97.04526, 51.03018 ], [ -97.25458, 51.05251 ], [ -97.25127, 50.9099 ], [ -97.16692, 50.86299 ], [ -97.04205, 50.86382 ] ] ], [ [ [ -98.66556, 51.70249 ], [ -98.62798, 51.79842 ], [ -98.71266, 51.79707 ], [ -98.66556, 51.70249 ] ] ], [ [ [ -88.01994, 48.74861 ], [ -88.0132, 48.79574 ], [ -87.85342, 48.7877 ], [ -87.84653, 48.83483 ], [ -88.04643, 48.84487 ], [ -88.01994, 48.74861 ] ] ], [ [ [ -87.3961, 48.88255 ], [ -87.37786, 49.00035 ], [ -87.43987, 49.12246 ], [ -87.58983, 49.20165 ], [ -87.65254, 49.32373 ], [ -87.73318, 49.32787 ], [ -87.76648, 49.3771 ], [ -87.9245, 49.40883 ], [ -87.9176, 49.45602 ], [ -88.15685, 49.49154 ], [ -88.15013, 49.53875 ], [ -88.43366, 49.55222 ], [ -88.43042, 49.57583 ], [ -88.87642, 49.596 ], [ -89.0071, 49.53042 ], [ -89.16919, 49.53732 ], [ -89.17504, 49.49008 ], [ -89.29652, 49.49514 ], [ -89.30225, 49.4479 ], [ -89.42366, 49.45287 ], [ -89.42928, 49.40562 ], [ -89.59926, 49.34122 ], [ -89.68005, 49.3444 ], [ -89.72581, 49.29872 ], [ -89.73649, 49.20424 ], [ -89.82761, 49.11288 ], [ -89.91068, 49.09232 ], [ -89.96117, 48.99938 ], [ -89.99175, 48.7161 ], [ -89.9518, 48.7146 ], [ -89.96707, 48.57302 ], [ -89.93488, 48.50073 ], [ -89.78353, 48.42385 ], [ -89.78875, 48.37668 ], [ -89.71724, 48.30282 ], [ -89.56941, 48.20219 ], [ -89.45341, 48.17377 ], [ -89.44793, 48.22091 ], [ -89.32917, 48.21597 ], [ -89.24153, 48.28333 ], [ -89.23019, 48.37762 ], [ -89.26141, 48.45003 ], [ -89.21596, 48.4955 ], [ -89.09664, 48.49039 ], [ -89.09084, 48.53754 ], [ -88.93164, 48.53058 ], [ -88.92569, 48.57773 ], [ -88.80622, 48.5724 ], [ -88.7816, 48.45274 ], [ -88.70213, 48.44913 ], [ -88.67754, 48.63769 ], [ -88.5947, 48.6576 ], [ -88.57593, 48.79905 ], [ -88.48646, 48.86607 ], [ -88.32316, 48.88208 ], [ -88.33614, 48.78777 ], [ -88.30593, 48.71514 ], [ -88.35229, 48.66992 ], [ -88.31889, 48.62087 ], [ -88.31242, 48.66801 ], [ -88.15296, 48.66026 ], [ -88.13306, 48.80167 ], [ -88.24968, 48.83108 ], [ -88.28314, 48.88016 ], [ -88.27006, 48.97447 ], [ -88.14648, 48.99222 ], [ -88.13981, 49.03938 ], [ -87.97932, 49.03147 ], [ -87.94944, 48.95874 ], [ -87.74915, 48.94858 ], [ -87.3961, 48.88255 ] ] ] ] } },
{ "type": "Feature", "properties": { "ID": 2 }, "geometry": { "type": "MultiPolygon", "coordinates": [ [ [ [ -92.37476, 46.59017 ], [ -92.48896, 46.6164 ], [ -92.49609, 46.49858 ], [ -92.30369, 46.49411 ], [ -92.30068, 46.54123 ], [ -92.37476, 46.59017 ] ] ], [ [ [ -93.86738, 46.92455 ], [ -93.8277, 46.9476 ], [ -93.82414, 47.04193 ], [ -93.90014, 47.09016 ], [ -94.01602, 47.11527 ], [ -94.05573, 47.09218 ], [ -94.05892, 46.99783 ], [ -93.86475, 46.9953 ], [ -93.86738, 46.92455 ] ] ], [ [ [ -94.75293, 47.24087 ], [ -94.75446, 47.17009 ], [ -94.6376, 47.16912 ], [ -94.63648, 47.2163 ], [ -94.75293, 47.24087 ] ] ], [ [ [ -95.64808, 47.57585 ], [ -95.6475, 47.67028 ], [ -95.7261, 47.67044 ], [ -95.72655, 47.57601 ], [ -95.64808, 47.57585 ] ] ], [ [ [ -95.72473, 47.9538 ], [ -95.76383, 48.04835 ], [ -95.88253, 48.04848 ], [ -95.88272, 47.954 ], [ -95.96177, 47.88318 ], [ -96.11937, 47.78869 ], [ -96.0406, 47.78873 ], [ -95.92232, 47.88317 ], [ -95.76442, 47.90663 ], [ -95.72473, 47.9538 ] ] ], [ [ [ -85.73937, 35.34346 ], [ -85.77149, 35.34602 ], [ -85.79233, 35.20417 ], [ -85.72473, 35.22268 ], [ -85.73937, 35.34346 ] ] ], [ [ [ -82.71772, 36.83992 ], [ -82.55429, 36.82326 ], [ -82.52623, 36.96405 ], [ -82.59173, 36.97075 ], [ -82.63842, 36.90369 ], [ -82.70849, 36.88686 ], [ -82.71772, 36.83992 ] ] ], [ [ [ -82.78829, 36.99065 ], [ -82.86298, 36.95027 ], [ -82.99402, 36.9633 ], [ -83.00306, 36.91634 ], [ -82.94665, 36.86289 ], [ -82.87667, 36.87985 ], [ -82.86754, 36.9268 ], [ -82.78829, 36.99065 ] ] ], [ [ [ -78.67709, 38.24443 ], [ -78.77656, 38.25728 ], [ -78.85503, 38.21928 ], [ -78.90632, 38.15373 ], [ -78.97257, 38.1622 ], [ -78.88213, 38.2468 ], [ -78.83965, 38.40963 ], [ -78.76094, 38.44761 ], [ -78.69341, 38.70333 ], [ -78.72679, 38.70761 ], [ -78.6898, 38.84705 ], [ -78.70474, 38.92105 ], [ -78.76558, 38.95284 ], [ -78.77447, 39.05005 ], [ -78.89038, 39.13678 ], [ -78.90561, 39.21072 ], [ -78.97293, 39.21918 ], [ -78.98828, 39.29311 ], [ -79.0557, 39.30152 ], [ -79.13867, 39.3838 ], [ -79.3293, 39.45522 ], [ -79.46458, 39.47167 ], [ -79.49245, 39.49902 ], [ -79.59992, 39.488 ], [ -79.80306, 39.51223 ], [ -79.8089, 39.48897 ], [ -80.01212, 39.51289 ], [ -80.11952, 39.50146 ], [ -80.13097, 39.4549 ], [ -80.26644, 39.47057 ], [ -80.31728, 39.4046 ], [ -80.41883, 39.41623 ], [ -80.43006, 39.36964 ], [ -80.58763, 39.29181 ], [ -80.67729, 39.2062 ], [ -80.74483, 39.21379 ], [ -80.78953, 39.17094 ], [ -80.8168, 39.05435 ], [ -80.90584, 38.96857 ], [ -80.96103, 38.87899 ], [ -81.05721, 38.45886 ], [ -81.00107, 38.40473 ], [ -81.01703, 38.33468 ], [ -80.96635, 38.25716 ], [ -80.89976, 38.24968 ], [ -80.89322, 38.12916 ], [ -80.82677, 38.12164 ], [ -80.80966, 38.04781 ], [ -80.64921, 38.00548 ], [ -80.66003, 37.95878 ], [ -80.49989, 37.91628 ], [ -80.5108, 37.86958 ], [ -80.25737, 37.79185 ], [ -80.15275, 37.80341 ], [ -79.95467, 37.77964 ], [ -79.85001, 37.79096 ], [ -79.82727, 37.88425 ], [ -79.69512, 37.86812 ], [ -79.67932, 37.79412 ], [ -79.61334, 37.78599 ], [ -79.6233, 37.88331 ], [ -79.54567, 37.92178 ], [ -79.38633, 37.87794 ], [ -79.32031, 37.86967 ], [ -79.32617, 37.84637 ], [ -79.2873, 37.86553 ], [ -79.17898, 37.75568 ], [ -79.08018, 37.74312 ], [ -79.08936, 37.84048 ], [ -78.93348, 37.91674 ], [ -78.90339, 38.03313 ], [ -78.81911, 38.09443 ], [ -78.75294, 38.08589 ], [ -78.70766, 38.12813 ], [ -78.67709, 38.24443 ] ] ], [ [ [ -96.43443, 47.78813 ], [ -96.59196, 47.78762 ], [ -96.59319, 47.90569 ], [ -96.67268, 47.95261 ], [ -96.67381, 48.04709 ], [ -96.83379, 48.16446 ], [ -96.95272, 48.16379 ], [ -97.03072, 48.09242 ], [ -97.11036, 48.11551 ], [ -97.2688, 48.11433 ], [ -97.3514, 48.25542 ], [ -97.43201, 48.30198 ], [ -97.59095, 48.30048 ], [ -97.5863, 48.1351 ], [ -97.66623, 48.15791 ], [ -97.78514, 48.15662 ], [ -97.70231, 48.0394 ], [ -97.69876, 47.92132 ], [ -97.73679, 47.87366 ], [ -97.81339, 47.80195 ], [ -97.89216, 47.80102 ], [ -97.88903, 47.7066 ], [ -97.92675, 47.65891 ], [ -98.0446, 47.65743 ], [ -98.08561, 47.70412 ], [ -98.07357, 47.37373 ], [ -97.99539, 47.37475 ], [ -97.99129, 47.25678 ], [ -98.14379, 47.16036 ], [ -98.29956, 47.15815 ], [ -98.25598, 47.04079 ], [ -98.36965, 46.96832 ], [ -98.36771, 46.92116 ], [ -98.1738, 46.92398 ], [ -98.17025, 46.82966 ], [ -98.24585, 46.78141 ], [ -98.28827, 46.87516 ], [ -98.36577, 46.874 ], [ -98.39961, 46.75552 ], [ -98.47695, 46.75431 ], [ -98.55012, 46.65876 ], [ -98.50641, 46.54153 ], [ -98.49727, 46.32942 ], [ -98.57196, 46.28103 ], [ -98.52849, 46.16385 ], [ -98.52238, 46.02248 ], [ -98.4812, 45.95243 ], [ -98.55644, 45.92762 ], [ -98.54314, 45.6214 ], [ -98.65372, 45.54881 ], [ -98.6516, 45.50171 ], [ -98.76512, 45.49969 ], [ -98.8752, 45.42694 ], [ -98.87062, 45.33275 ], [ -99.05927, 45.32906 ], [ -99.05077, 45.16425 ], [ -99.08594, 45.11641 ], [ -99.19745, 45.09052 ], [ -99.19239, 44.99636 ], [ -99.11489, 44.95084 ], [ -99.10874, 44.83314 ], [ -99.25453, 44.75936 ], [ -99.24685, 44.61814 ], [ -99.20705, 44.57187 ], [ -99.05804, 44.57498 ], [ -98.94512, 44.55368 ], [ -98.9405, 44.45952 ], [ -98.79176, 44.46237 ], [ -98.71952, 44.51082 ], [ -98.70782, 44.25188 ], [ -98.66659, 44.15839 ], [ -98.59158, 44.13616 ], [ -98.5735, 43.71245 ], [ -98.53284, 43.61892 ], [ -98.64184, 43.59346 ], [ -98.67436, 43.49864 ], [ -98.74544, 43.45022 ], [ -98.73278, 43.16775 ], [ -98.58717, 43.17039 ], [ -98.61955, 43.07559 ], [ -98.47415, 43.07812 ], [ -98.50761, 43.00687 ], [ -98.50378, 42.9127 ], [ -98.53809, 42.86499 ], [ -98.57628, 42.91144 ], [ -98.68401, 42.88594 ], [ -98.67991, 42.79177 ], [ -98.71402, 42.74402 ], [ -98.53325, 42.74728 ], [ -98.53132, 42.70019 ], [ -98.20613, 42.70549 ], [ -98.20361, 42.63485 ], [ -98.42016, 42.63141 ], [ -98.41464, 42.49013 ], [ -98.37773, 42.46718 ], [ -98.37413, 42.373 ], [ -98.29789, 42.25642 ], [ -98.22446, 42.21044 ], [ -98.11691, 42.21206 ], [ -98.11531, 42.16496 ], [ -98.36605, 42.16106 ], [ -98.32847, 42.11454 ], [ -98.32233, 41.94968 ], [ -98.25094, 41.95082 ], [ -98.28234, 41.83249 ], [ -98.46048, 41.82954 ], [ -98.49987, 41.92314 ], [ -98.56929, 41.87477 ], [ -98.67625, 41.87282 ], [ -98.7068, 41.75439 ], [ -98.69769, 41.54241 ], [ -98.76758, 41.51749 ], [ -98.76344, 41.42327 ], [ -98.69265, 41.42462 ], [ -98.65329, 41.33106 ], [ -98.79466, 41.32835 ], [ -98.75624, 41.25836 ], [ -98.75213, 41.16412 ], [ -98.67964, 41.11834 ], [ -98.67666, 41.04765 ], [ -98.74499, 40.99918 ], [ -98.74092, 40.90492 ], [ -98.66972, 40.88269 ], [ -98.73585, 40.78708 ], [ -98.69583, 40.6699 ], [ -98.76578, 40.66855 ], [ -98.79869, 40.62071 ], [ -98.78636, 40.33781 ], [ -98.89075, 40.3357 ], [ -98.88334, 40.17064 ], [ -98.95274, 40.16919 ], [ -99.01663, 40.04979 ], [ -99.01442, 40.00263 ], [ -98.91058, 40.00484 ], [ -98.90633, 39.91049 ], [ -99.00893, 39.8847 ], [ -99.00455, 39.79034 ], [ -99.03683, 39.74241 ], [ -99.14025, 39.7401 ], [ -99.10014, 39.62292 ], [ -99.16092, 39.45619 ], [ -99.15521, 39.33819 ], [ -99.05243, 39.34051 ], [ -99.04802, 39.2461 ], [ -99.0789, 39.17452 ], [ -99.04253, 39.12806 ], [ -99.21327, 39.12417 ], [ -99.21096, 39.07695 ], [ -99.07225, 39.03286 ], [ -99.03487, 38.96279 ], [ -99.02726, 38.79747 ], [ -98.92113, 38.70521 ], [ -98.81932, 38.70736 ], [ -98.74948, 38.6615 ], [ -98.71072, 38.54404 ], [ -98.74261, 38.4961 ], [ -98.70589, 38.42588 ], [ -98.73578, 38.33066 ], [ -98.80326, 38.32928 ], [ -98.83196, 38.21039 ], [ -98.82494, 38.04488 ], [ -98.78739, 37.95099 ], [ -98.88804, 37.94886 ], [ -98.91848, 37.87719 ], [ -98.9834, 37.82841 ], [ -99.08386, 37.82614 ], [ -99.04499, 37.70862 ], [ -98.94471, 37.71087 ], [ -98.94159, 37.63989 ], [ -99.00626, 37.59108 ], [ -99.00203, 37.49642 ], [ -98.90206, 37.49863 ], [ -98.90003, 37.4513 ], [ -98.6669, 37.45616 ], [ -98.52923, 37.34039 ], [ -98.42948, 37.34225 ], [ -98.42777, 37.2949 ], [ -98.29485, 37.29726 ], [ -98.29324, 37.2499 ], [ -97.62899, 37.2597 ], [ -97.62785, 37.21233 ], [ -97.52827, 37.21351 ], [ -97.46085, 37.16688 ], [ -97.45983, 37.1195 ], [ -97.19462, 37.12215 ], [ -97.19546, 37.16953 ], [ -96.93005, 37.17166 ], [ -96.9294, 37.12428 ], [ -96.76362, 37.12533 ], [ -96.79567, 37.03036 ], [ -96.66323, 37.03109 ], [ -96.63056, 37.07864 ], [ -96.63144, 37.17342 ], [ -96.59847, 37.19726 ], [ -96.20018, 37.19846 ], [ -96.20032, 37.24584 ], [ -96.03424, 37.24598 ], [ -96.03426, 37.29336 ], [ -95.83483, 37.29326 ], [ -95.83495, 37.24588 ], [ -95.7353, 37.24572 ], [ -95.73512, 37.2931 ], [ -95.6354, 37.29286 ], [ -95.63566, 37.24549 ], [ -95.46958, 37.24493 ], [ -95.46996, 37.19755 ], [ -95.33742, 37.17326 ], [ -95.3057, 37.03093 ], [ -95.14016, 37.02996 ], [ -95.13956, 37.07735 ], [ -95.00738, 37.05273 ], [ -94.77555, 37.05079 ], [ -94.77513, 37.07448 ], [ -94.51011, 37.07177 ], [ -94.54578, 36.95366 ], [ -94.4135, 36.95214 ], [ -94.34795, 36.92763 ], [ -94.38326, 36.83324 ], [ -94.31724, 36.83242 ], [ -94.25244, 36.78415 ], [ -94.22131, 36.71259 ], [ -94.12247, 36.71122 ], [ -94.12377, 36.66381 ], [ -93.99207, 36.66186 ], [ -93.92767, 36.61343 ], [ -93.76006, 36.70556 ], [ -93.66124, 36.70384 ], [ -93.65961, 36.75125 ], [ -93.52776, 36.74884 ], [ -93.46007, 36.79499 ], [ -93.43066, 36.69955 ], [ -93.33185, 36.69758 ], [ -93.33, 36.74498 ], [ -93.26027, 36.83842 ], [ -92.8313, 36.82882 ], [ -92.80164, 36.75694 ], [ -92.50505, 36.74941 ], [ -92.50018, 36.84418 ], [ -92.13727, 36.83405 ], [ -92.1413, 36.76299 ], [ -92.0754, 36.76104 ], [ -92.01227, 36.71169 ], [ -92.01504, 36.6643 ], [ -91.81764, 36.65818 ], [ -91.68006, 36.74867 ], [ -91.67405, 36.84341 ], [ -91.34425, 36.83218 ], [ -91.27502, 36.87719 ], [ -91.21736, 36.75643 ], [ -91.1515, 36.75402 ], [ -91.11347, 36.82383 ], [ -90.9469, 36.84129 ], [ -91.0111, 36.86748 ], [ -90.97111, 36.9609 ], [ -90.90506, 36.95837 ], [ -90.83901, 36.95581 ], [ -90.82999, 37.07412 ], [ -90.66646, 37.0439 ], [ -90.66273, 37.09122 ], [ -90.5304, 37.08582 ], [ -90.57107, 36.99255 ], [ -90.58806, 36.77957 ], [ -90.45826, 36.75042 ], [ -90.46211, 36.70308 ], [ -90.29765, 36.69606 ], [ -90.19698, 36.71541 ], [ -90.16003, 36.76129 ], [ -90.0942, 36.75835 ], [ -90.05715, 36.80419 ], [ -89.99129, 36.80121 ], [ -89.91484, 36.91647 ], [ -89.84458, 36.96071 ], [ -89.74557, 36.95606 ], [ -89.74121, 37.00336 ], [ -89.64214, 36.99863 ], [ -89.501, 37.08678 ], [ -89.49646, 37.13405 ], [ -89.36414, 37.12749 ], [ -89.37341, 37.03294 ], [ -89.24366, 37.00262 ], [ -89.23894, 37.04989 ], [ -89.09476, 37.16123 ], [ -89.02859, 37.15777 ], [ -88.9857, 37.25052 ], [ -88.82009, 37.24166 ], [ -88.8482, 37.29069 ], [ -88.71565, 37.28349 ], [ -88.65195, 37.25622 ], [ -88.65709, 37.20898 ], [ -88.55781, 37.20344 ], [ -88.54216, 37.34513 ], [ -88.40953, 37.33762 ], [ -88.33516, 37.40463 ], [ -88.32978, 37.45184 ], [ -88.22744, 37.46966 ], [ -88.16651, 37.41856 ], [ -88.18023, 37.30055 ], [ -88.01461, 37.29069 ], [ -87.97587, 37.33589 ], [ -87.96179, 37.45388 ], [ -87.92292, 37.49906 ], [ -87.75685, 37.48888 ], [ -87.66016, 37.45908 ], [ -87.66601, 37.4119 ], [ -87.56651, 37.40563 ], [ -87.46105, 37.44645 ], [ -87.45505, 37.49362 ], [ -87.37654, 37.58365 ], [ -87.17711, 37.5706 ], [ -87.13765, 37.61554 ], [ -87.12516, 37.70981 ], [ -86.99198, 37.70089 ], [ -86.98563, 37.74802 ], [ -86.84918, 37.76252 ], [ -86.71593, 37.75333 ], [ -86.69954, 37.87109 ], [ -86.61957, 37.96063 ], [ -86.57284, 38.05245 ], [ -86.49585, 38.11835 ], [ -86.48235, 38.21248 ], [ -86.44204, 38.25717 ], [ -86.27433, 38.24516 ], [ -86.25118, 38.17216 ], [ -86.1172, 38.16238 ], [ -86.10126, 38.04228 ], [ -85.90431, 38.00382 ], [ -85.91144, 37.95677 ], [ -85.77795, 37.94665 ], [ -85.70394, 37.98858 ], [ -85.69665, 38.03562 ], [ -85.62617, 38.05398 ], [ -85.45912, 38.04096 ], [ -85.34384, 38.12708 ], [ -85.32872, 38.22109 ], [ -85.25413, 38.26275 ], [ -85.15362, 38.25469 ], [ -85.1805, 38.0902 ], [ -85.12137, 38.0378 ], [ -85.14058, 37.92028 ], [ -85.07392, 37.91485 ], [ -85.0522, 37.84161 ], [ -84.98563, 37.83614 ], [ -84.87214, 37.70758 ], [ -84.99504, 37.57478 ], [ -85.01819, 37.43367 ], [ -84.88587, 37.42265 ], [ -84.87807, 37.46969 ], [ -84.77879, 37.46134 ], [ -84.79451, 37.36727 ], [ -84.73238, 37.33815 ], [ -84.53427, 37.32115 ], [ -84.48515, 37.41233 ], [ -84.51015, 37.46221 ], [ -84.57631, 37.46792 ], [ -84.6385, 37.4971 ], [ -84.62253, 37.59113 ], [ -84.48997, 37.57972 ], [ -84.48188, 37.62672 ], [ -84.54014, 37.67944 ], [ -84.44533, 37.83817 ], [ -84.37881, 37.8324 ], [ -84.3291, 37.92344 ], [ -84.16265, 37.90881 ], [ -84.10838, 38.02323 ], [ -84.1667, 38.07608 ], [ -84.11651, 38.167 ], [ -84.08697, 38.33125 ], [ -83.89376, 38.45704 ], [ -83.88514, 38.50394 ], [ -83.75088, 38.49182 ], [ -83.63262, 38.5764 ], [ -83.46252, 38.75147 ], [ -83.36151, 38.74209 ], [ -83.31878, 38.78578 ], [ -83.30063, 38.87946 ], [ -83.17189, 39.01042 ], [ -83.07052, 39.00082 ], [ -83.05067, 38.92739 ], [ -82.9925, 38.87412 ], [ -82.86236, 38.83773 ], [ -82.80914, 38.76098 ], [ -82.44887, 38.67763 ], [ -82.31455, 38.6641 ], [ -82.28586, 38.6373 ], [ -82.05103, 38.61325 ], [ -82.00254, 38.67992 ], [ -81.8012, 38.6589 ], [ -81.79107, 38.70564 ], [ -81.69038, 38.69502 ], [ -81.38556, 38.82979 ], [ -81.37511, 38.87649 ], [ -81.15392, 39.09161 ], [ -81.12019, 39.08792 ], [ -81.02349, 39.50774 ], [ -81.04123, 39.58139 ], [ -81.09842, 39.63543 ], [ -81.10549, 39.75569 ], [ -81.17364, 39.76306 ], [ -81.19162, 39.83667 ], [ -81.28866, 39.87097 ], [ -81.34632, 39.92488 ], [ -81.36454, 39.99846 ], [ -81.4672, 40.00931 ], [ -81.55413, 40.09005 ], [ -81.74946, 40.15804 ], [ -81.95546, 40.17908 ], [ -81.9847, 40.2059 ], [ -82.12724, 40.19639 ], [ -82.33348, 40.21688 ], [ -82.34346, 40.17018 ], [ -82.41714, 40.15359 ], [ -82.5546, 40.167 ], [ -82.53006, 40.11695 ], [ -82.70182, 40.13355 ], [ -82.71151, 40.08682 ], [ -82.78982, 40.04667 ], [ -82.89279, 40.05646 ], [ -82.86887, 40.1733 ], [ -82.94242, 40.15643 ], [ -83.07999, 40.16932 ], [ -83.06109, 40.26281 ], [ -82.95776, 40.25314 ], [ -82.94344, 40.32324 ], [ -82.86489, 40.36347 ], [ -82.74152, 40.2803 ], [ -82.72164, 40.20693 ], [ -82.66259, 40.15361 ], [ -82.63332, 40.29375 ], [ -82.58907, 40.33714 ], [ -82.67785, 40.41714 ], [ -82.88978, 40.41345 ], [ -82.86089, 40.5536 ], [ -82.782, 40.59378 ], [ -82.5744, 40.57396 ], [ -82.51513, 40.5206 ], [ -82.49034, 40.63732 ], [ -82.41112, 40.67728 ], [ -82.30723, 40.66714 ], [ -82.22785, 40.707 ], [ -82.20755, 40.80032 ], [ -82.07393, 40.76325 ], [ -82.08419, 40.7166 ], [ -81.87641, 40.69575 ], [ -81.82093, 40.78551 ], [ -81.75161, 40.77847 ], [ -81.70115, 40.84487 ], [ -81.5971, 40.8342 ], [ -81.54374, 40.75713 ], [ -81.37062, 40.73912 ], [ -81.29057, 40.77844 ], [ -81.27973, 40.82503 ], [ -81.39146, 40.95604 ], [ -81.3459, 40.999 ], [ -81.31878, 41.11546 ], [ -81.28396, 41.11182 ], [ -81.2764, 40.99173 ], [ -81.30356, 40.87526 ], [ -81.2342, 40.86797 ], [ -81.26137, 40.7515 ], [ -81.19215, 40.74418 ], [ -81.13935, 40.66696 ], [ -80.99417, 40.53201 ], [ -80.93074, 40.50127 ], [ -80.87846, 40.42393 ], [ -80.67765, 40.37802 ], [ -80.6545, 40.32766 ], [ -80.24259, 40.28143 ], [ -80.23683, 40.30469 ], [ -80.03102, 40.28112 ], [ -80.02519, 40.30437 ], [ -79.81947, 40.28048 ], [ -79.76742, 40.3462 ], [ -79.63022, 40.33006 ], [ -79.38817, 40.44495 ], [ -79.37601, 40.4914 ], [ -79.30118, 40.50637 ], [ -79.11431, 40.67546 ], [ -79.08325, 40.79149 ], [ -79.04875, 40.7873 ], [ -78.97989, 41.04248 ], [ -78.99892, 41.23644 ], [ -79.06214, 41.26803 ], [ -79.04328, 41.33761 ], [ -79.14144, 41.37335 ], [ -79.11637, 41.46613 ], [ -79.18612, 41.47446 ], [ -79.20226, 41.5482 ], [ -79.30706, 41.56063 ], [ -79.42215, 41.66989 ], [ -79.6551, 41.7448 ], [ -79.63064, 41.83765 ], [ -79.58324, 41.88001 ], [ -79.44274, 41.86371 ], [ -79.38898, 41.92921 ], [ -79.28355, 41.91685 ], [ -79.27102, 41.96324 ], [ -79.16556, 41.95079 ], [ -79.06991, 42.03519 ], [ -79.04446, 42.12792 ], [ -78.97399, 42.11952 ], [ -78.92594, 42.16166 ], [ -78.93553, 42.25858 ], [ -78.90335, 42.37445 ], [ -78.9741, 42.38288 ], [ -78.9548, 42.45241 ], [ -78.87752, 42.46713 ], [ -78.79661, 42.62507 ], [ -78.69941, 42.7092 ], [ -78.67313, 42.80184 ], [ -78.50185, 42.75717 ], [ -78.52836, 42.66457 ], [ -78.51273, 42.59079 ], [ -78.59026, 42.57625 ], [ -78.60343, 42.52994 ], [ -78.70976, 42.54279 ], [ -78.72283, 42.49647 ], [ -78.46834, 42.48953 ], [ -78.29333, 42.58785 ], [ -78.19228, 42.93495 ], [ -78.22792, 42.93934 ], [ -78.18726, 43.07816 ], [ -78.18902, 43.19823 ], [ -78.23346, 43.29956 ], [ -78.37018, 43.34018 ], [ -78.38367, 43.2939 ], [ -78.71989, 43.28638 ], [ -78.73311, 43.24006 ], [ -78.91246, 43.26128 ], [ -78.91899, 43.23812 ], [ -79.13429, 43.26328 ], [ -79.1895, 43.1979 ], [ -79.29711, 43.21033 ], [ -79.30988, 43.16396 ], [ -79.42379, 43.1531 ], [ -79.639, 43.17752 ], [ -79.73422, 43.23602 ], [ -79.91389, 43.25602 ], [ -80.0225, 43.12467 ], [ -80.13015, 43.13648 ], [ -80.26171, 43.19855 ], [ -80.36954, 43.21019 ], [ -80.39354, 43.26051 ], [ -80.3576, 43.39989 ], [ -80.41776, 43.45407 ], [ -80.56218, 43.46941 ], [ -80.70078, 43.50785 ], [ -80.689, 43.55434 ], [ -80.61075, 43.56999 ], [ -80.5632, 43.75589 ], [ -80.66615, 43.79054 ], [ -80.62457, 43.95322 ], [ -80.77022, 43.96836 ], [ -80.7938, 43.87538 ], [ -80.8419, 43.83264 ], [ -80.95096, 43.84384 ], [ -80.9626, 43.79734 ], [ -81.13096, 43.71911 ], [ -81.16532, 43.57956 ], [ -81.21862, 43.51344 ], [ -81.15769, 43.45958 ], [ -81.10831, 43.35919 ], [ -81.14252, 43.21963 ], [ -81.19553, 43.15352 ], [ -81.30345, 43.16447 ], [ -81.3866, 43.12518 ], [ -81.40582, 43.19861 ], [ -81.58589, 43.21655 ], [ -81.69946, 43.20393 ], [ -81.74641, 43.1609 ], [ -81.81842, 43.16794 ], [ -81.92647, 43.17842 ], [ -81.9786, 43.11203 ], [ -82.05058, 43.11895 ], [ -82.10783, 43.02921 ], [ -82.28761, 43.0463 ], [ -82.29808, 42.99969 ], [ -82.47782, 43.01654 ], [ -82.48281, 43.15975 ], [ -82.5549, 43.16642 ], [ -82.52395, 43.30629 ], [ -82.62209, 43.36289 ], [ -82.69444, 43.3695 ], [ -82.67396, 43.46276 ], [ -82.74643, 43.46934 ], [ -82.80299, 43.37934 ], [ -82.98899, 43.37224 ], [ -83.00895, 43.27893 ], [ -83.2982, 43.30438 ], [ -83.41157, 43.29044 ], [ -83.43086, 43.19707 ], [ -83.5031, 43.20328 ], [ -83.48391, 43.29666 ], [ -83.55627, 43.30284 ], [ -83.50832, 43.53629 ], [ -83.53503, 43.58607 ], [ -83.6441, 43.59529 ], [ -83.88937, 43.66321 ], [ -84.10793, 43.68105 ], [ -84.15809, 43.61389 ], [ -84.2309, 43.61974 ], [ -84.24451, 43.54964 ], [ -84.33524, 43.46197 ], [ -84.44865, 43.44723 ], [ -84.59393, 43.45861 ], [ -84.58514, 43.50536 ], [ -84.70882, 43.63351 ], [ -84.79035, 43.59232 ], [ -84.81194, 43.4754 ], [ -84.78424, 43.42586 ], [ -84.81867, 43.23878 ], [ -85.07219, 43.25796 ], [ -85.02332, 43.32542 ], [ -85.20469, 43.33891 ], [ -85.24924, 43.29479 ], [ -85.26574, 43.2012 ], [ -85.44679, 43.21439 ], [ -85.63191, 43.20395 ], [ -85.63986, 43.15713 ], [ -85.72013, 43.11543 ], [ -86.0096, 43.13554 ], [ -86.19438, 43.12439 ], [ -86.22808, 42.91357 ], [ -86.19201, 42.91114 ], [ -86.28476, 42.32544 ], [ -86.3205, 42.32785 ], [ -86.45301, 42.17096 ], [ -86.4674, 42.0772 ], [ -86.54573, 42.03504 ], [ -86.59194, 41.96705 ], [ -86.61312, 41.82638 ], [ -86.71952, 41.83333 ], [ -86.76886, 41.74183 ], [ -86.84657, 41.69949 ], [ -86.95278, 41.70626 ], [ -86.95955, 41.65935 ], [ -87.0657, 41.66604 ], [ -87.07239, 41.61913 ], [ -87.35537, 41.63657 ], [ -87.46472, 41.6195 ], [ -87.48736, 41.71549 ], [ -87.55823, 41.7197 ], [ -87.61968, 41.79428 ], [ -87.61023, 41.86469 ], [ -87.68128, 41.86884 ], [ -87.65934, 42.03311 ], [ -87.8516, 42.20967 ], [ -87.81449, 42.49128 ], [ -87.85038, 42.49331 ], [ -87.82245, 42.7045 ], [ -87.77391, 42.79631 ], [ -87.87901, 42.82586 ], [ -87.85726, 42.99011 ], [ -87.92962, 42.99413 ], [ -87.89862, 43.22877 ], [ -87.92564, 43.30117 ], [ -87.90385, 43.46541 ], [ -87.82463, 43.50829 ], [ -87.80249, 43.67251 ], [ -87.76591, 43.67048 ], [ -87.73072, 43.92852 ], [ -87.75143, 44.04787 ], [ -87.66484, 44.13759 ], [ -87.58785, 44.15689 ], [ -87.54499, 44.46182 ], [ -87.50794, 44.45972 ], [ -87.48458, 44.62391 ], [ -87.40352, 44.66657 ], [ -87.38659, 44.78384 ], [ -87.41707, 44.83289 ], [ -87.6408, 44.8455 ], [ -87.66054, 44.70473 ], [ -87.74796, 44.61501 ], [ -87.90932, 44.52926 ], [ -88.05777, 44.53722 ], [ -88.03903, 44.67803 ], [ -87.95513, 44.74446 ], [ -87.94244, 44.83833 ], [ -87.86142, 44.88124 ], [ -87.84532, 44.99858 ], [ -87.65836, 44.98834 ], [ -87.65176, 45.03527 ], [ -87.72004, 45.08632 ], [ -87.86986, 45.09447 ], [ -87.90412, 45.11995 ], [ -88.05405, 45.12791 ], [ -88.08212, 45.2003 ], [ -88.16342, 45.15726 ], [ -88.27596, 45.16305 ], [ -88.28208, 45.1161 ], [ -88.43205, 45.12369 ], [ -88.41702, 45.24109 ], [ -88.4862, 45.2918 ], [ -88.63664, 45.29919 ], [ -88.64249, 45.25222 ], [ -88.72345, 45.20888 ], [ -88.83614, 45.21426 ], [ -88.88501, 45.12207 ], [ -88.73786, 45.09145 ], [ -88.74936, 44.99751 ], [ -88.79818, 44.90536 ], [ -88.91031, 44.91068 ], [ -88.9047, 44.95765 ], [ -88.97396, 45.00814 ], [ -89.20134, 44.99494 ], [ -89.19596, 45.04193 ], [ -89.26556, 45.09228 ], [ -89.34057, 45.0956 ], [ -89.33265, 45.16609 ], [ -89.40252, 45.21638 ], [ -89.47769, 45.21964 ], [ -89.54518, 45.29337 ], [ -89.52717, 45.45789 ], [ -89.60265, 45.46109 ], [ -89.63278, 45.53319 ], [ -89.6226, 45.62722 ], [ -89.65284, 45.69933 ], [ -89.72362, 45.74949 ], [ -89.74117, 45.58491 ], [ -89.779, 45.58646 ], [ -89.81684, 45.588 ], [ -90.00603, 45.59556 ], [ -90.08644, 45.55149 ], [ -90.10058, 45.41041 ], [ -90.18068, 45.36629 ], [ -90.15975, 45.57793 ], [ -90.23542, 45.58081 ], [ -90.26409, 45.67631 ], [ -90.18597, 45.69696 ], [ -90.17664, 45.79104 ], [ -90.12925, 45.88366 ], [ -90.05319, 45.88073 ], [ -90.04601, 45.95129 ], [ -90.35067, 45.96282 ], [ -90.3865, 45.98774 ], [ -90.65328, 45.99727 ], [ -90.69994, 45.90448 ], [ -90.96639, 45.91347 ], [ -91.01048, 45.84411 ], [ -91.09048, 45.79951 ], [ -91.24058, 45.82785 ], [ -91.23675, 45.87492 ], [ -91.30909, 45.92434 ], [ -91.35091, 45.87843 ], [ -91.42703, 45.88072 ], [ -91.41782, 45.99841 ], [ -91.72295, 46.00722 ], [ -91.71432, 46.12494 ], [ -91.77543, 46.33899 ], [ -91.89053, 46.3421 ], [ -91.89386, 46.295 ], [ -92.23896, 46.3038 ], [ -92.28332, 46.21051 ], [ -92.3982, 46.21324 ], [ -92.47763, 46.1679 ], [ -92.51167, 46.23944 ], [ -92.5883, 46.24115 ], [ -92.58277, 46.33538 ], [ -92.6979, 46.33789 ], [ -92.70057, 46.29077 ], [ -92.77466, 46.33951 ], [ -92.9282, 46.34264 ], [ -92.93068, 46.29552 ], [ -93.31428, 46.30268 ], [ -93.46671, 46.32884 ], [ -93.47387, 46.16389 ], [ -93.39943, 46.11549 ], [ -93.70539, 46.12036 ], [ -93.73999, 46.21518 ], [ -93.85232, 46.28752 ], [ -93.84884, 46.38179 ], [ -93.80864, 46.42839 ], [ -93.65484, 46.42614 ], [ -93.64816, 46.59113 ], [ -93.8024, 46.59339 ], [ -93.79971, 46.66411 ], [ -93.87347, 46.75949 ], [ -93.86738, 46.92455 ], [ -94.0613, 46.92708 ], [ -94.05892, 46.99783 ], [ -94.09619, 47.04548 ], [ -94.44602, 47.04935 ], [ -94.60094, 47.07441 ], [ -94.59979, 47.12159 ], [ -94.79441, 47.12321 ], [ -94.79094, 47.28836 ], [ -94.87041, 47.21816 ], [ -94.87133, 47.17098 ], [ -94.95011, 47.12434 ], [ -94.87319, 47.07661 ], [ -94.91431, 46.95895 ], [ -95.26365, 46.96099 ], [ -95.2261, 46.86645 ], [ -95.26575, 46.79589 ], [ -95.5367, 46.79693 ], [ -95.53708, 46.74976 ], [ -95.61474, 46.70281 ], [ -95.73068, 46.70305 ], [ -95.73101, 46.63231 ], [ -95.8854, 46.6325 ], [ -95.88558, 46.53818 ], [ -96.00119, 46.53823 ], [ -96.00119, 46.70329 ], [ -96.07861, 46.7976 ], [ -95.92378, 46.7976 ], [ -95.84605, 46.91547 ], [ -95.84503, 47.29295 ], [ -95.76675, 47.34005 ], [ -95.80559, 47.4109 ], [ -95.80503, 47.57612 ], [ -95.8834, 47.62342 ], [ -96.00121, 47.62346 ], [ -96.00121, 47.55264 ], [ -96.27575, 47.5524 ], [ -96.31537, 47.62314 ], [ -96.3939, 47.62297 ], [ -96.39456, 47.7174 ], [ -96.43389, 47.7173 ], [ -96.43443, 47.78813 ] ], [ [ -90.97111, 36.9609 ], [ -91.13628, 36.96708 ], [ -91.12778, 37.08541 ], [ -91.02851, 37.08172 ], [ -91.03198, 37.0344 ], [ -90.9676, 37.00823 ], [ -90.97111, 36.9609 ] ], [ [ -98.37773, 42.46718 ], [ -98.19859, 42.49357 ], [ -98.19442, 42.37583 ], [ -98.30224, 42.37416 ], [ -98.30399, 42.42125 ], [ -98.37773, 42.46718 ] ], [ [ -98.52405, 43.40706 ], [ -98.45096, 43.4083 ], [ -98.44624, 43.2906 ], [ -98.55567, 43.28873 ], [ -98.55961, 43.38289 ], [ -98.52405, 43.40706 ] ], [ [ -98.53841, 44.63179 ], [ -98.45994, 44.53886 ], [ -98.57165, 44.53699 ], [ -98.53841, 44.63179 ] ], [ [ -98.46673, 44.70366 ], [ -98.54141, 44.70242 ], [ -98.54542, 44.79659 ], [ -98.47062, 44.79784 ], [ -98.46673, 44.70366 ] ], [ [ -97.80861, 42.71097 ], [ -97.70019, 42.71228 ], [ -97.66531, 42.7598 ], [ -97.59297, 42.76061 ], [ -97.55561, 42.7139 ], [ -97.55029, 42.50195 ], [ -97.80243, 42.49904 ], [ -97.80861, 42.71097 ] ], [ [ -97.57036, 44.7157 ], [ -97.56913, 44.6686 ], [ -97.6811, 44.66739 ], [ -97.68243, 44.71449 ], [ -97.57036, 44.7157 ] ], [ [ -97.80659, 45.11352 ], [ -97.84419, 45.11307 ], [ -97.84859, 45.25438 ], [ -97.73551, 45.25571 ], [ -97.69512, 45.16193 ], [ -97.80802, 45.16063 ], [ -97.80659, 45.11352 ] ], [ [ -97.5251, 45.87063 ], [ -97.37273, 45.87207 ], [ -97.37163, 45.82495 ], [ -97.25694, 45.80237 ], [ -97.14004, 45.66189 ], [ -97.29032, 45.59001 ], [ -97.32717, 45.54256 ], [ -97.32505, 45.44834 ], [ -97.24891, 45.42542 ], [ -97.24445, 45.21342 ], [ -97.31979, 45.21278 ], [ -97.35908, 45.28311 ], [ -97.50993, 45.28169 ], [ -97.58473, 45.25736 ], [ -97.66078, 45.28011 ], [ -97.67276, 45.70412 ], [ -97.63806, 45.82233 ], [ -97.52388, 45.82351 ], [ -97.5251, 45.87063 ] ], [ [ -95.88568, 46.49103 ], [ -95.84705, 46.53815 ], [ -95.73144, 46.53799 ], [ -95.73166, 46.49084 ], [ -95.88568, 46.49103 ] ], [ [ -97.26352, 47.87815 ], [ -97.22153, 47.7604 ], [ -97.30025, 47.75977 ], [ -97.26352, 47.87815 ] ], [ [ -83.431, 40.70126 ], [ -83.45646, 40.75112 ], [ -83.31757, 40.73861 ], [ -83.28754, 40.71209 ], [ -83.37554, 40.62489 ], [ -83.4541, 40.58438 ], [ -83.55803, 40.59368 ], [ -83.54429, 40.66382 ], [ -83.44025, 40.65451 ], [ -83.431, 40.70126 ] ], [ [ -79.04911, 43.03799 ], [ -79.00039, 43.08014 ], [ -78.8573, 43.06327 ], [ -78.87689, 42.99377 ], [ -78.83814, 42.86946 ], [ -78.87071, 42.75363 ], [ -78.91926, 42.71152 ], [ -79.03241, 42.70097 ], [ -79.08722, 42.63562 ], [ -79.11281, 42.5429 ], [ -79.2611, 42.53634 ], [ -79.32182, 42.44772 ], [ -79.44067, 42.41365 ], [ -79.50102, 42.32495 ], [ -79.60718, 42.33715 ], [ -79.77328, 42.26045 ], [ -79.82693, 42.19481 ], [ -79.99238, 42.11786 ], [ -80.13359, 42.13362 ], [ -80.2161, 42.09499 ], [ -80.26914, 42.02919 ], [ -80.35142, 41.99048 ], [ -80.45717, 42.00205 ], [ -80.46883, 41.95557 ], [ -80.6098, 41.97087 ], [ -80.66231, 41.90492 ], [ -80.74419, 41.86598 ], [ -80.88502, 41.88101 ], [ -80.86115, 41.83075 ], [ -81.00193, 41.84566 ], [ -81.05393, 41.77956 ], [ -81.15945, 41.79062 ], [ -81.17055, 41.74408 ], [ -81.27604, 41.75505 ], [ -81.35734, 41.71576 ], [ -81.4143, 41.62624 ], [ -81.48452, 41.63345 ], [ -81.54122, 41.54388 ], [ -81.61136, 41.55102 ], [ -81.69219, 41.51153 ], [ -81.74319, 41.44517 ], [ -81.95339, 41.4662 ], [ -82.08842, 41.50336 ], [ -82.09878, 41.45674 ], [ -82.20394, 41.46703 ], [ -82.21421, 41.42039 ], [ -82.35946, 41.41066 ], [ -82.3696, 41.36401 ], [ -82.57974, 41.38412 ], [ -82.6799, 41.41739 ], [ -82.66998, 41.46406 ], [ -82.81525, 41.45386 ], [ -82.82507, 41.40718 ], [ -83.00041, 41.4234 ], [ -83.10085, 41.45638 ], [ -83.07678, 41.57311 ], [ -83.18229, 41.58268 ], [ -83.23835, 41.65907 ], [ -83.4145, 41.67477 ], [ -83.51556, 41.70745 ], [ -83.49685, 41.80088 ], [ -83.40736, 41.88808 ], [ -83.3319, 41.90517 ], [ -83.24203, 41.99226 ], [ -83.20356, 42.17902 ], [ -83.16805, 42.17584 ], [ -83.13411, 42.33922 ], [ -83.08875, 42.3827 ], [ -82.94629, 42.36984 ], [ -82.91165, 42.53315 ], [ -82.83028, 42.5733 ], [ -82.80024, 42.71325 ], [ -82.62129, 42.6968 ], [ -82.63653, 42.62684 ], [ -82.56505, 42.62021 ], [ -82.58033, 42.55026 ], [ -82.40191, 42.53353 ], [ -82.41735, 42.4636 ], [ -82.35642, 42.41023 ], [ -82.41257, 42.32036 ], [ -82.49389, 42.28043 ], [ -82.74272, 42.30363 ], [ -82.88994, 42.29337 ], [ -82.95122, 42.34651 ], [ -83.00155, 42.27973 ], [ -83.07268, 42.28616 ], [ -83.1019, 42.14613 ], [ -83.04069, 42.09304 ], [ -83.05044, 42.04637 ], [ -82.90875, 42.03347 ], [ -82.68631, 42.0605 ], [ -82.54467, 42.04724 ], [ -82.40782, 42.1771 ], [ -82.30143, 42.16697 ], [ -82.13874, 42.24655 ], [ -82.12828, 42.29316 ], [ -81.98623, 42.27935 ], [ -81.8282, 42.33528 ], [ -81.8014, 42.45174 ], [ -81.54966, 42.59346 ], [ -81.42059, 42.67579 ], [ -81.24214, 42.65764 ], [ -80.98109, 42.67838 ], [ -80.76711, 42.65593 ], [ -80.45822, 42.57519 ], [ -80.42282, 42.7146 ], [ -80.3515, 42.70688 ], [ -80.29201, 42.79592 ], [ -80.20861, 42.83459 ], [ -80.09543, 42.84605 ], [ -79.8812, 42.8223 ], [ -79.82707, 42.88794 ], [ -79.6128, 42.86379 ], [ -79.49945, 42.87479 ], [ -79.48689, 42.92118 ], [ -79.30199, 42.92385 ], [ -79.15918, 42.90727 ], [ -79.05857, 42.87157 ], [ -79.03276, 42.96427 ], [ -79.04911, 43.03799 ] ], [ [ -84.4206, 43.20776 ], [ -84.40281, 43.30125 ], [ -84.35765, 43.34512 ], [ -84.28516, 43.33933 ], [ -84.25795, 43.28969 ], [ -84.27595, 43.19621 ], [ -84.4206, 43.20776 ] ] ], [ [ [ -79.10462, 44.43228 ], [ -79.1478, 44.41327 ], [ -79.17405, 44.32055 ], [ -79.28367, 44.33299 ], [ -79.29668, 44.28662 ], [ -79.40626, 44.29896 ], [ -79.45137, 44.13663 ], [ -79.43423, 44.06297 ], [ -79.3679, 44.03158 ], [ -79.41291, 43.86926 ], [ -79.44919, 43.87336 ], [ -79.50659, 43.66464 ], [ -79.43428, 43.65647 ], [ -79.37892, 43.72193 ], [ -79.29368, 43.76006 ], [ -79.22128, 43.75179 ], [ -79.1591, 43.84035 ], [ -79.0504, 43.82783 ], [ -79.02417, 43.92051 ], [ -78.91535, 43.90789 ], [ -78.78661, 43.96467 ], [ -78.73985, 44.12679 ], [ -78.9152, 44.17117 ], [ -78.89527, 44.24067 ], [ -79.00468, 44.25331 ], [ -78.98483, 44.32282 ], [ -79.03144, 44.42391 ], [ -79.10462, 44.43228 ] ] ], [ [ [ -89.13947, 45.20469 ], [ -89.14492, 45.1577 ], [ -88.99755, 45.12733 ], [ -88.98921, 45.1978 ], [ -89.13947, 45.20469 ] ] ], [ [ [ -79.70352, 44.45152 ], [ -79.55055, 44.45853 ], [ -79.46437, 44.49677 ], [ -79.43849, 44.58954 ], [ -79.57896, 44.62904 ], [ -79.59644, 44.7027 ], [ -79.70045, 44.73802 ], [ -79.92148, 44.76204 ], [ -79.89727, 44.71163 ], [ -79.93507, 44.57236 ], [ -79.91722, 44.49875 ], [ -79.80717, 44.48678 ], [ -79.7945, 44.53319 ], [ -79.71474, 44.54836 ], [ -79.70352, 44.45152 ] ] ], [ [ [ -88.74084, 45.3751 ], [ -88.73216, 45.44557 ], [ -88.8453, 45.45094 ], [ -88.78425, 45.32992 ], [ -88.74084, 45.3751 ] ] ], [ [ [ -89.45341, 48.17377 ], [ -89.33475, 48.16883 ], [ -89.32917, 48.21597 ], [ -89.44793, 48.22091 ], [ -89.45341, 48.17377 ] ] ], [ [ [ -88.751, 48.38024 ], [ -88.74186, 48.45094 ], [ -88.82133, 48.45454 ], [ -88.83036, 48.38383 ], [ -88.751, 48.38024 ] ] ], [ [ [ -75.79225, 37.44959 ], [ -75.73849, 37.514 ], [ -75.67332, 37.50394 ], [ -75.65202, 37.57334 ], [ -75.7825, 37.59345 ], [ -75.88294, 37.48773 ], [ -75.94593, 37.27935 ], [ -75.84147, 37.28755 ], [ -75.8204, 37.357 ], [ -75.74832, 37.37013 ], [ -75.79225, 37.44959 ] ] ], [ [ [ -75.49692, 37.74315 ], [ -75.51525, 37.79446 ], [ -75.58068, 37.8046 ], [ -75.68175, 37.69907 ], [ -75.55824, 37.65574 ], [ -75.49692, 37.74315 ] ] ], [ [ [ -76.40226, 38.26723 ], [ -76.36064, 38.40608 ], [ -76.41293, 38.46207 ], [ -76.47915, 38.47176 ], [ -76.52606, 38.4303 ], [ -76.56049, 38.31455 ], [ -76.5412, 38.26343 ], [ -76.47518, 38.25377 ], [ -76.40226, 38.26723 ] ] ], [ [ [ -77.57003, 39.13196 ], [ -77.69762, 39.17333 ], [ -77.72382, 39.0806 ], [ -77.58322, 39.0856 ], [ -77.57003, 39.13196 ] ] ], [ [ [ -74.79502, 38.96593 ], [ -74.74663, 39.00675 ], [ -74.75715, 39.0811 ], [ -74.82374, 39.09158 ], [ -74.87968, 39.0277 ], [ -74.94624, 39.03812 ], [ -74.94302, 38.94074 ], [ -74.88409, 38.90727 ], [ -74.79502, 38.96593 ] ] ], [ [ [ -77.51084, 39.4609 ], [ -77.49713, 39.38683 ], [ -77.42984, 39.37765 ], [ -77.40979, 39.44713 ], [ -77.51084, 39.4609 ] ] ], [ [ [ -76.82684, 39.99266 ], [ -76.6982, 39.95052 ], [ -76.65029, 39.99196 ], [ -76.78595, 40.01102 ], [ -76.82684, 39.99266 ] ] ], [ [ [ -76.95502, 40.15498 ], [ -76.92728, 40.24744 ], [ -76.99541, 40.25685 ], [ -77.01616, 40.1875 ], [ -76.95502, 40.15498 ] ] ], [ [ [ -74.25816, 40.45573 ], [ -74.17433, 40.49091 ], [ -74.11641, 40.55441 ], [ -73.98045, 40.53276 ], [ -73.9223, 40.59617 ], [ -73.7782, 40.59727 ], [ -73.60829, 40.56978 ], [ -73.38809, 40.58235 ], [ -73.30362, 40.61701 ], [ -73.28703, 40.66282 ], [ -73.14277, 40.66327 ], [ -73.12605, 40.70907 ], [ -72.9477, 40.70368 ], [ -72.85437, 40.76095 ], [ -72.93952, 40.82378 ], [ -73.07574, 40.84644 ], [ -73.13496, 40.78339 ], [ -73.1947, 40.81754 ], [ -73.36509, 40.84552 ], [ -73.50976, 40.84485 ], [ -73.56032, 40.80454 ], [ -73.62031, 40.83851 ], [ -73.78125, 40.7917 ], [ -73.70774, 40.99807 ], [ -73.63934, 40.98707 ], [ -73.57341, 41.17042 ], [ -73.48825, 41.20517 ], [ -73.43834, 41.34261 ], [ -73.31934, 41.46886 ], [ -73.37983, 41.50292 ], [ -73.37237, 41.62297 ], [ -73.44141, 41.6341 ], [ -73.501, 41.57094 ], [ -73.63904, 41.59303 ], [ -73.61412, 41.66176 ], [ -73.71782, 41.67826 ], [ -73.87262, 41.6543 ], [ -73.85617, 41.70015 ], [ -73.98643, 41.74483 ], [ -74.10666, 41.71518 ], [ -74.18188, 41.60587 ], [ -74.17162, 41.53166 ], [ -74.3098, 41.55311 ], [ -74.42151, 41.54615 ], [ -74.48004, 41.48258 ], [ -74.59904, 41.13807 ], [ -74.48013, 41.16814 ], [ -74.55134, 40.96141 ], [ -74.60133, 40.92074 ], [ -74.75698, 40.99299 ], [ -74.89419, 41.01387 ], [ -74.98167, 41.07545 ], [ -75.39432, 41.13705 ], [ -75.54714, 41.11127 ], [ -75.7193, 41.13639 ], [ -75.77614, 41.07228 ], [ -75.87941, 41.08722 ], [ -75.96307, 41.05103 ], [ -76.01958, 40.98682 ], [ -76.08837, 40.99667 ], [ -76.25511, 40.924 ], [ -76.28413, 40.83173 ], [ -76.33291, 40.79045 ], [ -76.40153, 40.80015 ], [ -76.43028, 40.70784 ], [ -76.51312, 40.67132 ], [ -76.59846, 40.39425 ], [ -76.58692, 40.19988 ], [ -76.52599, 40.16718 ], [ -76.52034, 40.06997 ], [ -76.45957, 40.03723 ], [ -76.41307, 39.95828 ], [ -76.25286, 39.79055 ], [ -76.3613, 39.78206 ], [ -76.49643, 39.80141 ], [ -76.52319, 39.82933 ], [ -76.63165, 39.82063 ], [ -76.80079, 39.84447 ], [ -76.77992, 39.91382 ], [ -76.84074, 39.94642 ], [ -77.01028, 39.97 ], [ -77.05108, 39.95157 ], [ -77.18677, 39.97024 ], [ -77.32932, 39.96564 ], [ -77.31571, 39.8916 ], [ -77.38335, 39.78049 ], [ -77.47821, 39.81742 ], [ -77.45136, 39.91002 ], [ -77.51921, 39.91918 ], [ -77.49237, 40.01178 ], [ -77.41093, 40.04889 ], [ -77.30898, 40.03506 ], [ -77.22741, 40.07207 ], [ -77.1729, 40.13682 ], [ -77.07086, 40.12281 ], [ -77.0433, 40.21531 ], [ -77.07046, 40.24311 ], [ -77.20677, 40.26176 ], [ -77.26135, 40.19701 ], [ -77.36355, 40.21087 ], [ -77.37711, 40.1646 ], [ -77.45872, 40.1275 ], [ -77.55364, 40.04407 ], [ -77.62165, 40.05317 ], [ -77.66898, 40.0114 ], [ -77.72207, 39.82612 ], [ -77.78987, 39.83515 ], [ -77.86212, 39.58027 ], [ -77.98298, 39.52415 ], [ -78.01539, 39.40822 ], [ -77.9545, 39.37611 ], [ -77.9403, 39.30208 ], [ -77.96622, 39.20932 ], [ -77.86546, 39.19588 ], [ -77.77871, 39.25643 ], [ -77.73281, 39.41868 ], [ -77.65225, 39.45596 ], [ -77.58487, 39.44687 ], [ -77.56496, 39.51636 ], [ -77.46381, 39.50264 ], [ -77.38989, 39.63698 ], [ -77.28859, 39.62313 ], [ -77.23462, 39.56756 ], [ -77.25489, 39.49812 ], [ -77.10009, 39.42854 ], [ -77.04644, 39.37288 ], [ -77.16783, 39.19705 ], [ -77.27516, 39.18784 ], [ -77.30197, 39.09519 ], [ -77.235, 39.08591 ], [ -77.22839, 38.98862 ], [ -77.29526, 38.9979 ], [ -77.34881, 39.05348 ], [ -77.38876, 38.91446 ], [ -77.38857, 38.79397 ], [ -77.3219, 38.78474 ], [ -77.34184, 38.71521 ], [ -77.20868, 38.69666 ], [ -77.202, 38.71983 ], [ -77.0356, 38.69645 ], [ -77.05581, 38.62696 ], [ -76.86329, 38.5755 ], [ -76.85049, 38.50128 ], [ -76.78419, 38.49178 ], [ -76.73739, 38.53332 ], [ -76.7569, 38.5844 ], [ -76.72953, 38.677 ], [ -76.73538, 38.77436 ], [ -76.55517, 38.79668 ], [ -76.46079, 38.87956 ], [ -76.42589, 38.99519 ], [ -76.35916, 38.98549 ], [ -76.35385, 38.88814 ], [ -76.28723, 38.8784 ], [ -76.34856, 38.79078 ], [ -76.30308, 38.71167 ], [ -76.17727, 38.66898 ], [ -76.15818, 38.61783 ], [ -76.29088, 38.63741 ], [ -76.2857, 38.54002 ], [ -76.34673, 38.45236 ], [ -76.28753, 38.41947 ], [ -76.30844, 38.35006 ], [ -76.17631, 38.33049 ], [ -76.10324, 38.34379 ], [ -76.05388, 38.50565 ], [ -75.99242, 38.59317 ], [ -75.85991, 38.5733 ], [ -75.81247, 38.61452 ], [ -75.78377, 38.70692 ], [ -75.68855, 38.78928 ], [ -75.65831, 38.66376 ], [ -75.59927, 38.63059 ], [ -75.52253, 38.76405 ], [ -75.57439, 38.82034 ], [ -75.64085, 38.83042 ], [ -75.65235, 38.90472 ], [ -75.7189, 38.91477 ], [ -75.65361, 39.12252 ], [ -75.5681, 39.06124 ], [ -75.60454, 38.94585 ], [ -75.5193, 38.88452 ], [ -75.32726, 38.83091 ], [ -75.39328, 38.62324 ], [ -75.32707, 38.61302 ], [ -75.19116, 38.49507 ], [ -75.22794, 38.37968 ], [ -75.18407, 38.30015 ], [ -75.11822, 38.28984 ], [ -75.02195, 38.58973 ], [ -75.02527, 38.68716 ], [ -75.09493, 38.79493 ], [ -75.24608, 38.86681 ], [ -75.34576, 38.88216 ], [ -75.35694, 38.95648 ], [ -75.42349, 38.96667 ], [ -75.40145, 39.03588 ], [ -75.46475, 39.16647 ], [ -75.44268, 39.23567 ], [ -75.49485, 39.29195 ], [ -75.56177, 39.30207 ], [ -75.52506, 39.4174 ], [ -75.58478, 39.45057 ], [ -75.4956, 39.50964 ], [ -75.39492, 39.49441 ], [ -75.36524, 39.58662 ], [ -75.257, 39.59433 ], [ -75.12268, 39.57377 ], [ -75.0665, 39.63771 ], [ -74.96573, 39.62216 ], [ -74.95057, 39.66821 ], [ -74.84977, 39.65258 ], [ -74.82688, 39.72164 ], [ -74.66166, 39.79269 ], [ -74.59437, 39.78214 ], [ -74.44682, 39.90422 ], [ -74.38187, 39.99085 ], [ -74.27174, 40.31255 ], [ -74.30563, 40.3179 ], [ -74.25816, 40.45573 ] ], [ [ -77.86212, 39.58027 ], [ -77.7468, 39.49273 ], [ -77.75994, 39.44638 ], [ -77.89478, 39.46437 ], [ -77.86212, 39.58027 ] ], [ [ -76.42974, 39.21295 ], [ -76.3293, 39.19839 ], [ -76.23086, 39.06332 ], [ -76.4119, 39.04143 ], [ -76.43131, 39.09252 ], [ -76.40328, 39.18499 ], [ -76.42974, 39.21295 ] ], [ [ -76.09568, 39.50224 ], [ -76.08135, 39.54842 ], [ -75.94686, 39.52866 ], [ -75.93491, 39.45445 ], [ -76.09568, 39.50224 ] ] ], [ [ [ -74.25816, 40.45573 ], [ -74.1383, 40.38829 ], [ -74.07048, 40.37749 ], [ -74.04649, 40.44636 ], [ -74.18229, 40.46795 ], [ -74.25816, 40.45573 ] ] ], [ [ [ -76.47735, 40.78673 ], [ -76.39433, 40.82322 ], [ -76.44144, 40.90212 ], [ -76.61338, 40.92617 ], [ -76.68333, 40.81551 ], [ -76.59457, 40.75499 ], [ -76.49167, 40.74057 ], [ -76.47735, 40.78673 ] ] ], [ [ [ -76.78545, 40.95 ], [ -76.7571, 41.04236 ], [ -76.82606, 41.05185 ], [ -76.88171, 40.9873 ], [ -76.78545, 40.95 ] ] ], [ [ [ -72.78638, 40.74954 ], [ -72.64192, 40.74947 ], [ -72.55683, 40.78368 ], [ -72.56508, 40.85803 ], [ -72.6672, 40.8753 ], [ -72.70136, 40.78383 ], [ -72.78638, 40.74954 ] ] ], [ [ [ -73.019, 41.58972 ], [ -73.02791, 41.664 ], [ -73.19205, 41.71505 ], [ -73.22591, 41.62351 ], [ -73.16539, 41.58939 ], [ -73.019, 41.58972 ] ] ], [ [ [ -72.76928, 41.66993 ], [ -72.63116, 41.74415 ], [ -72.69154, 41.77849 ], [ -72.7779, 41.74423 ], [ -72.79515, 41.69851 ], [ -72.93322, 41.72128 ], [ -72.95035, 41.67554 ], [ -72.81238, 41.65278 ], [ -72.76928, 41.66993 ] ] ] ] } },
{ "type": "Feature", "properties": { "ID": 3 }, "geometry": { "type": "MultiPolygon", "coordinates": [ [ [ [ -110.72449, 33.94166 ], [ -110.53668, 33.96366 ], [ -110.47165, 34.11599 ], [ -110.40888, 34.12323 ], [ -110.43296, 34.24105 ], [ -110.38932, 34.34251 ], [ -110.46679, 34.71924 ], [ -110.57643, 34.77893 ], [ -110.58625, 34.82598 ], [ -110.75275, 34.99943 ], [ -110.82628, 35.03905 ], [ -110.88982, 35.03162 ], [ -111.0321, 35.08715 ], [ -111.04227, 35.13413 ], [ -111.23305, 35.11144 ], [ -111.28034, 35.17806 ], [ -111.82066, 35.11203 ], [ -111.90516, 35.05322 ], [ -111.75163, 34.95172 ], [ -111.74101, 34.90478 ], [ -111.6671, 34.86568 ], [ -111.54661, 34.32529 ], [ -111.42092, 34.34079 ], [ -111.40031, 34.24671 ], [ -111.35866, 34.20351 ], [ -111.23314, 34.21883 ], [ -111.1653, 34.2029 ], [ -111.18147, 34.12849 ], [ -111.15115, 33.98723 ], [ -111.08354, 33.97126 ], [ -111.03724, 33.90437 ], [ -110.84963, 33.92684 ], [ -110.77723, 33.88713 ], [ -110.72449, 33.94166 ] ] ], [ [ [ -112.29393, 34.76233 ], [ -112.38862, 34.75008 ], [ -112.3721, 34.67971 ], [ -112.32412, 34.61341 ], [ -112.20353, 34.65314 ], [ -112.172, 34.65719 ], [ -112.16219, 34.75509 ], [ -112.22533, 34.747 ], [ -112.29393, 34.76233 ] ] ] ] } },
{ "type": "Feature", "properties": { "ID": 4 }, "geometry": { "type": "MultiPolygon", "coordinates": [ [ [ [ -113.46182, 33.05253 ], [ -113.50981, 33.11865 ], [ -113.55407, 33.03936 ], [ -113.46182, 33.05253 ] ] ], [ [ [ -112.28644, 33.33519 ], [ -112.29719, 33.38227 ], [ -112.4156, 33.34232 ], [ -112.57025, 33.32165 ], [ -112.68841, 33.28144 ], [ -112.72145, 33.42256 ], [ -112.62308, 33.41158 ], [ -112.68363, 33.67021 ], [ -112.80786, 33.65343 ], [ -112.83652, 33.50399 ], [ -112.89848, 33.49554 ], [ -112.88982, 33.59377 ], [ -113.04487, 33.57252 ], [ -113.17453, 33.57886 ], [ -113.25933, 33.66416 ], [ -113.23972, 33.71543 ], [ -113.36389, 33.6981 ], [ -113.46277, 33.70849 ], [ -113.47434, 33.75542 ], [ -113.59853, 33.73786 ], [ -113.75956, 33.73919 ], [ -113.83934, 33.80061 ], [ -113.93248, 33.78719 ], [ -113.87915, 33.57618 ], [ -113.80547, 33.5382 ], [ -113.77611, 33.42088 ], [ -113.71432, 33.42977 ], [ -113.66594, 33.36378 ], [ -113.51152, 33.38582 ], [ -113.41308, 33.37546 ], [ -113.43607, 33.4694 ], [ -113.30659, 33.46332 ], [ -113.27807, 33.34587 ], [ -113.43248, 33.32412 ], [ -113.41527, 33.25364 ], [ -113.23582, 33.3032 ], [ -113.21315, 33.20918 ], [ -113.30564, 33.1962 ], [ -113.28858, 33.12569 ], [ -113.33309, 33.04647 ], [ -113.32172, 32.99945 ], [ -113.38319, 32.99074 ], [ -113.25137, 32.83914 ], [ -113.10624, 32.76225 ], [ -113.05886, 32.69591 ], [ -112.9112, 32.74078 ], [ -112.92226, 32.78788 ], [ -112.79954, 32.80481 ], [ -112.76336, 32.78547 ], [ -112.58463, 32.83415 ], [ -112.60093, 32.90481 ], [ -112.52493, 32.98794 ], [ -112.56658, 33.03089 ], [ -112.58836, 33.12506 ], [ -112.49584, 33.13751 ], [ -112.40178, 33.00447 ], [ -112.33482, 32.98913 ], [ -112.21162, 33.00547 ], [ -112.19676, 33.08022 ], [ -112.21807, 33.17444 ], [ -112.34832, 33.32701 ], [ -112.28644, 33.33519 ] ], [ [ -112.98626, 32.92486 ], [ -113.00298, 32.99546 ], [ -112.94145, 33.00398 ], [ -112.95814, 33.07456 ], [ -112.80413, 33.09574 ], [ -112.7931, 33.04867 ], [ -112.72601, 33.03354 ], [ -112.74032, 32.95872 ], [ -112.81604, 32.87545 ], [ -112.90818, 32.86276 ], [ -112.98626, 32.92486 ] ], [ [ -113.21944, 33.49978 ], [ -113.08992, 33.49348 ], [ -113.06738, 33.39949 ], [ -113.11793, 33.34392 ], [ -113.19105, 33.38232 ], [ -113.21944, 33.49978 ] ], [ [ -113.69921, 33.62636 ], [ -113.79215, 33.61303 ], [ -113.80393, 33.65993 ], [ -113.71093, 33.67327 ], [ -113.69921, 33.62636 ] ] ], [ [ [ -114.09857, 33.93317 ], [ -114.03039, 33.91878 ], [ -114.05437, 34.01247 ], [ -114.11662, 34.00343 ], [ -114.09857, 33.93317 ] ] ], [ [ [ -113.62989, 34.12179 ], [ -113.63173, 34.0002 ], [ -113.56942, 34.00901 ], [ -113.55578, 34.08372 ], [ -113.62989, 34.12179 ] ] ], [ [ [ -113.57529, 34.4205 ], [ -113.58898, 34.34585 ], [ -113.68289, 34.33262 ], [ -113.82589, 34.38512 ], [ -113.95109, 34.36724 ], [ -114.00644, 34.45635 ], [ -114.16911, 34.45715 ], [ -114.18309, 34.26091 ], [ -114.1347, 34.07367 ], [ -114.04123, 34.08724 ], [ -114.05324, 34.13407 ], [ -113.90324, 34.17995 ], [ -113.85417, 34.11416 ], [ -113.69818, 34.13639 ], [ -113.62989, 34.12179 ], [ -113.61628, 34.19649 ], [ -113.5538, 34.20529 ], [ -113.49338, 34.09249 ], [ -113.40556, 34.12902 ], [ -113.27488, 34.12292 ], [ -113.29793, 34.21671 ], [ -113.34655, 34.2827 ], [ -113.4892, 34.33558 ], [ -113.5009, 34.38243 ], [ -113.57529, 34.4205 ] ] ], [ [ [ -110.67388, 33.07751 ], [ -110.69996, 33.0502 ], [ -110.82356, 33.03537 ], [ -110.85934, 33.05526 ], [ -110.89024, 33.05152 ], [ -110.87069, 32.95705 ], [ -110.83009, 32.91353 ], [ -110.7067, 32.92837 ], [ -110.72119, 32.99926 ], [ -110.65942, 33.00664 ], [ -110.67388, 33.07751 ] ] ], [ [ [ -111.40442, 33.08507 ], [ -111.49706, 33.07343 ], [ -111.54837, 33.16388 ], [ -111.62046, 33.20321 ], [ -111.6823, 33.19536 ], [ -111.76466, 33.13637 ], [ -111.74395, 33.04206 ], [ -111.64112, 33.00671 ], [ -111.58455, 33.03814 ], [ -111.4611, 33.05373 ], [ -111.40442, 33.08507 ] ] ], [ [ [ -111.92484, 33.28543 ], [ -112.03349, 33.34407 ], [ -112.12636, 33.33197 ], [ -112.11043, 33.26132 ], [ -112.17227, 33.25322 ], [ -112.14037, 33.11189 ], [ -111.95517, 33.13606 ], [ -111.85731, 33.12447 ], [ -111.87819, 33.21874 ], [ -111.92484, 33.28543 ] ] ], [ [ [ -112.12199, 33.45373 ], [ -112.11135, 33.40665 ], [ -111.98738, 33.42274 ], [ -111.99794, 33.46984 ], [ -112.12199, 33.45373 ] ] ], [ [ [ -112.30927, 33.5746 ], [ -112.27822, 33.57868 ], [ -112.31059, 33.7198 ], [ -112.35253, 33.76274 ], [ -112.53922, 33.73802 ], [ -112.58493, 33.6592 ], [ -112.47534, 33.6011 ], [ -112.42411, 33.65637 ], [ -112.30927, 33.5746 ] ] ], [ [ [ -111.74631, 34.92825 ], [ -111.9363, 34.9045 ], [ -112.07914, 34.95888 ], [ -112.08999, 35.00579 ], [ -112.11081, 34.95486 ], [ -112.17413, 34.9468 ], [ -112.19487, 34.89584 ], [ -112.28975, 34.88367 ], [ -112.29393, 34.76233 ], [ -112.22533, 34.747 ], [ -112.19376, 34.75105 ], [ -112.17851, 34.82548 ], [ -112.05665, 34.72024 ], [ -112.03508, 34.62635 ], [ -112.12964, 34.61429 ], [ -112.14047, 34.66123 ], [ -112.20353, 34.65314 ], [ -112.32412, 34.61341 ], [ -112.3721, 34.67971 ], [ -112.43515, 34.67151 ], [ -112.47053, 34.54599 ], [ -112.33917, 34.53893 ], [ -112.29677, 34.49607 ], [ -112.27496, 34.40218 ], [ -112.33231, 34.37054 ], [ -112.28457, 34.30418 ], [ -112.26284, 34.21024 ], [ -112.20987, 34.12033 ], [ -112.29829, 34.08463 ], [ -112.41394, 34.16631 ], [ -112.39905, 34.24086 ], [ -112.42098, 34.33478 ], [ -112.49474, 34.37349 ], [ -112.41787, 34.04476 ], [ -112.38662, 34.04886 ], [ -112.13458, 33.79122 ], [ -112.12388, 33.74418 ], [ -112.03047, 33.75627 ], [ -111.88481, 33.67814 ], [ -111.83795, 33.6115 ], [ -111.68246, 33.63125 ], [ -111.70317, 33.58022 ], [ -111.66172, 33.53705 ], [ -111.61009, 33.30143 ], [ -111.54303, 33.28567 ], [ -111.49164, 33.19525 ], [ -111.4247, 33.17943 ], [ -111.40442, 33.08507 ], [ -111.35839, 33.01815 ], [ -111.41504, 32.98682 ], [ -111.43068, 32.91215 ], [ -111.40038, 32.77051 ], [ -111.26735, 32.73869 ], [ -111.22578, 32.84082 ], [ -111.21992, 32.9627 ], [ -111.15823, 32.97033 ], [ -111.14229, 33.04496 ], [ -111.22906, 33.15533 ], [ -111.26926, 33.34404 ], [ -111.34138, 33.38352 ], [ -111.4034, 33.3758 ], [ -111.45481, 33.46622 ], [ -111.43397, 33.51722 ], [ -111.40289, 33.52109 ], [ -111.43352, 33.66245 ], [ -111.41771, 33.73698 ], [ -111.23066, 33.76003 ], [ -111.10088, 33.75167 ], [ -111.08086, 33.6574 ], [ -111.03974, 33.61404 ], [ -110.94633, 33.62532 ], [ -110.92508, 33.67622 ], [ -110.74781, 33.74569 ], [ -110.69515, 33.80023 ], [ -110.67854, 33.87464 ], [ -110.61601, 33.88198 ], [ -110.58959, 33.90921 ], [ -110.5993, 33.95636 ], [ -110.72449, 33.94166 ], [ -110.77723, 33.88713 ], [ -110.84963, 33.92684 ], [ -111.03724, 33.90437 ], [ -111.08354, 33.97126 ], [ -111.15115, 33.98723 ], [ -111.18147, 34.12849 ], [ -111.1653, 34.2029 ], [ -111.23314, 34.21883 ], [ -111.35866, 34.20351 ], [ -111.40031, 34.24671 ], [ -111.42092, 34.34079 ], [ -111.54661, 34.32529 ], [ -111.6671, 34.86568 ], [ -111.74101, 34.90478 ], [ -111.74631, 34.92825 ] ] ] ] } },
{ "type": "Feature", "properties": { "ID": 5 }, "geometry": { "type": "MultiPolygon", "coordinates": [ [ [ [ -97.13563, 31.59211 ], [ -97.16479, 31.49579 ], [ -97.07292, 31.49664 ], [ -97.0743, 31.59267 ], [ -97.13563, 31.59211 ] ] ], [ [ [ -99.73531, 32.04404 ], [ -99.7069, 32.0929 ], [ -99.71294, 32.21265 ], [ -99.77721, 32.25864 ], [ -99.86996, 32.25574 ], [ -99.83404, 32.16094 ], [ -99.98842, 32.15599 ], [ -100.11057, 32.12795 ], [ -100.13874, 32.07901 ], [ -100.29292, 32.07368 ], [ -100.28316, 31.906 ], [ -100.3461, 31.92777 ], [ -100.34046, 31.83193 ], [ -100.24826, 31.83518 ], [ -100.21206, 31.74038 ], [ -100.11996, 31.74354 ], [ -100.08661, 31.69663 ], [ -99.93192, 31.67772 ], [ -99.92938, 31.62975 ], [ -99.8374, 31.6327 ], [ -99.80182, 31.53772 ], [ -99.743, 31.58761 ], [ -99.65108, 31.59042 ], [ -99.65462, 31.66238 ], [ -99.74664, 31.65957 ], [ -99.7637, 31.99518 ], [ -99.73531, 32.04404 ] ] ], [ [ [ -100.81964, 33.03691 ], [ -100.82601, 33.13241 ], [ -100.91984, 33.12873 ], [ -100.91335, 33.03323 ], [ -100.81964, 33.03691 ] ] ], [ [ [ -110.67388, 33.07751 ], [ -110.68353, 33.12475 ], [ -110.80726, 33.10994 ], [ -110.76177, 33.0428 ], [ -110.69996, 33.0502 ], [ -110.67388, 33.07751 ] ] ], [ [ [ -110.85934, 33.05526 ], [ -110.874, 33.1261 ], [ -110.94077, 33.14222 ], [ -110.95554, 33.21303 ], [ -111.07936, 33.19795 ], [ -111.09925, 33.29233 ], [ -111.21226, 33.37527 ], [ -111.34138, 33.38352 ], [ -111.26926, 33.34404 ], [ -111.22906, 33.15533 ], [ -111.14229, 33.04496 ], [ -111.04469, 33.03272 ], [ -110.89024, 33.05152 ], [ -110.85934, 33.05526 ] ] ], [ [ [ -110.92508, 33.67622 ], [ -110.94633, 33.62532 ], [ -111.03974, 33.61404 ], [ -111.08086, 33.6574 ], [ -111.10088, 33.75167 ], [ -111.23066, 33.76003 ], [ -111.41771, 33.73698 ], [ -111.43352, 33.66245 ], [ -111.40289, 33.52109 ], [ -111.43397, 33.51722 ], [ -111.36674, 33.50138 ], [ -111.3509, 33.57593 ], [ -111.19536, 33.59508 ], [ -111.07586, 33.63383 ], [ -110.96756, 33.57441 ], [ -110.87419, 33.58564 ], [ -110.88404, 33.6328 ], [ -110.92508, 33.67622 ] ] ], [ [ [ -112.49474, 34.37349 ], [ -112.42098, 34.33478 ], [ -112.39905, 34.24086 ], [ -112.41394, 34.16631 ], [ -112.29829, 34.08463 ], [ -112.20987, 34.12033 ], [ -112.26284, 34.21024 ], [ -112.28457, 34.30418 ], [ -112.33231, 34.37054 ], [ -112.27496, 34.40218 ], [ -112.29677, 34.49607 ], [ -112.33917, 34.53893 ], [ -112.47053, 34.54599 ], [ -112.51684, 34.46736 ], [ -112.49474, 34.37349 ] ] ], [ [ [ -112.14047, 34.66123 ], [ -112.12964, 34.61429 ], [ -112.03508, 34.62635 ], [ -112.05665, 34.72024 ], [ -112.17851, 34.82548 ], [ -112.19376, 34.75105 ], [ -112.16219, 34.75509 ], [ -112.172, 34.65719 ], [ -112.14047, 34.66123 ] ] ], [ [ [ -111.75163, 34.95172 ], [ -111.90516, 35.05322 ], [ -112.03202, 35.03727 ], [ -112.08999, 35.00579 ], [ -112.07914, 34.95888 ], [ -111.9363, 34.9045 ], [ -111.74631, 34.92825 ], [ -111.75163, 34.95172 ] ] ], [ [ [ -99.31952, 36.49292 ], [ -99.32412, 36.58774 ], [ -99.38987, 36.58606 ], [ -99.38517, 36.49124 ], [ -99.31952, 36.49292 ] ] ], [ [ [ -90.72008, 29.04359 ], [ -90.63127, 29.03952 ], [ -90.62791, 29.08784 ], [ -90.71678, 29.09192 ], [ -90.72008, 29.04359 ] ] ], [ [ [ -90.38395, 29.17325 ], [ -90.38922, 29.10079 ], [ -90.33175, 29.07376 ], [ -90.32465, 29.17037 ], [ -90.38395, 29.17325 ] ] ], [ [ [ -90.13788, 29.66971 ], [ -90.08753, 29.54616 ], [ -89.99817, 29.5416 ], [ -89.9925, 29.61394 ], [ -90.04838, 29.6652 ], [ -90.13788, 29.66971 ] ] ], [ [ [ -92.08444, 29.65415 ], [ -92.07949, 29.75067 ], [ -92.1692, 29.75363 ], [ -92.17403, 29.65711 ], [ -92.08444, 29.65415 ] ] ], [ [ [ -90.88824, 30.09154 ], [ -90.80478, 29.99126 ], [ -90.74483, 29.9886 ], [ -90.71151, 30.03543 ], [ -90.80149, 30.03944 ], [ -90.79819, 30.08761 ], [ -90.88824, 30.09154 ] ] ], [ [ [ -89.50661, 30.04774 ], [ -89.17699, 30.02912 ], [ -89.16401, 30.17345 ], [ -89.25406, 30.17863 ], [ -89.29259, 30.08412 ], [ -89.50249, 30.09587 ], [ -89.50661, 30.04774 ] ] ], [ [ [ -88.88943, 30.2056 ], [ -88.88491, 30.25368 ], [ -89.00508, 30.26085 ], [ -89.00952, 30.21276 ], [ -88.88943, 30.2056 ] ] ], [ [ [ -86.26152, 31.13143 ], [ -86.17058, 31.124 ], [ -86.16427, 31.17182 ], [ -86.25526, 31.17925 ], [ -86.26152, 31.13143 ] ] ], [ [ [ -85.86088, 31.82281 ], [ -85.98324, 31.83299 ], [ -85.98973, 31.78528 ], [ -85.86088, 31.82281 ] ] ], [ [ [ -84.53427, 37.32115 ], [ -84.73238, 37.33815 ], [ -84.79451, 37.36727 ], [ -84.77879, 37.46134 ], [ -84.87807, 37.46969 ], [ -84.88587, 37.42265 ], [ -85.01819, 37.43367 ], [ -84.99504, 37.57478 ], [ -84.87214, 37.70758 ], [ -84.98563, 37.83614 ], [ -85.0522, 37.84161 ], [ -85.07392, 37.91485 ], [ -85.14058, 37.92028 ], [ -85.12137, 38.0378 ], [ -85.1805, 38.0902 ], [ -85.15362, 38.25469 ], [ -85.25413, 38.26275 ], [ -85.32872, 38.22109 ], [ -85.34384, 38.12708 ], [ -85.45912, 38.04096 ], [ -85.62617, 38.05398 ], [ -85.69665, 38.03562 ], [ -85.70394, 37.98858 ], [ -85.77795, 37.94665 ], [ -85.91144, 37.95677 ], [ -85.90431, 38.00382 ], [ -86.10126, 38.04228 ], [ -86.1172, 38.16238 ], [ -86.25118, 38.17216 ], [ -86.27433, 38.24516 ], [ -86.44204, 38.25717 ], [ -86.48235, 38.21248 ], [ -86.49585, 38.11835 ], [ -86.57284, 38.05245 ], [ -86.61957, 37.96063 ], [ -86.69954, 37.87109 ], [ -86.71593, 37.75333 ], [ -86.84918, 37.76252 ], [ -86.98563, 37.74802 ], [ -86.99198, 37.70089 ], [ -87.12516, 37.70981 ], [ -87.13765, 37.61554 ], [ -87.17711, 37.5706 ], [ -87.37654, 37.58365 ], [ -87.45505, 37.49362 ], [ -87.46105, 37.44645 ], [ -87.56651, 37.40563 ], [ -87.66601, 37.4119 ], [ -87.66016, 37.45908 ], [ -87.75685, 37.48888 ], [ -87.92292, 37.49906 ], [ -87.96179, 37.45388 ], [ -87.97587, 37.33589 ], [ -88.01461, 37.29069 ], [ -88.18023, 37.30055 ], [ -88.16651, 37.41856 ], [ -88.22744, 37.46966 ], [ -88.32978, 37.45184 ], [ -88.33516, 37.40463 ], [ -88.40953, 37.33762 ], [ -88.54216, 37.34513 ], [ -88.55781, 37.20344 ], [ -88.65709, 37.20898 ], [ -88.65195, 37.25622 ], [ -88.71565, 37.28349 ], [ -88.8482, 37.29069 ], [ -88.82009, 37.24166 ], [ -88.9857, 37.25052 ], [ -89.02859, 37.15777 ], [ -89.09476, 37.16123 ], [ -89.23894, 37.04989 ], [ -89.24366, 37.00262 ], [ -89.37341, 37.03294 ], [ -89.36414, 37.12749 ], [ -89.49646, 37.13405 ], [ -89.501, 37.08678 ], [ -89.64214, 36.99863 ], [ -89.74121, 37.00336 ], [ -89.74557, 36.95606 ], [ -89.84458, 36.96071 ], [ -89.91484, 36.91647 ], [ -89.99129, 36.80121 ], [ -90.05715, 36.80419 ], [ -90.0942, 36.75835 ], [ -90.16003, 36.76129 ], [ -90.19698, 36.71541 ], [ -90.29765, 36.69606 ], [ -90.46211, 36.70308 ], [ -90.45826, 36.75042 ], [ -90.58806, 36.77957 ], [ -90.65393, 36.78226 ], [ -90.69609, 36.66522 ], [ -90.82763, 36.67046 ], [ -90.83122, 36.6231 ], [ -90.99555, 36.62946 ], [ -90.99902, 36.58209 ], [ -91.16327, 36.58824 ], [ -91.15823, 36.6593 ], [ -91.28979, 36.66407 ], [ -91.28324, 36.7588 ], [ -91.21736, 36.75643 ], [ -91.27502, 36.87719 ], [ -91.34425, 36.83218 ], [ -91.67405, 36.84341 ], [ -91.68006, 36.74867 ], [ -91.81764, 36.65818 ], [ -92.01504, 36.6643 ], [ -92.01227, 36.71169 ], [ -92.0754, 36.76104 ], [ -92.1413, 36.76299 ], [ -92.13727, 36.83405 ], [ -92.50018, 36.84418 ], [ -92.50505, 36.74941 ], [ -92.80164, 36.75694 ], [ -92.8313, 36.82882 ], [ -93.26027, 36.83842 ], [ -93.33, 36.74498 ], [ -93.33185, 36.69758 ], [ -93.43066, 36.69955 ], [ -93.46007, 36.79499 ], [ -93.52776, 36.74884 ], [ -93.65961, 36.75125 ], [ -93.66124, 36.70384 ], [ -93.76006, 36.70556 ], [ -93.92767, 36.61343 ], [ -93.99207, 36.66186 ], [ -94.12377, 36.66381 ], [ -94.12247, 36.71122 ], [ -94.22131, 36.71259 ], [ -94.25244, 36.78415 ], [ -94.31724, 36.83242 ], [ -94.38326, 36.83324 ], [ -94.34795, 36.92763 ], [ -94.4135, 36.95214 ], [ -94.54578, 36.95366 ], [ -94.51011, 37.07177 ], [ -94.77513, 37.07448 ], [ -94.77555, 37.05079 ], [ -95.00738, 37.05273 ], [ -95.13956, 37.07735 ], [ -95.14016, 37.02996 ], [ -95.3057, 37.03093 ], [ -95.33742, 37.17326 ], [ -95.46996, 37.19755 ], [ -95.46958, 37.24493 ], [ -95.63566, 37.24549 ], [ -95.6354, 37.29286 ], [ -95.73512, 37.2931 ], [ -95.7353, 37.24572 ], [ -95.83495, 37.24588 ], [ -95.83483, 37.29326 ], [ -96.03426, 37.29336 ], [ -96.03424, 37.24598 ], [ -96.20032, 37.24584 ], [ -96.20018, 37.19846 ], [ -96.59847, 37.19726 ], [ -96.63144, 37.17342 ], [ -96.63056, 37.07864 ], [ -96.66323, 37.03109 ], [ -96.79567, 37.03036 ], [ -96.76362, 37.12533 ], [ -96.9294, 37.12428 ], [ -96.93005, 37.17166 ], [ -97.19546, 37.16953 ], [ -97.19462, 37.12215 ], [ -97.45983, 37.1195 ], [ -97.46085, 37.16688 ], [ -97.52827, 37.21351 ], [ -97.62785, 37.21233 ], [ -97.62899, 37.2597 ], [ -98.29324, 37.2499 ], [ -98.29485, 37.29726 ], [ -98.42777, 37.2949 ], [ -98.42948, 37.34225 ], [ -98.52923, 37.34039 ], [ -98.6669, 37.45616 ], [ -98.90003, 37.4513 ], [ -98.90206, 37.49863 ], [ -99.00203, 37.49642 ], [ -99.13532, 37.49336 ], [ -99.09873, 37.42313 ], [ -99.09438, 37.32845 ], [ -99.15975, 37.30322 ], [ -99.29264, 37.29999 ], [ -99.32353, 37.25182 ], [ -99.45632, 37.24843 ], [ -99.4539, 37.20109 ], [ -99.65163, 37.17209 ], [ -99.68221, 37.12382 ], [ -99.74847, 37.12196 ], [ -99.775, 37.00264 ], [ -99.70886, 37.00451 ], [ -99.67578, 37.00543 ], [ -99.63763, 36.91161 ], [ -99.70369, 36.90978 ], [ -99.66172, 36.74488 ], [ -99.59583, 36.7467 ], [ -99.59208, 36.67561 ], [ -99.49212, 36.65457 ], [ -99.3605, 36.658 ], [ -99.25837, 36.58938 ], [ -99.31952, 36.49292 ], [ -99.25048, 36.42344 ], [ -99.24038, 36.21 ], [ -99.20769, 36.21081 ], [ -99.19996, 36.04473 ], [ -99.13472, 36.04632 ], [ -99.12934, 35.92766 ], [ -99.19446, 35.92608 ], [ -99.19776, 35.99727 ], [ -99.29554, 35.99484 ], [ -99.28988, 35.87617 ], [ -99.32014, 35.82787 ], [ -99.41651, 35.8016 ], [ -99.5465, 35.79811 ], [ -99.54164, 35.70315 ], [ -99.67145, 35.69954 ], [ -99.66517, 35.58082 ], [ -99.59792, 35.53514 ], [ -99.59424, 35.46388 ], [ -99.65393, 35.36704 ], [ -99.65019, 35.29576 ], [ -99.58323, 35.25005 ], [ -99.57836, 35.15498 ], [ -99.51277, 35.13299 ], [ -99.508, 35.03789 ], [ -99.4735, 34.99121 ], [ -99.37598, 34.97001 ], [ -99.30726, 34.87655 ], [ -99.2067, 34.78384 ], [ -99.20129, 34.66486 ], [ -99.26524, 34.66323 ], [ -99.29388, 34.591 ], [ -99.28945, 34.49578 ], [ -99.41705, 34.49241 ], [ -99.54344, 34.46511 ], [ -99.54106, 34.41749 ], [ -99.6685, 34.41386 ], [ -99.66604, 34.36624 ], [ -99.82393, 34.33772 ], [ -99.82137, 34.2901 ], [ -99.91677, 34.28718 ], [ -99.9446, 34.21474 ], [ -100.03989, 34.21173 ], [ -100.03718, 34.16409 ], [ -100.13241, 34.16101 ], [ -100.15997, 34.08851 ], [ -100.22055, 34.03875 ], [ -100.34583, 34.01062 ], [ -100.37165, 33.91421 ], [ -100.36437, 33.79503 ], [ -100.45909, 33.7917 ], [ -100.45315, 33.69634 ], [ -100.57469, 33.62026 ], [ -100.57165, 33.57257 ], [ -100.63768, 33.61794 ], [ -100.6991, 33.59175 ], [ -100.69286, 33.49635 ], [ -100.7196, 33.4236 ], [ -100.59397, 33.42829 ], [ -100.58484, 33.28512 ], [ -100.55048, 33.23853 ], [ -100.4565, 33.24194 ], [ -100.45208, 33.17032 ], [ -100.57727, 33.16577 ], [ -100.61466, 33.26009 ], [ -100.67424, 33.21002 ], [ -100.66807, 33.11452 ], [ -100.54147, 33.09529 ], [ -100.50426, 33.0009 ], [ -100.72282, 32.99275 ], [ -100.78841, 33.03812 ], [ -100.78053, 32.9187 ], [ -100.65577, 32.92346 ], [ -100.6185, 32.82906 ], [ -100.5562, 32.83138 ], [ -100.55171, 32.75968 ], [ -100.48946, 32.76196 ], [ -100.45248, 32.66747 ], [ -100.17269, 32.67727 ], [ -100.16722, 32.58162 ], [ -100.06873, 32.48905 ], [ -100.00539, 32.46717 ], [ -99.94467, 32.4931 ], [ -99.91109, 32.44624 ], [ -99.78585, 32.4262 ], [ -99.78338, 32.37833 ], [ -99.65949, 32.38209 ], [ -99.6297, 32.40695 ], [ -99.63684, 32.55052 ], [ -99.5437, 32.55324 ], [ -99.51611, 32.6259 ], [ -99.45621, 32.6755 ], [ -99.43074, 32.79594 ], [ -99.36844, 32.79765 ], [ -99.33509, 32.75068 ], [ -99.36291, 32.67808 ], [ -99.32744, 32.58324 ], [ -99.42062, 32.58068 ], [ -99.38623, 32.50976 ], [ -99.3818, 32.41403 ], [ -99.41056, 32.3653 ], [ -99.28668, 32.36869 ], [ -99.28346, 32.29686 ], [ -99.22157, 32.2985 ], [ -99.21737, 32.20271 ], [ -99.09073, 32.13404 ], [ -99.05587, 32.03897 ], [ -98.99419, 32.0405 ], [ -98.93061, 31.99407 ], [ -98.9287, 31.94613 ], [ -98.74301, 31.92646 ], [ -98.74123, 31.87851 ], [ -98.61813, 31.88122 ], [ -98.61643, 31.83326 ], [ -98.37038, 31.83831 ], [ -98.36884, 31.79034 ], [ -98.21514, 31.79324 ], [ -98.21658, 31.84121 ], [ -97.97047, 31.84545 ], [ -97.84801, 31.87137 ], [ -97.75796, 31.96865 ], [ -97.57356, 31.99516 ], [ -97.57458, 32.04311 ], [ -97.51436, 32.1158 ], [ -97.4526, 32.11655 ], [ -97.42265, 32.16485 ], [ -97.4245, 32.26069 ], [ -97.33211, 32.2857 ], [ -97.30286, 32.38185 ], [ -97.30713, 32.62127 ], [ -97.15165, 32.62283 ], [ -97.05732, 32.55185 ], [ -96.90198, 32.55309 ], [ -96.71534, 32.53037 ], [ -96.65365, 32.5786 ], [ -96.65451, 32.67434 ], [ -96.5302, 32.69887 ], [ -96.53142, 32.86636 ], [ -96.40661, 32.86683 ], [ -96.34409, 32.8431 ], [ -96.34466, 32.96269 ], [ -96.25092, 32.96292 ], [ -96.2199, 33.03471 ], [ -96.12607, 33.03485 ], [ -96.12578, 32.86743 ], [ -96.15683, 32.79563 ], [ -96.28152, 32.79541 ], [ -96.28133, 32.74755 ], [ -96.37479, 32.7473 ], [ -96.37504, 32.79516 ], [ -96.46855, 32.79484 ], [ -96.46778, 32.67519 ], [ -96.52933, 32.57919 ], [ -96.52812, 32.41158 ], [ -96.59014, 32.4113 ], [ -96.62013, 32.29137 ], [ -96.61591, 31.78788 ], [ -96.6774, 31.78755 ], [ -96.67586, 31.61956 ], [ -96.70608, 31.57137 ], [ -96.67434, 31.45148 ], [ -96.61312, 31.45181 ], [ -96.61253, 31.37975 ], [ -96.67368, 31.37942 ], [ -96.70336, 31.28315 ], [ -96.79497, 31.28258 ], [ -96.79369, 31.16241 ], [ -96.82339, 31.09009 ], [ -96.94522, 31.08919 ], [ -96.88289, 30.96942 ], [ -96.91213, 30.87297 ], [ -97.03262, 30.7998 ], [ -97.12364, 30.79898 ], [ -97.12292, 30.75085 ], [ -97.21388, 30.74996 ], [ -97.24301, 30.67744 ], [ -97.33388, 30.67646 ], [ -97.36243, 30.57981 ], [ -97.42293, 30.57911 ], [ -97.45087, 30.45832 ], [ -97.51127, 30.45757 ], [ -97.54, 30.38491 ], [ -97.53804, 30.28852 ], [ -97.59831, 30.28773 ], [ -97.59073, 29.92601 ], [ -97.53074, 29.9268 ], [ -97.52881, 29.83027 ], [ -97.46751, 29.75862 ], [ -97.46566, 29.66203 ], [ -97.2843, 29.54336 ], [ -97.28349, 29.49503 ], [ -97.19402, 29.49598 ], [ -97.16237, 29.37543 ], [ -97.07169, 29.27957 ], [ -96.95183, 29.20805 ], [ -96.92125, 29.13571 ], [ -96.83219, 29.13638 ], [ -96.83167, 29.08799 ], [ -96.74266, 29.08859 ], [ -96.7422, 29.04019 ], [ -96.65325, 29.04072 ], [ -96.62262, 28.91984 ], [ -96.80024, 28.91875 ], [ -96.79975, 28.87032 ], [ -96.71099, 28.8709 ], [ -96.71055, 28.82246 ], [ -96.82881, 28.82168 ], [ -96.94619, 28.7481 ], [ -96.9456, 28.69964 ], [ -96.82752, 28.70055 ], [ -96.79775, 28.67652 ], [ -96.82624, 28.57936 ], [ -96.88463, 28.53044 ], [ -96.88189, 28.28788 ], [ -96.96999, 28.28717 ], [ -96.99781, 28.16556 ], [ -97.05644, 28.16503 ], [ -97.05351, 27.94645 ], [ -97.11095, 27.873 ], [ -97.11027, 27.82439 ], [ -97.19747, 27.7992 ], [ -97.1949, 27.62898 ], [ -97.13771, 27.70254 ], [ -97.07942, 27.70311 ], [ -97.08075, 27.80036 ], [ -96.9935, 27.82547 ], [ -96.99473, 27.92268 ], [ -96.90732, 27.94771 ], [ -96.87917, 28.04511 ], [ -96.82113, 28.09411 ], [ -96.70418, 28.11918 ], [ -96.67571, 28.21646 ], [ -96.49983, 28.24164 ], [ -96.50014, 28.29018 ], [ -96.41204, 28.29053 ], [ -96.38303, 28.36342 ], [ -96.32445, 28.41212 ], [ -96.23621, 28.41233 ], [ -96.20705, 28.5094 ], [ -96.11874, 28.53377 ], [ -96.00091, 28.53384 ], [ -96.00091, 28.58232 ], [ -95.91248, 28.58229 ], [ -95.91242, 28.63077 ], [ -95.79445, 28.63062 ], [ -95.70587, 28.65467 ], [ -95.70569, 28.70314 ], [ -95.61712, 28.70288 ], [ -95.61688, 28.75134 ], [ -95.52826, 28.75101 ], [ -95.49825, 28.82356 ], [ -95.37998, 28.82298 ], [ -95.37959, 28.87142 ], [ -95.26033, 28.96758 ], [ -95.20108, 28.96719 ], [ -95.17068, 29.0396 ], [ -95.0509, 29.13549 ], [ -94.90213, 29.15837 ], [ -94.84201, 29.20618 ], [ -94.84129, 29.25455 ], [ -94.78106, 29.30231 ], [ -94.66207, 29.30101 ], [ -94.65996, 29.42188 ], [ -94.62931, 29.46987 ], [ -94.51006, 29.46841 ], [ -94.42012, 29.4914 ], [ -94.41913, 29.53973 ], [ -94.29977, 29.53805 ], [ -94.2987, 29.58637 ], [ -94.17928, 29.58457 ], [ -94.17813, 29.63288 ], [ -94.08851, 29.63145 ], [ -94.02752, 29.67876 ], [ -93.7884, 29.6745 ], [ -93.66811, 29.69633 ], [ -93.66664, 29.74461 ], [ -93.33761, 29.73761 ], [ -93.33677, 29.76175 ], [ -93.09744, 29.75608 ], [ -93.06937, 29.70706 ], [ -92.9498, 29.70402 ], [ -92.86112, 29.67751 ], [ -92.86309, 29.62923 ], [ -92.74365, 29.62597 ], [ -92.7457, 29.57769 ], [ -92.62741, 29.55016 ], [ -92.3888, 29.54304 ], [ -92.36126, 29.49383 ], [ -92.24205, 29.49006 ], [ -92.23969, 29.53835 ], [ -92.23732, 29.58663 ], [ -92.26363, 29.66 ], [ -92.32336, 29.66189 ], [ -92.31872, 29.75841 ], [ -92.25773, 29.78065 ], [ -92.25537, 29.82889 ], [ -92.19309, 29.87521 ], [ -92.0946, 30.04103 ], [ -92.00456, 30.03802 ], [ -91.96945, 30.13339 ], [ -91.8453, 30.2015 ], [ -91.78515, 30.19937 ], [ -91.74968, 30.29463 ], [ -91.65936, 30.29135 ], [ -91.6566, 30.33951 ], [ -91.32526, 30.3269 ], [ -91.29962, 30.25349 ], [ -91.20937, 30.24987 ], [ -91.21241, 30.20171 ], [ -91.15382, 30.17518 ], [ -91.03361, 30.17019 ], [ -91.03676, 30.12203 ], [ -90.88824, 30.09154 ], [ -90.88012, 30.21194 ], [ -90.69976, 30.20399 ], [ -90.71151, 30.03543 ], [ -90.59155, 30.02999 ], [ -90.59669, 29.95773 ], [ -90.54023, 29.90678 ], [ -90.50334, 30.00175 ], [ -90.44691, 29.95076 ], [ -90.3289, 29.92096 ], [ -90.33248, 29.87278 ], [ -90.24454, 29.84433 ], [ -90.28168, 29.74939 ], [ -90.29068, 29.62886 ], [ -90.20122, 29.62446 ], [ -90.13788, 29.66971 ], [ -90.09875, 29.78872 ], [ -90.03898, 29.7857 ], [ -90.04462, 29.7134 ], [ -89.98492, 29.71036 ], [ -89.94553, 29.8293 ], [ -89.91563, 29.82775 ], [ -89.90215, 29.99634 ], [ -89.9225, 30.11825 ], [ -89.86443, 30.09107 ], [ -89.62449, 30.07835 ], [ -89.62045, 30.12648 ], [ -89.53044, 30.12158 ], [ -89.33778, 30.25589 ], [ -89.33355, 30.30398 ], [ -89.15315, 30.29368 ], [ -89.17888, 30.34349 ], [ -89.02849, 30.33474 ], [ -89.05415, 30.38457 ], [ -88.8736, 30.37385 ], [ -88.81572, 30.34619 ], [ -88.63529, 30.3351 ], [ -88.63997, 30.28704 ], [ -88.5198, 30.2795 ], [ -88.42246, 30.34584 ], [ -88.30222, 30.33809 ], [ -88.30711, 30.29004 ], [ -88.15693, 30.28018 ], [ -88.09938, 30.25215 ], [ -88.07422, 30.49229 ], [ -88.03904, 30.53828 ], [ -88.02888, 30.63426 ], [ -87.90821, 30.62611 ], [ -87.91853, 30.53014 ], [ -87.95634, 30.46018 ], [ -87.87381, 30.382 ], [ -87.87897, 30.33398 ], [ -87.78884, 30.32776 ], [ -87.75356, 30.37369 ], [ -87.70346, 30.82947 ], [ -87.58252, 30.821 ], [ -87.54147, 30.91472 ], [ -87.42041, 30.90608 ], [ -87.41491, 30.95399 ], [ -87.3213, 30.97139 ], [ -87.20017, 30.96253 ], [ -87.19453, 31.01043 ], [ -86.89165, 30.98774 ], [ -86.88581, 31.03561 ], [ -86.70108, 31.04556 ], [ -86.69511, 31.09341 ], [ -86.45265, 31.07432 ], [ -86.44652, 31.12216 ], [ -86.37971, 31.16514 ], [ -86.37353, 31.21297 ], [ -86.43117, 31.24174 ], [ -86.41268, 31.38516 ], [ -86.53135, 31.41871 ], [ -86.58617, 31.47128 ], [ -86.6595, 31.62175 ], [ -86.72056, 31.62646 ], [ -86.74213, 31.70047 ], [ -86.79731, 31.7529 ], [ -86.91967, 31.76214 ], [ -86.9721, 31.83837 ], [ -87.12239, 31.87356 ], [ -87.11086, 31.96908 ], [ -87.17511, 31.94968 ], [ -87.15213, 32.14065 ], [ -87.17428, 32.21447 ], [ -87.26666, 32.22112 ], [ -87.25241, 32.34041 ], [ -87.34214, 32.37085 ], [ -87.32231, 32.53779 ], [ -87.41511, 32.54432 ], [ -87.40949, 32.592 ], [ -87.49959, 32.62231 ], [ -87.48844, 32.71766 ], [ -87.17839, 32.69581 ], [ -87.1726, 32.74347 ], [ -87.10765, 32.76282 ], [ -86.82854, 32.74234 ], [ -86.82251, 32.78997 ], [ -86.69843, 32.78066 ], [ -86.67048, 32.7545 ], [ -86.68271, 32.65923 ], [ -86.53101, 32.62357 ], [ -86.48471, 32.49968 ], [ -86.50644, 32.33287 ], [ -86.3863, 32.29939 ], [ -86.36179, 32.24929 ], [ -86.24186, 32.21566 ], [ -86.08807, 32.20325 ], [ -86.02982, 32.1744 ], [ -85.78398, 32.15403 ], [ -85.57935, 32.28134 ], [ -85.5963, 32.16224 ], [ -85.52806, 32.20462 ], [ -85.46659, 32.19932 ], [ -85.42899, 32.24429 ], [ -85.40829, 32.38714 ], [ -85.28508, 32.37639 ], [ -85.29905, 32.28118 ], [ -85.36403, 32.26275 ], [ -85.37787, 32.1675 ], [ -85.31645, 32.16212 ], [ -85.32687, 32.09067 ], [ -85.40201, 32.00073 ], [ -85.40889, 31.95307 ], [ -85.50077, 31.96106 ], [ -85.57557, 31.87099 ], [ -85.58569, 31.79945 ], [ -85.65353, 31.75699 ], [ -85.70407, 31.61645 ], [ -85.77497, 31.55003 ], [ -85.78816, 31.45453 ], [ -85.86209, 31.36415 ], [ -85.92289, 31.36926 ], [ -85.90874, 31.24725 ], [ -86.01264, 31.15927 ], [ -86.13394, 31.16932 ], [ -86.11313, 31.09509 ], [ -85.84054, 31.07226 ], [ -85.79718, 31.16529 ], [ -85.73655, 31.16011 ], [ -85.69301, 31.25308 ], [ -85.61898, 31.34339 ], [ -85.55486, 31.362 ], [ -85.50421, 31.50259 ], [ -85.43311, 31.56886 ], [ -85.42628, 31.61657 ], [ -85.32794, 31.65623 ], [ -85.2836, 31.74892 ], [ -85.26971, 31.84428 ], [ -85.13336, 31.9287 ], [ -85.04156, 31.92043 ], [ -84.97322, 31.96253 ], [ -84.92464, 32.07881 ], [ -84.80566, 32.04376 ], [ -84.79475, 32.11518 ], [ -84.63774, 32.12475 ], [ -84.63035, 32.17234 ], [ -84.5383, 32.16371 ], [ -84.49266, 32.25597 ], [ -84.42369, 32.29771 ], [ -84.36223, 32.29186 ], [ -84.31629, 32.38402 ], [ -84.25477, 32.37812 ], [ -84.20863, 32.47021 ], [ -84.07379, 32.52954 ], [ -84.06599, 32.57704 ], [ -83.94987, 32.71045 ], [ -84.04645, 32.69577 ], [ -84.17, 32.70775 ], [ -84.21634, 32.61573 ], [ -84.28572, 32.57414 ], [ -84.37826, 32.58295 ], [ -84.48588, 32.49664 ], [ -84.51215, 32.33021 ], [ -84.5811, 32.28842 ], [ -84.5662, 32.38355 ], [ -84.63628, 32.53482 ], [ -84.75965, 32.54621 ], [ -84.7795, 32.62036 ], [ -84.99212, 32.66373 ], [ -84.9849, 32.71127 ], [ -85.07769, 32.71956 ], [ -85.04178, 32.9572 ], [ -84.97246, 32.99917 ], [ -84.98539, 33.12068 ], [ -85.05481, 33.07871 ], [ -85.21028, 33.09239 ], [ -85.22448, 32.99737 ], [ -85.20408, 32.92337 ], [ -85.24217, 32.87855 ], [ -85.25629, 32.78347 ], [ -85.136, 32.74882 ], [ -85.18114, 32.65645 ], [ -85.30831, 32.6435 ], [ -85.29429, 32.73862 ], [ -85.4181, 32.74935 ], [ -85.40072, 32.86823 ], [ -85.35923, 32.93686 ], [ -85.41435, 32.98973 ], [ -85.4004, 33.08478 ], [ -85.45218, 33.16137 ], [ -85.60789, 33.17454 ], [ -85.61474, 33.12702 ], [ -85.75279, 33.04235 ], [ -85.87719, 33.0526 ], [ -85.88386, 33.00505 ], [ -85.97712, 33.01266 ], [ -85.9903, 32.91753 ], [ -86.06874, 32.80361 ], [ -86.08176, 32.70842 ], [ -86.14046, 32.7372 ], [ -86.38837, 32.75683 ], [ -86.36307, 32.94722 ], [ -86.45631, 32.95446 ], [ -86.47486, 33.05203 ], [ -86.42797, 33.16855 ], [ -86.40581, 33.33497 ], [ -86.46199, 33.38732 ], [ -86.55269, 33.41825 ], [ -86.46803, 33.57981 ], [ -86.27672, 33.58904 ], [ -86.28961, 33.49403 ], [ -86.25184, 33.53909 ], [ -86.15786, 33.5317 ], [ -86.05401, 33.59548 ], [ -85.77198, 33.57266 ], [ -85.74135, 33.78624 ], [ -85.69622, 33.87854 ], [ -85.50752, 33.86287 ], [ -85.50052, 33.9103 ], [ -85.392, 33.99717 ], [ -85.33257, 33.96813 ], [ -85.33968, 33.92072 ], [ -85.18239, 33.90724 ], [ -85.17518, 33.95464 ], [ -85.01418, 33.96464 ], [ -85.00685, 34.01203 ], [ -84.8308, 34.11655 ], [ -84.80675, 34.06638 ], [ -84.88091, 34.00093 ], [ -84.89203, 33.92986 ], [ -84.83657, 33.87688 ], [ -84.88281, 33.78489 ], [ -84.82004, 33.77929 ], [ -84.7058, 33.6969 ], [ -84.69077, 33.79169 ], [ -84.6318, 33.7623 ], [ -84.38095, 33.73921 ], [ -84.3341, 33.83102 ], [ -84.23995, 33.8222 ], [ -84.20073, 33.8666 ], [ -84.21643, 33.96424 ], [ -84.34609, 33.95234 ], [ -84.32664, 34.07069 ], [ -84.45262, 34.08234 ], [ -84.4449, 34.12968 ], [ -84.5041, 34.15913 ], [ -84.72492, 34.17913 ], [ -84.74518, 34.25296 ], [ -84.86782, 34.28786 ], [ -84.91799, 34.17228 ], [ -85.04791, 34.15966 ], [ -85.05523, 34.11229 ], [ -85.14985, 34.12049 ], [ -85.22015, 34.07854 ], [ -85.2337, 34.19969 ], [ -85.2897, 34.25245 ], [ -85.53563, 34.32107 ], [ -85.66224, 34.33151 ], [ -85.68352, 34.40517 ], [ -85.66966, 34.49991 ], [ -85.76487, 34.50764 ], [ -85.72276, 34.57611 ], [ -85.70891, 34.67082 ], [ -85.66318, 34.76291 ], [ -85.53579, 34.75248 ], [ -85.48977, 34.8445 ], [ -85.41887, 34.88652 ], [ -85.35867, 34.85755 ], [ -85.33759, 34.78392 ], [ -85.21386, 34.74951 ], [ -85.16742, 34.84141 ], [ -85.07183, 34.83323 ], [ -85.00068, 34.87503 ], [ -84.9858, 34.96958 ], [ -84.82624, 34.95569 ], [ -84.68333, 35.03894 ], [ -84.66799, 35.13342 ], [ -84.56042, 35.19572 ], [ -84.54488, 35.29015 ], [ -84.44875, 35.28152 ], [ -84.46512, 35.37881 ], [ -84.30472, 35.36428 ], [ -84.23659, 35.38201 ], [ -84.22858, 35.42919 ], [ -84.08399, 35.51168 ], [ -83.95549, 35.4997 ], [ -83.93905, 35.594 ], [ -83.78961, 35.6997 ], [ -83.77708, 35.77038 ], [ -83.6397, 35.80521 ], [ -83.51074, 35.79279 ], [ -83.50219, 35.83988 ], [ -83.42046, 35.92779 ], [ -83.34721, 35.96856 ], [ -83.1534, 35.94946 ], [ -83.1578, 35.92593 ], [ -82.9319, 35.90328 ], [ -82.88617, 35.97057 ], [ -82.66022, 35.94746 ], [ -82.5865, 35.9878 ], [ -82.54037, 36.05496 ], [ -82.41115, 36.04146 ], [ -82.33718, 36.08165 ], [ -82.28604, 36.1722 ], [ -82.21186, 36.21231 ], [ -82.08126, 36.36628 ], [ -82.00675, 36.40626 ], [ -81.94375, 36.71123 ], [ -81.97634, 36.71473 ], [ -81.94226, 36.87886 ], [ -82.00275, 36.9093 ], [ -81.98327, 37.00307 ], [ -82.04875, 37.01003 ], [ -82.03417, 37.08035 ], [ -82.09973, 37.08729 ], [ -82.11801, 37.16107 ], [ -82.18365, 37.16797 ], [ -82.20204, 37.24173 ], [ -82.31919, 37.32572 ], [ -82.51198, 37.36946 ], [ -82.50254, 37.41635 ], [ -82.62973, 37.45317 ], [ -82.79471, 37.46971 ], [ -82.82309, 37.49644 ], [ -82.98822, 37.51274 ], [ -82.99278, 37.48929 ], [ -83.22401, 37.51176 ], [ -83.30347, 37.4477 ], [ -83.40253, 37.45715 ], [ -83.41136, 37.41021 ], [ -83.54339, 37.42269 ], [ -83.55211, 37.37573 ], [ -83.6511, 37.385 ], [ -83.70133, 37.29413 ], [ -83.80023, 37.30328 ], [ -84.04827, 37.03935 ], [ -84.08562, 36.82772 ], [ -84.11838, 36.83069 ], [ -84.14309, 36.68955 ], [ -84.12686, 36.59247 ], [ -84.06572, 36.563 ], [ -84.08221, 36.46887 ], [ -84.02533, 36.41584 ], [ -84.0052, 36.34223 ], [ -83.94018, 36.33623 ], [ -83.86358, 36.20948 ], [ -83.87193, 36.16239 ], [ -83.88026, 36.11531 ], [ -84.0099, 36.12735 ], [ -84.11124, 36.11274 ], [ -84.164, 35.99793 ], [ -84.24899, 36.07744 ], [ -84.41103, 36.09202 ], [ -84.50434, 36.12423 ], [ -84.48454, 36.24204 ], [ -84.59881, 36.34771 ], [ -84.57516, 36.48903 ], [ -84.59989, 36.53897 ], [ -84.58409, 36.63315 ], [ -84.51476, 36.65098 ], [ -84.49084, 36.7922 ], [ -84.4173, 36.8335 ], [ -84.44204, 36.88344 ], [ -84.51162, 36.86566 ], [ -84.49563, 36.95978 ], [ -84.41384, 37.04811 ], [ -84.43462, 37.12155 ], [ -84.41846, 37.21561 ], [ -84.51332, 37.24775 ], [ -84.53427, 37.32115 ] ], [ [ -85.04178, 32.9572 ], [ -85.13489, 32.96544 ], [ -85.12774, 33.01295 ], [ -85.03456, 33.0047 ], [ -85.04178, 32.9572 ] ], [ [ -84.5811, 32.28842 ], [ -84.58853, 32.24085 ], [ -84.68068, 32.24945 ], [ -84.67331, 32.29702 ], [ -84.5811, 32.28842 ] ], [ [ -87.41511, 32.54432 ], [ -87.4656, 32.37953 ], [ -87.55822, 32.38595 ], [ -87.57534, 32.50735 ], [ -87.50516, 32.57462 ], [ -87.41511, 32.54432 ] ], [ [ -87.12239, 31.87356 ], [ -87.12815, 31.82579 ], [ -87.22289, 31.8086 ], [ -87.21435, 31.88026 ], [ -87.12239, 31.87356 ] ], [ [ -100.17269, 32.67727 ], [ -100.20793, 32.74794 ], [ -100.05231, 32.75315 ], [ -100.07807, 32.65648 ], [ -100.17269, 32.67727 ] ], [ [ -96.7938, 28.28852 ], [ -96.79478, 28.38557 ], [ -96.70658, 28.38615 ], [ -96.7057, 28.2891 ], [ -96.67592, 28.24074 ], [ -96.76372, 28.21591 ], [ -96.7938, 28.28852 ] ], [ [ -96.38434, 28.63017 ], [ -96.29586, 28.63043 ], [ -96.17766, 28.5337 ], [ -96.2954, 28.50921 ], [ -96.29522, 28.46071 ], [ -96.41294, 28.46035 ], [ -96.47209, 28.50862 ], [ -96.47253, 28.58136 ], [ -96.3841, 28.58168 ], [ -96.38434, 28.63017 ] ], [ [ -96.59044, 28.58081 ], [ -96.5908, 28.62929 ], [ -96.50232, 28.62971 ], [ -96.50201, 28.58123 ], [ -96.59044, 28.58081 ] ], [ [ -95.87882, 31.26111 ], [ -95.69564, 31.26079 ], [ -95.69583, 31.21272 ], [ -95.54328, 31.21224 ], [ -95.54284, 31.28433 ], [ -95.39015, 31.28366 ], [ -95.38975, 31.33171 ], [ -95.3282, 31.37944 ], [ -95.17531, 31.37849 ], [ -95.17585, 31.33044 ], [ -94.96195, 31.32879 ], [ -94.96262, 31.28074 ], [ -94.84047, 31.27962 ], [ -94.84159, 31.20753 ], [ -94.7208, 31.13419 ], [ -94.62938, 31.13318 ], [ -94.56935, 31.08439 ], [ -94.63114, 31.03701 ], [ -94.63245, 30.96487 ], [ -94.51083, 30.96342 ], [ -94.51178, 30.91532 ], [ -94.42063, 30.91415 ], [ -94.42164, 30.86604 ], [ -94.30072, 30.84032 ], [ -94.30453, 30.67187 ], [ -94.21367, 30.67054 ], [ -94.21481, 30.6224 ], [ -94.00359, 30.59496 ], [ -94.03635, 30.49915 ], [ -94.27809, 30.50289 ], [ -94.27699, 30.55106 ], [ -94.45843, 30.55354 ], [ -94.45892, 30.52946 ], [ -94.70077, 30.53235 ], [ -94.76163, 30.50891 ], [ -94.76321, 30.41255 ], [ -94.8247, 30.34088 ], [ -94.88501, 30.34146 ], [ -94.91586, 30.29354 ], [ -95.00628, 30.29434 ], [ -95.00691, 30.24613 ], [ -95.09727, 30.24685 ], [ -95.15697, 30.2955 ], [ -95.15617, 30.3678 ], [ -95.21651, 30.36822 ], [ -95.21476, 30.53685 ], [ -95.24379, 30.65744 ], [ -95.30436, 30.65781 ], [ -95.33422, 30.70613 ], [ -95.33336, 30.8024 ], [ -95.42421, 30.82694 ], [ -95.45386, 30.92332 ], [ -95.54504, 30.9237 ], [ -95.57502, 30.99597 ], [ -95.66629, 30.99626 ], [ -95.66608, 31.04436 ], [ -95.7574, 31.04457 ], [ -95.75725, 31.09266 ], [ -95.87905, 31.11689 ], [ -96.00094, 31.11695 ], [ -95.97043, 31.2131 ], [ -95.8789, 31.21304 ], [ -95.87882, 31.26111 ] ], [ [ -96.50088, 32.96216 ], [ -96.50121, 33.00998 ], [ -96.40741, 33.01033 ], [ -96.40714, 32.9625 ], [ -96.50088, 32.96216 ] ], [ [ -95.4999, 33.12953 ], [ -95.50056, 33.0339 ], [ -95.53229, 32.96229 ], [ -95.71976, 32.96285 ], [ -95.75084, 33.01075 ], [ -95.75101, 32.96292 ], [ -95.84474, 32.96307 ], [ -95.84459, 33.03481 ], [ -95.78203, 33.03472 ], [ -95.78175, 33.13035 ], [ -95.4999, 33.12953 ] ], [ [ -95.49957, 33.17734 ], [ -95.37401, 33.20067 ], [ -95.37463, 33.12896 ], [ -95.4999, 33.12953 ], [ -95.49957, 33.17734 ] ], [ [ -95.49957, 33.17734 ], [ -95.59358, 33.17768 ], [ -95.59317, 33.24938 ], [ -95.49907, 33.24903 ], [ -95.49957, 33.17734 ] ], [ [ -95.65568, 33.29736 ], [ -95.65614, 33.20177 ], [ -95.71893, 33.17803 ], [ -95.84423, 33.20215 ], [ -95.84412, 33.24994 ], [ -95.75002, 33.24979 ], [ -95.74985, 33.29758 ], [ -95.65568, 33.29736 ] ], [ [ -100.42078, 33.17144 ], [ -100.42517, 33.24306 ], [ -100.29983, 33.24746 ], [ -100.32687, 33.17474 ], [ -100.42078, 33.17144 ] ], [ [ -94.71835, 29.49505 ], [ -94.71754, 29.54338 ], [ -94.62801, 29.54236 ], [ -94.62888, 29.49404 ], [ -94.71835, 29.49505 ] ], [ [ -94.71835, 29.49505 ], [ -94.71915, 29.44672 ], [ -94.83947, 29.37545 ], [ -94.86747, 29.49659 ], [ -94.98549, 29.59433 ], [ -94.86568, 29.61739 ], [ -94.86497, 29.66569 ], [ -94.80368, 29.76169 ], [ -94.71389, 29.76074 ], [ -94.71633, 29.61585 ], [ -94.83691, 29.54462 ], [ -94.83764, 29.4963 ], [ -94.71835, 29.49505 ] ], [ [ -93.23946, 30.79645 ], [ -93.23681, 30.86861 ], [ -93.17609, 30.86719 ], [ -93.17881, 30.79503 ], [ -93.08783, 30.79285 ], [ -93.12184, 30.69735 ], [ -93.45503, 30.70493 ], [ -93.42144, 30.80052 ], [ -93.23946, 30.79645 ] ], [ [ -88.87322, 31.33899 ], [ -88.8778, 31.29107 ], [ -88.99964, 31.29823 ], [ -88.99513, 31.34615 ], [ -88.87322, 31.33899 ] ], [ [ -93.95825, 33.37668 ], [ -93.92821, 33.32839 ], [ -94.05379, 33.33042 ], [ -94.0525, 33.37819 ], [ -93.95825, 33.37668 ] ], [ [ -94.92558, 33.84241 ], [ -94.95616, 33.91425 ], [ -94.95372, 34.0812 ], [ -94.92199, 34.08093 ], [ -94.91945, 34.24781 ], [ -94.88765, 34.24754 ], [ -94.88315, 34.53346 ], [ -94.72175, 34.62722 ], [ -94.72046, 34.69866 ], [ -94.59242, 34.69731 ], [ -94.59147, 34.74492 ], [ -94.30322, 34.74141 ], [ -94.20472, 34.83531 ], [ -94.07644, 34.83344 ], [ -94.01097, 34.88005 ], [ -94.00759, 34.99902 ], [ -93.78261, 34.99532 ], [ -93.81845, 34.87691 ], [ -93.88262, 34.87799 ], [ -93.88905, 34.66378 ], [ -93.85923, 34.59181 ], [ -93.86427, 34.4251 ], [ -93.80568, 34.25724 ], [ -93.74207, 34.25612 ], [ -93.7118, 34.20788 ], [ -93.71563, 34.0887 ], [ -93.77909, 34.08984 ], [ -93.84399, 34.04326 ], [ -93.87854, 33.94841 ], [ -93.94256, 33.92561 ], [ -93.94531, 33.8302 ], [ -94.00854, 33.83122 ], [ -94.04212, 33.76014 ], [ -94.16846, 33.76205 ], [ -94.20245, 33.66705 ], [ -94.29708, 33.66837 ], [ -94.29595, 33.71611 ], [ -94.58007, 33.71964 ], [ -94.5796, 33.74351 ], [ -94.80068, 33.74582 ], [ -94.86309, 33.79413 ], [ -94.92558, 33.84241 ] ], [ [ -93.3231, 36.08028 ], [ -93.29233, 36.03214 ], [ -93.13024, 36.00492 ], [ -93.13714, 35.83876 ], [ -93.07209, 35.83731 ], [ -93.0761, 35.74234 ], [ -93.01626, 35.62211 ], [ -92.95142, 35.6206 ], [ -92.95454, 35.54934 ], [ -92.88977, 35.5478 ], [ -92.82717, 35.49872 ], [ -92.86382, 35.40447 ], [ -93.12239, 35.41051 ], [ -93.12435, 35.36298 ], [ -93.25356, 35.3658 ], [ -93.24981, 35.46085 ], [ -93.27938, 35.53282 ], [ -93.40891, 35.53548 ], [ -93.40714, 35.58299 ], [ -93.76365, 35.58965 ], [ -93.72969, 35.6366 ], [ -93.66482, 35.63544 ], [ -93.66242, 35.7067 ], [ -93.75752, 35.77968 ], [ -93.72189, 35.87409 ], [ -93.6568, 35.87293 ], [ -93.62099, 35.96731 ], [ -93.45717, 35.98796 ], [ -93.42103, 36.08226 ], [ -93.3231, 36.08028 ] ], [ [ -88.74665, 31.37962 ], [ -88.73963, 31.45147 ], [ -88.6786, 31.44778 ], [ -88.65519, 31.37408 ], [ -88.74665, 31.37962 ] ], [ [ -87.74081, 32.42245 ], [ -87.7045, 32.46808 ], [ -87.61176, 32.46177 ], [ -87.65358, 32.36845 ], [ -87.74621, 32.37473 ], [ -87.74081, 32.42245 ] ], [ [ -86.51548, 32.74264 ], [ -86.41936, 32.75924 ], [ -86.43192, 32.66401 ], [ -86.49384, 32.66881 ], [ -86.51548, 32.74264 ] ], [ [ -85.73937, 35.34346 ], [ -85.72473, 35.22268 ], [ -85.79233, 35.20417 ], [ -85.77149, 35.34602 ], [ -85.73937, 35.34346 ] ], [ [ -82.71772, 36.83992 ], [ -82.70849, 36.88686 ], [ -82.63842, 36.90369 ], [ -82.59173, 36.97075 ], [ -82.52623, 36.96405 ], [ -82.55429, 36.82326 ], [ -82.71772, 36.83992 ] ], [ [ -82.78829, 36.99065 ], [ -82.86754, 36.9268 ], [ -82.87667, 36.87985 ], [ -82.94665, 36.86289 ], [ -83.00306, 36.91634 ], [ -82.99402, 36.9633 ], [ -82.86298, 36.95027 ], [ -82.78829, 36.99065 ] ] ], [ [ [ -94.27585, 34.5505 ], [ -94.18004, 34.54916 ], [ -94.17819, 34.6206 ], [ -94.37003, 34.6232 ], [ -94.34085, 34.50371 ], [ -94.27585, 34.5505 ] ] ], [ [ [ -90.97111, 36.9609 ], [ -91.0111, 36.86748 ], [ -90.9469, 36.84129 ], [ -90.90506, 36.95837 ], [ -90.97111, 36.9609 ] ] ], [ [ [ -90.97111, 36.9609 ], [ -90.9676, 37.00823 ], [ -91.03198, 37.0344 ], [ -91.02851, 37.08172 ], [ -91.12778, 37.08541 ], [ -91.13628, 36.96708 ], [ -90.97111, 36.9609 ] ] ], [ [ [ -84.27859, 33.20016 ], [ -84.21249, 33.21796 ], [ -84.20081, 33.2891 ], [ -84.32541, 33.3009 ], [ -84.34081, 33.20604 ], [ -84.27859, 33.20016 ] ] ], [ [ [ -85.00988, 33.57985 ], [ -85.00259, 33.62728 ], [ -85.09656, 33.63553 ], [ -85.16642, 33.59356 ], [ -85.14231, 33.54339 ], [ -85.04845, 33.53517 ], [ -85.00988, 33.57985 ] ] ], [ [ [ -81.78394, 33.49366 ], [ -81.80567, 33.54445 ], [ -81.76039, 33.61171 ], [ -81.74149, 33.70612 ], [ -81.83514, 33.71681 ], [ -81.84453, 33.66961 ], [ -81.91628, 33.62947 ], [ -82.04568, 33.61993 ], [ -82.05493, 33.5727 ], [ -82.21081, 33.5901 ], [ -82.19335, 33.51576 ], [ -82.2116, 33.42124 ], [ -82.25181, 33.37742 ], [ -82.4118, 33.37094 ], [ -82.4608, 33.27976 ], [ -82.52737, 33.26289 ], [ -82.54512, 33.16825 ], [ -82.36356, 33.12417 ], [ -82.37253, 33.07685 ], [ -82.22224, 33.03597 ], [ -82.2041, 33.13059 ], [ -82.12386, 33.21823 ], [ -82.05724, 33.23488 ], [ -82.01238, 33.30229 ], [ -81.95029, 33.29525 ], [ -81.90995, 33.33897 ], [ -81.87732, 33.50433 ], [ -81.78394, 33.49366 ] ] ], [ [ [ -85.16691, 34.21795 ], [ -85.04058, 34.20702 ], [ -85.03324, 34.25438 ], [ -85.12805, 34.26259 ], [ -85.16691, 34.21795 ] ] ], [ [ [ -85.00068, 34.87503 ], [ -85.01553, 34.78045 ], [ -84.95559, 34.75128 ], [ -84.82833, 34.74015 ], [ -84.88637, 34.57739 ], [ -84.94985, 34.58295 ], [ -84.989, 34.5384 ], [ -85.00748, 34.42008 ], [ -84.78959, 34.37693 ], [ -84.78207, 34.42425 ], [ -84.71117, 34.46592 ], [ -84.69218, 34.58418 ], [ -84.70492, 34.70524 ], [ -84.76472, 34.73453 ], [ -84.74195, 34.87636 ], [ -85.00068, 34.87503 ] ] ], [ [ [ -80.47328, 35.55794 ], [ -80.5267, 35.61257 ], [ -81.07124, 35.67706 ], [ -81.07633, 35.6536 ], [ -81.30077, 35.67948 ], [ -81.34784, 35.61271 ], [ -81.50812, 35.6309 ], [ -81.72976, 35.5115 ], [ -81.7763, 35.44455 ], [ -81.98397, 35.22705 ], [ -82.03008, 35.15997 ], [ -82.1007, 34.80688 ], [ -82.03727, 34.7999 ], [ -82.05606, 34.7057 ], [ -81.99744, 34.67515 ], [ -82.01626, 34.58093 ], [ -81.95304, 34.57391 ], [ -81.96718, 34.50323 ], [ -81.90403, 34.49619 ], [ -81.88667, 34.42197 ], [ -81.82361, 34.41489 ], [ -81.80635, 34.34064 ], [ -81.65372, 34.29921 ], [ -81.66331, 34.25209 ], [ -81.5738, 34.21771 ], [ -81.44812, 34.2032 ], [ -81.3009, 34.13776 ], [ -81.08132, 34.11179 ], [ -81.07635, 34.13534 ], [ -80.88821, 34.11277 ], [ -80.88317, 34.13632 ], [ -80.72643, 34.11729 ], [ -80.71624, 34.16436 ], [ -80.58568, 34.17251 ], [ -80.57539, 34.21956 ], [ -80.44991, 34.20405 ], [ -80.37676, 34.24328 ], [ -80.32445, 34.33341 ], [ -80.2511, 34.37255 ], [ -80.12497, 34.50166 ], [ -80.07214, 34.59163 ], [ -79.99839, 34.6306 ], [ -79.94448, 34.86529 ], [ -79.97611, 34.8693 ], [ -79.94366, 35.01005 ], [ -80.00165, 35.04151 ], [ -79.98542, 35.11187 ], [ -80.02731, 35.21366 ], [ -80.13839, 35.29989 ], [ -80.15411, 35.37419 ], [ -80.21787, 35.38209 ], [ -80.23369, 35.45636 ], [ -80.388, 35.49938 ], [ -80.37737, 35.54627 ], [ -80.47328, 35.55794 ] ] ], [ [ [ -84.48997, 37.57972 ], [ -84.62253, 37.59113 ], [ -84.6385, 37.4971 ], [ -84.57631, 37.46792 ], [ -84.50209, 37.50922 ], [ -84.48997, 37.57972 ] ] ], [ [ [ -79.88132, 37.24222 ], [ -79.87007, 37.28891 ], [ -80.00113, 37.30489 ], [ -80.01229, 37.25819 ], [ -79.88132, 37.24222 ] ] ], [ [ [ -76.30204, 36.99437 ], [ -76.2765, 36.96628 ], [ -76.32422, 36.80393 ], [ -76.19509, 36.78432 ], [ -76.09141, 36.79273 ], [ -76.07076, 36.86228 ], [ -76.13537, 36.87216 ], [ -76.14708, 36.94664 ], [ -76.30204, 36.99437 ] ] ], [ [ [ -76.30204, 36.99437 ], [ -76.2747, 37.08711 ], [ -76.43008, 37.13468 ], [ -76.47754, 36.97232 ], [ -76.38042, 36.95774 ], [ -76.30204, 36.99437 ] ] ], [ [ [ -77.38857, 38.79397 ], [ -77.38876, 38.91446 ], [ -77.35548, 39.03031 ], [ -77.46947, 39.11823 ], [ -77.57003, 39.13196 ], [ -77.5964, 39.03925 ], [ -77.52945, 39.03012 ], [ -77.55583, 38.9374 ], [ -77.60897, 38.87241 ], [ -77.66783, 38.6637 ], [ -77.71414, 38.62185 ], [ -77.7807, 38.63089 ], [ -77.86018, 38.5935 ], [ -77.91274, 38.52836 ], [ -78.07902, 38.55067 ], [ -78.15824, 38.5131 ], [ -78.21044, 38.44784 ], [ -78.34337, 38.46541 ], [ -78.42233, 38.42768 ], [ -78.43479, 38.3812 ], [ -78.50741, 38.36665 ], [ -78.56532, 38.278 ], [ -78.63165, 38.28663 ], [ -78.67709, 38.24443 ], [ -78.70766, 38.12813 ], [ -78.75294, 38.08589 ], [ -78.81911, 38.09443 ], [ -78.90339, 38.03313 ], [ -78.93348, 37.91674 ], [ -79.08936, 37.84048 ], [ -79.08018, 37.74312 ], [ -79.17898, 37.75568 ], [ -79.2873, 37.86553 ], [ -79.32617, 37.84637 ], [ -79.37087, 37.80391 ], [ -79.43492, 37.54751 ], [ -79.40206, 37.54339 ], [ -79.4542, 37.33351 ], [ -79.60814, 37.25657 ], [ -79.65227, 37.21396 ], [ -79.67503, 37.1206 ], [ -79.75167, 37.08201 ], [ -79.84719, 36.68492 ], [ -79.79348, 36.63012 ], [ -79.72, 36.38021 ], [ -79.65538, 36.37209 ], [ -79.63997, 36.29789 ], [ -79.57544, 36.28972 ], [ -79.56013, 36.2155 ], [ -79.40474, 36.17155 ], [ -79.41612, 36.1248 ], [ -79.31961, 36.11237 ], [ -79.26677, 36.0573 ], [ -79.11192, 36.01299 ], [ -78.59875, 35.94465 ], [ -78.54882, 36.01035 ], [ -78.38852, 35.98852 ], [ -78.33836, 36.05413 ], [ -78.21009, 36.03647 ], [ -78.05733, 36.11196 ], [ -78.00059, 36.20073 ], [ -77.93015, 36.21506 ], [ -77.74535, 36.40665 ], [ -77.65069, 36.7558 ], [ -77.65134, 36.87668 ], [ -77.57375, 36.91406 ], [ -77.54818, 37.00707 ], [ -77.47038, 37.04438 ], [ -77.37295, 37.03054 ], [ -77.22355, 37.08167 ], [ -77.2105, 37.12813 ], [ -77.113, 37.1141 ], [ -77.05418, 37.20229 ], [ -76.94998, 37.21136 ], [ -76.90417, 37.25305 ], [ -76.87754, 37.34587 ], [ -76.78559, 37.42916 ], [ -76.75297, 37.42439 ], [ -76.65172, 37.77217 ], [ -76.65623, 37.99031 ], [ -76.72202, 37.99988 ], [ -76.70164, 38.06939 ], [ -76.76752, 38.07894 ], [ -76.78014, 38.15321 ], [ -76.83258, 38.20906 ], [ -76.97138, 38.20482 ], [ -76.94447, 38.29752 ], [ -77.01731, 38.28377 ], [ -76.99044, 38.37646 ], [ -77.18248, 38.42776 ], [ -77.23548, 38.48343 ], [ -77.43461, 38.51117 ], [ -77.56091, 38.5527 ], [ -77.50799, 38.6177 ], [ -77.48166, 38.71045 ], [ -77.41506, 38.70126 ], [ -77.38857, 38.79397 ] ] ], [ [ [ -79.85001, 37.79096 ], [ -79.67932, 37.79412 ], [ -79.69512, 37.86812 ], [ -79.82727, 37.88425 ], [ -79.85001, 37.79096 ] ] ], [ [ [ -79.61334, 37.78599 ], [ -79.56881, 37.82854 ], [ -79.43101, 37.83546 ], [ -79.38633, 37.87794 ], [ -79.54567, 37.92178 ], [ -79.6233, 37.88331 ], [ -79.61334, 37.78599 ] ] ], [ [ [ -77.41506, 38.70126 ], [ -77.43488, 38.63171 ], [ -77.38159, 38.57613 ], [ -77.25536, 38.53443 ], [ -77.20883, 38.57614 ], [ -77.20868, 38.69666 ], [ -77.37514, 38.71983 ], [ -77.41506, 38.70126 ] ] ] ] } }
]
}
