{
"type": "FeatureCollection",
"name": "Hypoxis_hirsuta",
"crs": { "type": "name", "properties": { "name": "urn:ogc:def:crs:OGC:1.3:CRS84" } },
"features": [
{ "type": "Feature", "properties": { "ID": 1 }, "geometry": { "type": "MultiPolygon", "coordinates": [ [ [ [ -100.22496, 45.25393 ], [ -100.1923, 45.32558 ], [ -100.27452, 45.41762 ], [ -100.30885, 45.36948 ], [ -100.38432, 45.36732 ], [ -100.37908, 45.29672 ], [ -100.33794, 45.25074 ], [ -100.22496, 45.25393 ] ] ], [ [ [ -100.357, 45.50961 ], [ -100.39131, 45.46146 ], [ -100.35005, 45.41547 ], [ -100.27452, 45.41762 ], [ -100.28135, 45.51176 ], [ -100.357, 45.50961 ] ] ], [ [ [ -100.357, 45.50961 ], [ -100.43441, 45.53096 ], [ -100.40361, 45.6262 ], [ -100.51729, 45.62288 ], [ -100.50828, 45.50521 ], [ -100.357, 45.50961 ] ] ], [ [ [ -99.51342, 46.61634 ], [ -99.51915, 46.7106 ], [ -99.5964, 46.70883 ], [ -99.59054, 46.61457 ], [ -99.51342, 46.61634 ] ] ], [ [ [ -101.26227, 47.58283 ], [ -101.10553, 47.58799 ], [ -101.10976, 47.63514 ], [ -101.26663, 47.62997 ], [ -101.26227, 47.58283 ] ] ], [ [ [ -102.30378, 47.7575 ], [ -102.2304, 47.80774 ], [ -102.28275, 47.924 ], [ -102.36153, 47.92086 ], [ -102.34569, 47.77948 ], [ -102.30378, 47.7575 ] ] ], [ [ [ -99.67887, 48.00588 ], [ -99.67274, 47.91147 ], [ -99.59386, 47.91328 ], [ -99.67887, 48.00588 ] ] ], [ [ [ -101.12144, 48.20241 ], [ -101.20938, 48.29421 ], [ -101.40774, 48.2876 ], [ -101.3807, 48.00455 ], [ -101.26228, 48.00853 ], [ -101.23371, 48.12777 ], [ -101.15459, 48.13035 ], [ -101.12144, 48.20241 ] ] ], [ [ [ -100.22046, 48.37079 ], [ -100.18598, 48.44267 ], [ -100.1081, 48.46836 ], [ -100.11328, 48.53921 ], [ -100.19303, 48.53714 ], [ -100.26917, 48.4878 ], [ -100.22046, 48.37079 ] ] ], [ [ [ -98.04337, 43.24965 ], [ -98.11465, 43.20153 ], [ -98.11222, 43.1309 ], [ -98.03945, 43.13193 ], [ -98.04337, 43.24965 ] ] ], [ [ [ -97.94597, 43.62782 ], [ -97.98419, 43.67442 ], [ -98.02482, 43.79164 ], [ -98.13517, 43.79009 ], [ -98.09432, 43.6729 ], [ -98.05602, 43.62633 ], [ -97.94597, 43.62782 ] ] ], [ [ [ -99.07542, 46.36616 ], [ -98.95901, 46.34485 ], [ -98.94589, 46.08569 ], [ -98.9805, 46.01428 ], [ -99.05561, 45.98922 ], [ -99.04702, 45.82435 ], [ -98.9757, 45.92006 ], [ -98.89948, 45.92152 ], [ -98.86367, 45.96934 ], [ -98.8834, 46.36986 ], [ -98.96502, 46.46267 ], [ -99.11887, 46.45964 ], [ -99.07542, 46.36616 ] ] ], [ [ [ -98.15353, 46.38176 ], [ -98.14831, 46.24036 ], [ -98.07165, 46.24141 ], [ -98.07669, 46.38281 ], [ -98.15353, 46.38176 ] ] ], [ [ [ -99.07542, 46.36616 ], [ -99.15222, 46.36461 ], [ -99.14839, 46.29393 ], [ -99.07168, 46.29547 ], [ -99.07542, 46.36616 ] ] ], [ [ [ -96.79788, 51.24559 ], [ -96.71403, 51.24597 ], [ -96.6733, 51.3413 ], [ -96.7573, 51.34095 ], [ -96.79788, 51.24559 ] ] ], [ [ [ -79.22699, 38.50667 ], [ -79.16036, 38.49833 ], [ -79.14839, 38.54486 ], [ -79.21507, 38.55321 ], [ -79.22699, 38.50667 ] ] ], [ [ [ -79.03636, 38.57881 ], [ -79.09103, 38.63373 ], [ -79.0697, 38.58301 ], [ -79.03636, 38.57881 ] ] ], [ [ [ -79.1244, 38.63792 ], [ -79.09103, 38.63373 ], [ -79.08501, 38.65699 ], [ -79.1184, 38.66118 ], [ -79.1244, 38.63792 ] ] ], [ [ [ -79.52346, 38.8313 ], [ -79.54109, 38.76147 ], [ -79.47416, 38.75329 ], [ -79.45647, 38.82311 ], [ -79.52346, 38.8313 ] ] ], [ [ [ -79.63997, 38.91741 ], [ -79.59469, 38.9599 ], [ -79.58295, 39.00644 ], [ -79.61068, 39.03378 ], [ -79.71153, 39.04594 ], [ -79.68959, 38.99534 ], [ -79.70709, 38.92551 ], [ -79.63997, 38.91741 ] ] ], [ [ [ -79.19811, 40.49394 ], [ -79.25456, 40.54867 ], [ -79.26682, 40.50223 ], [ -79.19811, 40.49394 ] ] ], [ [ [ -85.75528, 44.87077 ], [ -85.71804, 44.86822 ], [ -85.68958, 45.03213 ], [ -85.85501, 44.9486 ], [ -85.9669, 44.95611 ], [ -86.04937, 44.91422 ], [ -86.08459, 44.70341 ], [ -86.23321, 44.71317 ], [ -86.20376, 44.6639 ], [ -86.25737, 44.33594 ], [ -86.30945, 44.24465 ], [ -86.19884, 44.2374 ], [ -86.1466, 44.32865 ], [ -86.02806, 44.36812 ], [ -86.01243, 44.4618 ], [ -85.93056, 44.50366 ], [ -85.91871, 44.57392 ], [ -85.83661, 44.61573 ], [ -85.78348, 44.70686 ], [ -85.75528, 44.87077 ] ] ], [ [ [ -77.12184, 44.11993 ], [ -77.23064, 44.13387 ], [ -77.24519, 44.08769 ], [ -77.39024, 44.10613 ], [ -77.4556, 44.1384 ], [ -77.51297, 43.9536 ], [ -77.43342, 43.96755 ], [ -77.41905, 44.01375 ], [ -77.23802, 43.99071 ], [ -77.07176, 43.92129 ], [ -77.03513, 44.03668 ], [ -77.13646, 44.07377 ], [ -77.12184, 44.11993 ] ] ], [ [ [ -87.14105, 45.17172 ], [ -87.25352, 45.17827 ], [ -87.28118, 44.99064 ], [ -87.36276, 44.94803 ], [ -87.37299, 44.87766 ], [ -87.26108, 44.8712 ], [ -87.21685, 44.91593 ], [ -87.19948, 45.0332 ], [ -87.07317, 45.12041 ], [ -87.14105, 45.17172 ] ] ], [ [ [ -96.88056, 51.17381 ], [ -97.00616, 51.1731 ], [ -97.00839, 51.29203 ], [ -96.96643, 51.29228 ], [ -96.84316, 51.45954 ], [ -96.84391, 51.50714 ], [ -96.75999, 51.53135 ], [ -96.76067, 51.57897 ], [ -96.84692, 51.69765 ], [ -97.05784, 51.67263 ], [ -97.09912, 51.62473 ], [ -97.09667, 51.50568 ], [ -97.17883, 51.4099 ], [ -97.30498, 51.40897 ], [ -97.30846, 51.55179 ], [ -97.35062, 51.55145 ], [ -97.35363, 51.67051 ], [ -97.31138, 51.67085 ], [ -97.22906, 51.76677 ], [ -97.23181, 51.88591 ], [ -97.31725, 51.9091 ], [ -97.31961, 52.00446 ], [ -97.48969, 52.00304 ], [ -97.48702, 51.90769 ], [ -97.61435, 51.90652 ], [ -97.61869, 52.04956 ], [ -97.70457, 52.07257 ], [ -97.74479, 52.0006 ], [ -97.73933, 51.83377 ], [ -97.82572, 51.88053 ], [ -97.95297, 51.8791 ], [ -98.03962, 51.92576 ], [ -98.08488, 51.99675 ], [ -98.08862, 52.09212 ], [ -98.17477, 52.11489 ], [ -98.18065, 52.25801 ], [ -98.35257, 52.27958 ], [ -98.35469, 52.32731 ], [ -98.73959, 52.32153 ], [ -98.74083, 52.3454 ], [ -98.95472, 52.34181 ], [ -99.08582, 52.38725 ], [ -99.42826, 52.38069 ], [ -99.42517, 52.33298 ], [ -99.76721, 52.32573 ], [ -99.80824, 52.30093 ], [ -99.79625, 52.13403 ], [ -99.70773, 52.08825 ], [ -99.69611, 51.92147 ], [ -99.77757, 51.87195 ], [ -99.77251, 51.80052 ], [ -99.68785, 51.80239 ], [ -99.6928, 51.87383 ], [ -99.60802, 51.87567 ], [ -99.59997, 51.7566 ], [ -99.51694, 51.7822 ], [ -99.52009, 51.82983 ], [ -99.39301, 51.83243 ], [ -99.30534, 51.78649 ], [ -99.21351, 51.66908 ], [ -99.22356, 51.83576 ], [ -99.13883, 51.83736 ], [ -99.13323, 51.7421 ], [ -99.04864, 51.74365 ], [ -99.04456, 51.67222 ], [ -98.87688, 51.69901 ], [ -98.70421, 51.63039 ], [ -98.74153, 51.53449 ], [ -98.73182, 51.34416 ], [ -98.56273, 51.32303 ], [ -98.55481, 51.15657 ], [ -98.63849, 51.15527 ], [ -98.635, 51.08396 ], [ -98.71617, 51.03509 ], [ -98.7102, 50.91629 ], [ -98.46027, 50.92017 ], [ -98.33119, 50.82695 ], [ -98.20352, 50.7574 ], [ -98.20159, 50.70991 ], [ -98.11488, 50.61602 ], [ -98.03113, 50.59331 ], [ -98.02936, 50.54584 ], [ -97.94321, 50.45189 ], [ -97.9019, 50.45238 ], [ -97.89612, 50.28629 ], [ -98.06084, 50.28431 ], [ -98.09928, 50.21263 ], [ -98.22265, 50.21101 ], [ -98.22072, 50.16358 ], [ -98.5083, 50.15944 ], [ -98.59271, 50.20558 ], [ -98.60061, 50.37161 ], [ -98.55937, 50.37226 ], [ -98.56495, 50.49089 ], [ -98.61083, 50.58518 ], [ -98.69716, 50.65506 ], [ -98.70189, 50.75003 ], [ -98.87302, 50.84223 ], [ -98.87934, 50.961 ], [ -98.96271, 50.95953 ], [ -99.05144, 51.05307 ], [ -99.06494, 51.29077 ], [ -99.10688, 51.29 ], [ -99.1193, 51.50407 ], [ -99.28771, 51.50086 ], [ -99.33723, 51.61901 ], [ -99.4638, 51.61644 ], [ -99.4561, 51.49747 ], [ -99.54029, 51.49571 ], [ -99.58876, 51.58999 ], [ -99.71524, 51.58724 ], [ -99.71194, 51.53965 ], [ -99.8383, 51.53681 ], [ -99.97703, 51.70043 ], [ -100.06152, 51.69841 ], [ -100.06877, 51.79362 ], [ -100.15898, 51.86298 ], [ -100.1833, 52.17267 ], [ -100.22972, 52.21928 ], [ -100.31114, 52.16947 ], [ -100.39637, 52.16727 ], [ -100.43499, 52.1185 ], [ -100.64572, 52.08897 ], [ -100.80724, 51.98895 ], [ -100.84318, 51.9163 ], [ -100.92797, 51.91385 ], [ -101.02175, 52.00658 ], [ -101.02626, 52.05421 ], [ -101.19859, 52.07288 ], [ -101.28837, 52.11787 ], [ -101.29312, 52.16551 ], [ -101.42087, 52.16147 ], [ -101.42575, 52.20911 ], [ -101.5536, 52.20496 ], [ -101.5586, 52.25261 ], [ -101.68654, 52.24836 ], [ -101.69167, 52.29601 ], [ -101.90505, 52.28871 ], [ -101.91038, 52.33636 ], [ -102.25197, 52.32412 ], [ -102.25761, 52.37176 ], [ -102.47121, 52.36375 ], [ -102.47413, 52.38757 ], [ -102.90133, 52.37074 ], [ -102.9409, 52.34519 ], [ -103.23962, 52.3327 ], [ -103.2331, 52.2851 ], [ -103.40024, 52.25395 ], [ -103.5706, 52.24642 ], [ -103.69487, 52.21688 ], [ -103.68795, 52.16931 ], [ -103.81549, 52.16347 ], [ -103.93943, 52.13375 ], [ -103.9323, 52.08621 ], [ -104.14082, 52.05235 ], [ -104.16857, 51.95528 ], [ -104.25322, 51.95116 ], [ -104.28441, 51.87784 ], [ -104.47674, 51.74864 ], [ -104.22377, 51.76121 ], [ -104.3007, 51.7096 ], [ -104.32429, 51.58888 ], [ -104.2749, 51.54352 ], [ -104.24925, 51.37753 ], [ -104.3109, 51.23117 ], [ -104.28165, 51.04165 ], [ -104.23279, 50.99636 ], [ -104.02488, 51.00653 ], [ -104.02135, 50.98285 ], [ -103.9001, 51.01252 ], [ -103.84469, 50.91974 ], [ -103.96927, 50.9138 ], [ -104.00025, 50.84076 ], [ -103.99325, 50.79341 ], [ -104.15893, 50.78533 ], [ -104.15179, 50.73799 ], [ -103.82066, 50.75398 ], [ -103.80699, 50.65929 ], [ -103.8862, 50.6317 ], [ -104.05141, 50.62372 ], [ -104.05845, 50.67105 ], [ -104.26507, 50.66084 ], [ -104.41105, 50.79655 ], [ -104.41842, 50.84388 ], [ -104.5842, 50.83537 ], [ -104.6332, 50.88055 ], [ -104.65218, 50.99889 ], [ -104.73529, 50.99454 ], [ -104.70087, 50.78156 ], [ -104.60677, 50.71493 ], [ -104.59174, 50.62032 ], [ -104.44211, 50.46118 ], [ -104.35251, 50.41809 ], [ -104.34525, 50.37081 ], [ -104.24872, 50.28041 ], [ -104.16665, 50.28451 ], [ -104.11857, 50.23927 ], [ -104.05223, 49.79039 ], [ -103.9978, 49.69795 ], [ -103.91318, 49.67831 ], [ -103.9064, 49.63109 ], [ -103.81857, 49.5878 ], [ -103.80519, 49.49337 ], [ -103.67394, 49.42836 ], [ -103.62049, 49.33586 ], [ -103.49942, 49.34152 ], [ -103.49303, 49.29432 ], [ -103.44635, 49.24898 ], [ -103.37203, 49.29988 ], [ -103.17338, 49.33256 ], [ -103.16726, 49.28534 ], [ -103.00591, 49.29241 ], [ -103.02088, 49.41048 ], [ -102.98045, 49.41222 ], [ -102.9954, 49.53031 ], [ -102.75225, 49.54061 ], [ -102.75804, 49.58786 ], [ -102.59859, 49.61817 ], [ -102.60425, 49.66543 ], [ -102.27916, 49.6783 ], [ -102.27108, 49.60738 ], [ -102.22248, 49.53803 ], [ -102.20918, 49.41987 ], [ -102.24964, 49.41832 ], [ -102.231, 49.25295 ], [ -102.18802, 49.23087 ], [ -102.11258, 49.28119 ], [ -101.98894, 49.26209 ], [ -101.97366, 49.12036 ], [ -101.57108, 49.13476 ], [ -101.56635, 49.08751 ], [ -101.40539, 49.09299 ], [ -101.35605, 48.99983 ], [ -101.15514, 49.00639 ], [ -101.15733, 49.03001 ], [ -100.9563, 49.03632 ], [ -100.92445, 49.13208 ], [ -100.76331, 49.13692 ], [ -100.59823, 49.09432 ], [ -100.63455, 49.04589 ], [ -100.62669, 48.95137 ], [ -100.54059, 48.88277 ], [ -100.37273, 48.7927 ], [ -99.97217, 48.80311 ], [ -99.92547, 48.70958 ], [ -100.00208, 48.66035 ], [ -99.95711, 48.59047 ], [ -99.92733, 48.16542 ], [ -100.00655, 48.16345 ], [ -100.08065, 48.09062 ], [ -100.07385, 47.99622 ], [ -100.10991, 47.94801 ], [ -99.98987, 47.92744 ], [ -99.9982, 48.04543 ], [ -99.96198, 48.09363 ], [ -99.84168, 48.07294 ], [ -99.56481, 48.0794 ], [ -99.55146, 47.86697 ], [ -99.62877, 47.84159 ], [ -99.62576, 47.79439 ], [ -99.54115, 47.7018 ], [ -99.69679, 47.6746 ], [ -99.69067, 47.58024 ], [ -99.76909, 47.57839 ], [ -99.76442, 47.50763 ], [ -100.11679, 47.4988 ], [ -100.10831, 47.3809 ], [ -100.02353, 47.28862 ], [ -100.01527, 47.17074 ], [ -99.70383, 47.17843 ], [ -99.70079, 47.13128 ], [ -99.77549, 47.08227 ], [ -99.89209, 47.07941 ], [ -99.88731, 47.00869 ], [ -99.7616, 46.87014 ], [ -99.83435, 46.79755 ], [ -99.98905, 46.79366 ], [ -99.98579, 46.74653 ], [ -100.14034, 46.74249 ], [ -100.09836, 46.69639 ], [ -99.90532, 46.70137 ], [ -99.90851, 46.74849 ], [ -99.75393, 46.75231 ], [ -99.72287, 46.87107 ], [ -99.6484, 46.92004 ], [ -99.49334, 46.92359 ], [ -99.48053, 46.71147 ], [ -99.40605, 46.76032 ], [ -99.32873, 46.76199 ], [ -99.16891, 46.67095 ], [ -99.1599, 46.50599 ], [ -99.00592, 46.50905 ], [ -98.96863, 46.53336 ], [ -98.97347, 46.62763 ], [ -99.05062, 46.62614 ], [ -99.09171, 46.67251 ], [ -99.09802, 46.79036 ], [ -99.02188, 46.81545 ], [ -99.03179, 47.00405 ], [ -98.9991, 47.1227 ], [ -99.04051, 47.16911 ], [ -99.11838, 47.16758 ], [ -99.1248, 47.28549 ], [ -99.25122, 47.44822 ], [ -99.25659, 47.54258 ], [ -99.06063, 47.54651 ], [ -98.97731, 47.45364 ], [ -98.97362, 47.38288 ], [ -98.85636, 47.38505 ], [ -98.84931, 47.24353 ], [ -98.69334, 47.24629 ], [ -98.69112, 47.19911 ], [ -98.80801, 47.19706 ], [ -98.76564, 47.127 ], [ -98.79995, 47.03199 ], [ -98.79423, 46.91409 ], [ -98.67354, 46.82183 ], [ -98.51869, 46.82441 ], [ -98.44326, 46.8728 ], [ -98.36384, 46.82684 ], [ -98.3571, 46.66181 ], [ -98.24128, 46.66353 ], [ -98.24585, 46.78141 ], [ -98.08854, 46.71283 ], [ -98.09281, 46.83072 ], [ -98.01372, 46.78459 ], [ -98.00553, 46.54883 ], [ -97.88686, 46.45599 ], [ -97.73296, 46.45779 ], [ -97.76928, 46.38664 ], [ -97.84614, 46.38574 ], [ -97.92143, 46.33766 ], [ -97.92533, 46.45551 ], [ -98.00228, 46.45454 ], [ -97.99418, 46.21885 ], [ -98.30069, 46.21458 ], [ -98.33711, 46.16687 ], [ -98.33052, 46.00194 ], [ -98.55953, 45.99829 ], [ -98.54824, 45.73917 ], [ -98.58313, 45.66787 ], [ -98.50522, 45.62203 ], [ -98.49623, 45.41006 ], [ -98.34508, 45.41247 ], [ -98.30545, 45.36594 ], [ -98.19129, 45.34407 ], [ -98.19566, 45.46183 ], [ -98.15784, 45.46237 ], [ -98.15183, 45.29751 ], [ -98.22727, 45.29642 ], [ -98.22108, 45.13157 ], [ -98.14415, 45.08556 ], [ -98.06898, 45.0866 ], [ -98.02738, 44.96937 ], [ -98.1024, 44.96834 ], [ -98.13822, 44.92072 ], [ -98.134, 44.80299 ], [ -98.20968, 44.82545 ], [ -98.19753, 44.49583 ], [ -98.19581, 44.44874 ], [ -98.12061, 44.42627 ], [ -98.08017, 44.33261 ], [ -97.93171, 44.33461 ], [ -97.9302, 44.28752 ], [ -97.89089, 44.21736 ], [ -97.81681, 44.21828 ], [ -97.77837, 44.17164 ], [ -97.77421, 44.03037 ], [ -97.69969, 44.00769 ], [ -97.69507, 43.84288 ], [ -97.65825, 43.8433 ], [ -97.5442, 43.70322 ], [ -97.50455, 43.58588 ], [ -97.32123, 43.58763 ], [ -97.28258, 43.49377 ], [ -97.17275, 43.49469 ], [ -97.17185, 43.44759 ], [ -97.42901, 43.49242 ], [ -97.79506, 43.48842 ], [ -97.79298, 43.41779 ], [ -97.75642, 43.41823 ], [ -97.75304, 43.30051 ], [ -97.57058, 43.30257 ], [ -97.53291, 43.25586 ], [ -97.53056, 43.16168 ], [ -97.56576, 43.1142 ], [ -97.71062, 43.08903 ], [ -97.74565, 43.04151 ], [ -97.70604, 42.92421 ], [ -97.8511, 42.92244 ], [ -97.88593, 42.87488 ], [ -97.88305, 42.7807 ], [ -97.80861, 42.71097 ], [ -97.80517, 42.59323 ], [ -97.76775, 42.54658 ], [ -97.76507, 42.45238 ], [ -97.6211, 42.45407 ], [ -97.61987, 42.40696 ], [ -97.47544, 42.38495 ], [ -97.47433, 42.33785 ], [ -97.33062, 42.33924 ], [ -97.29715, 42.45733 ], [ -97.22515, 42.45796 ], [ -97.26307, 42.55185 ], [ -97.29912, 42.55153 ], [ -97.30309, 42.73993 ], [ -97.26789, 42.78735 ], [ -97.15932, 42.78826 ], [ -97.1611, 42.88245 ], [ -97.23406, 42.90541 ], [ -97.235, 42.9525 ], [ -97.08985, 42.95366 ], [ -97.09278, 43.1185 ], [ -97.05721, 43.16586 ], [ -96.94797, 43.16661 ], [ -96.91015, 43.07264 ], [ -96.83711, 43.04953 ], [ -96.83647, 43.00243 ], [ -96.6912, 43.00319 ], [ -96.7264, 42.90882 ], [ -96.72557, 42.83817 ], [ -96.65313, 42.83851 ], [ -96.61644, 42.79157 ], [ -96.61526, 42.67381 ], [ -96.5426, 42.62699 ], [ -96.54218, 42.57989 ], [ -96.65039, 42.57944 ], [ -96.65139, 42.67365 ], [ -96.75976, 42.67313 ], [ -96.79649, 42.72004 ], [ -96.9411, 42.71917 ], [ -97.05075, 42.78908 ], [ -97.12313, 42.78854 ], [ -97.12099, 42.67079 ], [ -97.08404, 42.62396 ], [ -97.01185, 42.62448 ], [ -97.00573, 42.24764 ], [ -96.93291, 42.17746 ], [ -96.93151, 42.08323 ], [ -96.82416, 42.08389 ], [ -96.82291, 41.98966 ], [ -96.8226, 41.9661 ], [ -96.82137, 41.87186 ], [ -96.71357, 41.80175 ], [ -96.7125, 41.70751 ], [ -96.64088, 41.66072 ], [ -96.6404, 41.61359 ], [ -96.49815, 41.5906 ], [ -96.49704, 41.44921 ], [ -96.88669, 41.44731 ], [ -96.99332, 41.47018 ], [ -97.09962, 41.4694 ], [ -97.0988, 41.42227 ], [ -97.34664, 41.42014 ], [ -97.34563, 41.37301 ], [ -97.23857, 41.32684 ], [ -97.23719, 41.25614 ], [ -97.1657, 41.2096 ], [ -97.16267, 41.04461 ], [ -97.09308, 41.09231 ], [ -96.91697, 41.09356 ], [ -96.77636, 41.11798 ], [ -96.77751, 41.21226 ], [ -96.8481, 41.21185 ], [ -96.85031, 41.37683 ], [ -96.78013, 41.42437 ], [ -96.56767, 41.42538 ], [ -96.46075, 41.33149 ], [ -96.28396, 41.33195 ], [ -96.21308, 41.28494 ], [ -96.21285, 41.21423 ], [ -96.07157, 41.12009 ], [ -96.07151, 41.07294 ], [ -96.00109, 41.04939 ], [ -95.93079, 40.95507 ], [ -95.93084, 40.90792 ], [ -95.79042, 40.88421 ], [ -95.75568, 40.78984 ], [ -95.6505, 40.78962 ], [ -95.65076, 40.74246 ], [ -95.51082, 40.71846 ], [ -95.51118, 40.6713 ], [ -95.37121, 40.67075 ], [ -95.37167, 40.62359 ], [ -95.26678, 40.62308 ], [ -95.26732, 40.57591 ], [ -95.09262, 40.57489 ], [ -95.09296, 40.55131 ], [ -94.88341, 40.5498 ], [ -94.88423, 40.50264 ], [ -94.11656, 40.49443 ], [ -94.11517, 40.54159 ], [ -93.87078, 40.53809 ], [ -93.86921, 40.58525 ], [ -93.7644, 40.58362 ], [ -93.76275, 40.63077 ], [ -93.62292, 40.62847 ], [ -93.62116, 40.67562 ], [ -93.51621, 40.67381 ], [ -93.47937, 40.72033 ], [ -93.33836, 40.74132 ], [ -93.33639, 40.78846 ], [ -93.16119, 40.78504 ], [ -93.15909, 40.83218 ], [ -92.98377, 40.82854 ], [ -93.01662, 40.87641 ], [ -92.87628, 40.87338 ], [ -92.87396, 40.9205 ], [ -92.80137, 40.96605 ], [ -92.69597, 40.96363 ], [ -92.69352, 41.01075 ], [ -92.55161, 41.03095 ], [ -92.51127, 41.12432 ], [ -92.40562, 41.12167 ], [ -92.40294, 41.16878 ], [ -92.327, 41.26119 ], [ -92.25502, 41.2829 ], [ -92.21407, 41.37616 ], [ -92.10801, 41.3733 ], [ -92.11091, 41.3262 ], [ -92.00643, 41.29971 ], [ -91.7593, 41.29255 ], [ -91.76245, 41.24546 ], [ -91.69351, 41.21979 ], [ -91.58774, 41.21654 ], [ -91.51389, 41.26142 ], [ -91.33751, 41.25573 ], [ -91.30922, 41.1604 ], [ -91.20357, 41.15686 ], [ -91.13856, 41.08384 ], [ -91.14217, 41.03675 ], [ -91.03673, 41.03309 ], [ -91.00715, 40.96123 ], [ -90.62109, 40.94705 ], [ -90.4828, 40.9181 ], [ -90.48688, 40.87102 ], [ -90.34881, 40.84194 ], [ -90.31799, 40.79346 ], [ -90.21301, 40.78918 ], [ -90.20873, 40.83625 ], [ -89.85863, 40.82142 ], [ -89.72096, 40.79172 ], [ -89.72559, 40.74466 ], [ -89.62073, 40.73995 ], [ -89.51349, 40.75868 ], [ -89.40862, 40.7538 ], [ -89.40375, 40.80084 ], [ -89.29882, 40.79589 ], [ -89.30377, 40.74885 ], [ -89.16399, 40.74212 ], [ -89.13666, 40.66986 ], [ -89.03196, 40.66471 ], [ -89.0371, 40.61767 ], [ -88.9351, 40.58892 ], [ -88.79572, 40.58183 ], [ -88.80102, 40.5348 ], [ -88.66446, 40.50406 ], [ -88.66985, 40.45703 ], [ -88.56555, 40.45153 ], [ -88.46403, 40.42243 ], [ -88.46956, 40.37541 ], [ -88.3335, 40.34434 ], [ -87.91725, 40.32086 ], [ -87.88555, 40.29534 ], [ -87.60833, 40.27893 ], [ -87.40681, 40.21928 ], [ -87.16464, 40.20412 ], [ -87.13329, 40.17843 ], [ -86.9259, 40.16506 ], [ -86.86013, 40.13705 ], [ -86.6184, 40.12094 ], [ -86.58731, 40.09513 ], [ -86.27683, 40.07373 ], [ -86.21144, 40.04541 ], [ -86.21858, 39.99847 ], [ -86.08444, 39.96521 ], [ -86.09166, 39.91828 ], [ -85.91971, 39.90586 ], [ -85.91236, 39.95279 ], [ -85.83985, 39.97122 ], [ -85.49584, 39.94555 ], [ -85.49201, 39.96901 ], [ -85.2169, 39.94785 ], [ -85.21297, 39.9713 ], [ -85.04106, 39.95779 ], [ -84.97633, 39.92889 ], [ -84.87327, 39.92064 ], [ -84.88136, 39.87377 ], [ -84.74409, 39.86265 ], [ -84.63704, 39.87766 ], [ -84.61101, 39.82797 ], [ -84.51233, 39.79602 ], [ -84.37529, 39.78454 ], [ -84.27679, 39.75242 ], [ -84.2853, 39.70557 ], [ -84.18268, 39.69681 ], [ -84.1186, 39.6675 ], [ -83.9819, 39.65563 ], [ -83.91794, 39.62623 ], [ -83.78137, 39.61416 ], [ -83.68343, 39.58161 ], [ -83.58109, 39.5724 ], [ -83.4197, 39.51007 ], [ -83.28346, 39.49751 ], [ -83.26322, 39.42415 ], [ -83.09319, 39.40824 ], [ -82.93268, 39.34533 ], [ -82.69506, 39.32241 ], [ -82.62238, 39.33916 ], [ -82.61274, 39.38592 ], [ -82.51573, 39.35254 ], [ -82.38, 39.33908 ], [ -82.38981, 39.29234 ], [ -82.25918, 39.25539 ], [ -82.21042, 39.32207 ], [ -82.19052, 39.41553 ], [ -82.12262, 39.40865 ], [ -82.07863, 39.45192 ], [ -82.09369, 39.38185 ], [ -82.05976, 39.37839 ], [ -82.04466, 39.44846 ], [ -82.0107, 39.445 ], [ -82.0006, 39.4917 ], [ -81.92755, 39.50809 ], [ -81.90375, 39.45789 ], [ -81.8256, 39.49758 ], [ -81.68972, 39.48344 ], [ -81.63217, 39.42964 ], [ -81.53039, 39.41891 ], [ -81.54082, 39.37223 ], [ -81.50692, 39.36864 ], [ -81.49647, 39.41532 ], [ -81.42864, 39.4081 ], [ -81.19323, 39.52621 ], [ -81.19858, 39.50288 ], [ -81.13069, 39.49552 ], [ -81.11995, 39.54216 ], [ -81.22185, 39.5532 ], [ -81.17181, 39.61948 ], [ -81.13781, 39.6158 ], [ -81.10381, 39.61211 ], [ -81.08223, 39.70537 ], [ -81.01415, 39.69795 ], [ -81.00872, 39.72126 ], [ -80.90112, 39.73338 ], [ -80.96923, 39.74085 ], [ -80.95833, 39.78746 ], [ -80.89017, 39.77999 ], [ -80.85061, 39.79954 ], [ -80.82309, 39.91603 ], [ -80.77789, 39.95886 ], [ -80.71513, 39.928 ], [ -80.61272, 39.9166 ], [ -80.60713, 39.93989 ], [ -80.46496, 39.94784 ], [ -80.45931, 39.97112 ], [ -80.32274, 39.95565 ], [ -80.29992, 40.04875 ], [ -80.16323, 40.03312 ], [ -80.1517, 40.07965 ], [ -80.04335, 40.0911 ], [ -79.99168, 40.15691 ], [ -79.9566, 40.29644 ], [ -79.97333, 40.37017 ], [ -79.93809, 40.50966 ], [ -79.86929, 40.50169 ], [ -79.84674, 40.45121 ], [ -79.77207, 40.46643 ], [ -79.56592, 40.44217 ], [ -79.61825, 40.37653 ], [ -79.59594, 40.326 ], [ -79.45685, 40.45316 ], [ -79.51952, 40.48456 ], [ -79.50139, 40.55425 ], [ -79.39821, 40.54196 ], [ -79.37601, 40.4914 ], [ -79.38209, 40.46817 ], [ -79.34775, 40.46406 ], [ -79.33555, 40.5105 ], [ -79.30118, 40.50637 ], [ -79.25456, 40.54867 ], [ -79.17347, 40.58679 ], [ -79.15143, 40.5362 ], [ -79.20426, 40.47072 ], [ -79.21655, 40.42429 ], [ -79.25087, 40.42844 ], [ -79.26311, 40.382 ], [ -79.29741, 40.38613 ], [ -79.30961, 40.33969 ], [ -79.34389, 40.34382 ], [ -79.34997, 40.32059 ], [ -79.36819, 40.25091 ], [ -79.44874, 40.21267 ], [ -79.47285, 40.11973 ], [ -79.50702, 40.12382 ], [ -79.51902, 40.07734 ], [ -79.57111, 40.01169 ], [ -79.70902, 39.88437 ], [ -79.74441, 39.74484 ], [ -79.82411, 39.70636 ], [ -79.88142, 39.61731 ], [ -79.91049, 39.50097 ], [ -79.9675, 39.41186 ], [ -79.93367, 39.40788 ], [ -79.88825, 39.45043 ], [ -79.84276, 39.49297 ], [ -79.84858, 39.46971 ], [ -79.78089, 39.46168 ], [ -79.79258, 39.41515 ], [ -79.75876, 39.41113 ], [ -79.73081, 39.38383 ], [ -79.72046, 39.28673 ], [ -79.69114, 39.40306 ], [ -79.72495, 39.4071 ], [ -79.71322, 39.45363 ], [ -79.67939, 39.44959 ], [ -79.68527, 39.42632 ], [ -79.65145, 39.42228 ], [ -79.62944, 39.3717 ], [ -79.64121, 39.32517 ], [ -79.5796, 39.29378 ], [ -79.5914, 39.24726 ], [ -79.56949, 39.19666 ], [ -79.58717, 39.12686 ], [ -79.62083, 39.13092 ], [ -79.63257, 39.08438 ], [ -79.5653, 39.07625 ], [ -79.57119, 39.05298 ], [ -79.50396, 39.04482 ], [ -79.4486, 38.99009 ], [ -79.44268, 39.01336 ], [ -79.42096, 38.96272 ], [ -79.48809, 38.97093 ], [ -79.59469, 38.9599 ], [ -79.567, 38.93255 ], [ -79.59047, 38.83946 ], [ -79.55697, 38.83538 ], [ -79.54522, 38.88193 ], [ -79.41113, 38.86554 ], [ -79.39928, 38.91208 ], [ -79.33221, 38.90383 ], [ -79.28443, 39.0899 ], [ -79.25081, 39.08575 ], [ -79.22075, 39.20201 ], [ -79.16291, 39.29083 ], [ -79.07115, 39.37543 ], [ -79.01295, 39.46417 ], [ -78.94537, 39.45574 ], [ -78.92076, 39.54865 ], [ -78.82833, 39.63306 ], [ -78.76957, 39.72167 ], [ -78.70175, 39.71312 ], [ -78.65903, 39.61169 ], [ -78.58506, 39.6263 ], [ -78.55987, 39.71913 ], [ -78.45819, 39.70613 ], [ -78.32908, 39.6655 ], [ -78.34184, 39.61911 ], [ -78.43489, 39.53502 ], [ -78.40744, 39.50746 ], [ -78.37366, 39.5031 ], [ -78.41802, 39.34066 ], [ -78.33795, 39.37835 ], [ -78.23686, 39.36519 ], [ -78.16307, 39.37957 ], [ -78.14864, 39.30556 ], [ -78.06845, 39.34309 ], [ -77.90017, 39.32079 ], [ -77.81231, 39.26094 ], [ -77.87196, 39.17269 ], [ -77.96497, 39.08888 ], [ -77.99076, 38.99609 ], [ -78.12959, 38.87019 ], [ -78.03572, 38.83367 ], [ -78.01006, 38.92649 ], [ -77.95728, 38.99162 ], [ -77.88385, 39.00586 ], [ -77.79085, 39.08963 ], [ -77.71073, 39.12696 ], [ -77.61734, 39.2106 ], [ -77.61673, 39.09016 ], [ -77.58322, 39.0856 ], [ -77.53697, 39.24782 ], [ -77.44289, 39.21091 ], [ -77.42931, 39.13681 ], [ -77.29528, 39.11835 ], [ -77.38857, 38.79397 ], [ -77.34184, 38.71521 ], [ -77.27525, 38.70595 ], [ -77.18879, 38.64566 ], [ -77.2155, 38.55296 ], [ -77.11589, 38.53896 ], [ -77.02306, 38.50173 ], [ -77.05665, 38.38587 ], [ -76.99044, 38.37646 ], [ -76.94385, 38.41809 ], [ -76.86483, 38.33439 ], [ -76.89186, 38.24172 ], [ -76.83258, 38.20906 ], [ -76.72677, 38.21794 ], [ -76.59479, 38.19878 ], [ -76.53569, 38.16599 ], [ -76.54941, 38.11968 ], [ -76.49041, 38.08687 ], [ -76.35875, 38.06746 ], [ -76.31716, 38.20635 ], [ -76.38311, 38.21608 ], [ -76.35538, 38.30866 ], [ -76.36064, 38.40608 ], [ -76.42679, 38.41579 ], [ -76.4391, 38.49006 ], [ -76.50535, 38.49973 ], [ -76.51636, 38.6945 ], [ -76.42589, 38.99519 ], [ -76.35916, 38.98549 ], [ -76.39416, 38.86987 ], [ -76.33456, 38.83703 ], [ -76.38348, 38.67514 ], [ -76.27687, 38.68366 ], [ -76.17727, 38.66898 ], [ -76.15818, 38.61783 ], [ -76.29088, 38.63741 ], [ -76.35198, 38.54976 ], [ -76.33279, 38.49863 ], [ -76.34673, 38.45236 ], [ -76.28753, 38.41947 ], [ -76.28934, 38.29891 ], [ -76.19032, 38.28423 ], [ -76.17832, 38.20992 ], [ -76.11241, 38.20008 ], [ -76.14044, 38.10754 ], [ -76.08866, 38.05141 ], [ -76.058, 37.92585 ], [ -75.95958, 37.91099 ], [ -75.93845, 37.98039 ], [ -75.97595, 38.08284 ], [ -75.91019, 38.07291 ], [ -75.88693, 37.92418 ], [ -75.78856, 37.90919 ], [ -75.74433, 37.82979 ], [ -75.81691, 37.81668 ], [ -75.87083, 37.75227 ], [ -75.91306, 37.61343 ], [ -75.94571, 37.6184 ], [ -76.05731, 37.24791 ], [ -76.04564, 37.17346 ], [ -75.98076, 37.16354 ], [ -76.0016, 37.09404 ], [ -75.87201, 37.07413 ], [ -75.81863, 37.13861 ], [ -75.7765, 37.27754 ], [ -75.7045, 37.29064 ], [ -75.66204, 37.42949 ], [ -75.6295, 37.42444 ], [ -75.5296, 37.74823 ], [ -75.48255, 37.78938 ], [ -75.33005, 37.83831 ], [ -75.29374, 37.95382 ], [ -75.21361, 37.98973 ], [ -75.11822, 38.28984 ], [ -75.0853, 38.28466 ], [ -75.02607, 38.46923 ], [ -75.02195, 38.58973 ], [ -75.0435, 38.73846 ], [ -75.10236, 38.77187 ], [ -75.08004, 38.84105 ], [ -75.22026, 38.83861 ], [ -75.23129, 38.91293 ], [ -75.29778, 38.92319 ], [ -75.27562, 38.99238 ], [ -75.32744, 39.04874 ], [ -75.39409, 39.05895 ], [ -75.35722, 39.17427 ], [ -75.36107, 39.27161 ], [ -75.41319, 39.32792 ], [ -75.35367, 39.29467 ], [ -75.19396, 39.246 ], [ -75.18292, 39.1717 ], [ -75.04199, 39.1741 ], [ -74.90859, 39.15332 ], [ -74.96126, 38.99203 ], [ -75.01698, 38.92808 ], [ -74.88409, 38.90727 ], [ -74.74663, 39.00675 ], [ -74.70865, 39.1219 ], [ -74.61148, 39.20345 ], [ -74.52945, 39.2389 ], [ -74.46527, 39.32563 ], [ -74.39076, 39.33799 ], [ -74.29287, 39.41929 ], [ -74.25385, 39.53425 ], [ -74.17121, 39.56947 ], [ -74.02103, 40.00599 ], [ -74.05474, 40.01141 ], [ -73.94293, 40.33284 ], [ -73.9447, 40.43009 ], [ -73.98849, 40.50981 ], [ -74.04649, 40.44636 ], [ -74.18229, 40.46795 ], [ -74.11641, 40.55441 ], [ -73.97241, 40.55571 ], [ -73.83649, 40.53392 ], [ -73.7782, 40.59727 ], [ -73.60829, 40.56978 ], [ -73.45601, 40.59347 ], [ -73.31191, 40.5941 ], [ -73.26136, 40.63432 ], [ -73.12552, 40.61184 ], [ -72.96455, 40.65791 ], [ -72.90528, 40.72088 ], [ -72.80335, 40.70378 ], [ -72.78638, 40.74954 ], [ -72.64192, 40.74947 ], [ -72.62482, 40.79521 ], [ -72.52284, 40.7779 ], [ -72.49704, 40.84648 ], [ -72.39502, 40.82908 ], [ -72.30969, 40.86314 ], [ -72.24958, 40.92582 ], [ -72.11349, 40.90238 ], [ -72.08719, 40.97087 ], [ -72.09492, 41.04524 ], [ -72.06855, 41.11372 ], [ -72.23131, 41.0687 ], [ -72.19632, 41.16003 ], [ -72.29882, 41.17757 ], [ -72.46159, 41.13229 ], [ -72.49618, 41.04088 ], [ -72.56444, 41.05244 ], [ -72.62435, 40.98962 ], [ -72.76082, 41.01257 ], [ -73.16181, 41.00633 ], [ -73.17859, 40.96054 ], [ -73.25523, 40.94887 ], [ -73.39183, 40.97121 ], [ -73.50262, 40.96497 ], [ -73.51913, 40.91914 ], [ -73.66397, 40.9183 ], [ -73.49435, 40.98788 ], [ -73.4353, 41.05106 ], [ -73.3327, 41.03435 ], [ -73.31601, 41.08015 ], [ -73.23922, 41.09186 ], [ -73.22246, 41.13765 ], [ -73.08556, 41.11515 ], [ -73.06868, 41.16092 ], [ -72.90627, 41.2069 ], [ -72.83779, 41.19551 ], [ -72.81216, 41.26412 ], [ -72.70938, 41.24696 ], [ -72.5209, 41.26389 ], [ -72.22964, 41.26307 ], [ -72.17786, 41.30288 ], [ -72.04099, 41.27937 ], [ -71.94726, 41.23883 ], [ -71.88644, 41.30135 ], [ -71.74967, 41.27756 ], [ -71.68862, 41.33999 ], [ -71.58603, 41.32202 ], [ -71.52477, 41.38438 ], [ -71.42215, 41.36629 ], [ -71.36068, 41.42857 ], [ -71.27399, 41.46198 ], [ -71.16215, 41.46647 ], [ -71.0595, 41.44813 ], [ -70.9976, 41.51025 ], [ -70.92915, 41.49795 ], [ -70.90132, 41.56618 ], [ -70.78926, 41.57038 ], [ -70.7519, 41.66132 ], [ -70.64905, 41.64268 ], [ -70.69592, 41.52903 ], [ -70.74881, 41.48978 ], [ -70.81722, 41.50217 ], [ -70.82023, 41.40502 ], [ -70.74261, 41.41537 ], [ -70.81396, 41.33061 ], [ -70.62476, 41.34503 ], [ -70.48839, 41.32003 ], [ -70.41662, 41.40462 ], [ -70.55314, 41.42969 ], [ -70.52494, 41.49785 ], [ -70.45301, 41.58246 ], [ -70.38459, 41.56989 ], [ -70.3219, 41.63172 ], [ -70.20969, 41.63546 ], [ -70.10705, 41.61643 ], [ -70.04405, 41.67813 ], [ -69.98524, 41.64269 ], [ -69.90275, 41.74968 ], [ -69.89829, 41.84679 ], [ -69.95725, 41.88226 ], [ -69.97757, 42.00842 ], [ -70.02704, 42.06653 ], [ -70.16486, 42.09196 ], [ -70.24342, 42.08194 ], [ -70.23776, 42.00753 ], [ -70.16892, 41.99487 ], [ -70.11524, 42.0339 ], [ -70.06571, 41.97581 ], [ -70.10425, 41.88507 ], [ -70.03557, 41.87234 ], [ -70.0741, 41.78161 ], [ -70.177, 41.80066 ], [ -70.24, 41.73891 ], [ -70.37718, 41.76414 ], [ -70.47067, 41.80569 ], [ -70.52044, 41.86364 ], [ -70.48251, 41.95449 ], [ -70.61081, 42.0022 ], [ -70.60743, 42.09931 ], [ -70.65757, 42.15721 ], [ -70.72669, 42.16963 ], [ -70.69834, 42.2378 ], [ -70.79275, 42.27913 ], [ -70.89668, 42.29767 ], [ -70.88433, 42.4175 ], [ -70.81182, 42.50224 ], [ -70.74231, 42.48986 ], [ -70.62521, 42.59102 ], [ -70.57741, 42.70458 ], [ -70.76127, 42.71295 ], [ -70.81205, 42.77078 ], [ -70.69753, 43.04342 ], [ -70.62403, 43.12806 ], [ -70.64952, 43.15699 ], [ -71.00104, 43.2188 ], [ -71.09716, 43.25992 ], [ -71.3274, 43.25095 ], [ -71.29921, 43.31921 ], [ -71.3957, 43.36013 ], [ -71.50165, 43.37822 ], [ -71.59094, 43.3447 ], [ -71.6541, 43.28237 ], [ -71.77844, 43.2547 ], [ -71.78002, 43.15761 ], [ -71.93928, 43.13576 ], [ -72.00187, 43.07328 ], [ -72.07229, 43.08506 ], [ -72.16083, 43.05119 ], [ -72.16892, 43.12547 ], [ -72.23943, 43.13717 ], [ -72.26648, 43.06873 ], [ -72.3549, 43.03474 ], [ -72.48688, 43.08075 ], [ -72.53995, 43.04087 ], [ -72.57551, 42.94953 ], [ -72.64589, 42.96104 ], [ -72.68124, 42.86967 ], [ -72.67258, 42.79541 ], [ -72.78671, 42.78974 ], [ -72.80424, 42.74404 ], [ -72.90954, 42.76112 ], [ -73.10248, 42.74368 ], [ -73.17273, 42.75493 ], [ -73.18199, 42.82916 ], [ -73.14741, 42.92064 ], [ -73.23584, 42.98322 ], [ -73.34167, 42.99998 ], [ -73.2986, 43.11438 ], [ -73.38651, 43.07977 ], [ -73.56326, 43.10748 ], [ -73.62416, 43.04431 ], [ -73.69484, 43.05531 ], [ -73.75555, 42.99208 ], [ -73.84302, 42.9572 ], [ -73.99265, 42.95603 ], [ -74.00934, 42.91019 ], [ -74.12354, 42.90347 ], [ -74.30011, 42.9303 ], [ -74.32478, 42.86149 ], [ -74.50132, 42.88807 ], [ -74.61543, 42.88096 ], [ -74.66397, 42.74323 ], [ -74.81305, 42.74122 ], [ -74.91888, 42.75684 ], [ -74.99741, 42.74423 ], [ -75.01329, 42.69828 ], [ -75.11909, 42.71376 ], [ -75.13488, 42.66779 ], [ -75.21325, 42.65507 ], [ -75.3543, 42.67549 ], [ -75.41293, 42.61158 ], [ -75.58921, 42.63685 ], [ -75.66745, 42.62388 ], [ -75.56708, 42.923 ], [ -75.56372, 43.04306 ], [ -75.6037, 43.14515 ], [ -75.56476, 43.26018 ], [ -75.62825, 43.29324 ], [ -75.60488, 43.36226 ], [ -75.64513, 43.46433 ], [ -75.72442, 43.45134 ], [ -75.69331, 43.54338 ], [ -75.76493, 43.55337 ], [ -75.77747, 43.6274 ], [ -75.84146, 43.66037 ], [ -75.85412, 43.7344 ], [ -75.91052, 43.79035 ], [ -76.01845, 43.80517 ], [ -76.03136, 43.87918 ], [ -76.10343, 43.88901 ], [ -76.19845, 43.8297 ], [ -76.22894, 43.73755 ], [ -76.16466, 43.70475 ], [ -76.15163, 43.63075 ], [ -76.19729, 43.49254 ], [ -76.3406, 43.51201 ], [ -76.45564, 43.50346 ], [ -76.62878, 43.43045 ], [ -76.65842, 43.33821 ], [ -76.73733, 43.32467 ], [ -76.75205, 43.27854 ], [ -76.93079, 43.30217 ], [ -76.98837, 43.23765 ], [ -77.16707, 43.26099 ], [ -77.30299, 43.30261 ], [ -77.41749, 43.29331 ], [ -77.4317, 43.24712 ], [ -77.75382, 43.28801 ], [ -77.8185, 43.32012 ], [ -77.9619, 43.338 ], [ -77.99086, 43.36558 ], [ -78.17031, 43.3877 ], [ -78.17715, 43.36457 ], [ -78.35666, 43.38647 ], [ -78.36342, 43.36332 ], [ -78.543, 43.38499 ], [ -78.59895, 43.31984 ], [ -78.77848, 43.34123 ], [ -78.79167, 43.2949 ], [ -78.94181, 43.28867 ], [ -78.95487, 43.24233 ], [ -79.13429, 43.26328 ], [ -79.1895, 43.1979 ], [ -79.29711, 43.21033 ], [ -79.30988, 43.16396 ], [ -79.41111, 43.19948 ], [ -79.59057, 43.21987 ], [ -79.69206, 43.2552 ], [ -79.80608, 43.24405 ], [ -79.75634, 43.42969 ], [ -79.6294, 43.4872 ], [ -79.59157, 43.62638 ], [ -79.50659, 43.66464 ], [ -79.43428, 43.65647 ], [ -79.37892, 43.72193 ], [ -79.29368, 43.76006 ], [ -79.22128, 43.75179 ], [ -79.1591, 43.84035 ], [ -79.0504, 43.82783 ], [ -79.0373, 43.87417 ], [ -78.92856, 43.86156 ], [ -78.84946, 43.87627 ], [ -78.8362, 43.9226 ], [ -78.68447, 43.92872 ], [ -78.50322, 43.90722 ], [ -78.41037, 43.968 ], [ -78.30159, 43.95492 ], [ -78.28789, 44.0012 ], [ -78.17218, 44.01117 ], [ -77.99088, 43.98905 ], [ -77.87515, 43.99879 ], [ -77.8611, 44.04503 ], [ -77.75231, 44.03155 ], [ -77.73817, 44.07778 ], [ -77.65851, 44.09185 ], [ -77.52104, 44.17064 ], [ -77.4121, 44.15692 ], [ -77.3541, 44.22161 ], [ -77.17247, 44.19849 ], [ -77.12151, 44.24001 ], [ -77.63071, 44.30436 ], [ -77.74707, 44.29481 ], [ -77.76126, 44.24858 ], [ -77.87749, 44.23893 ], [ -78.05951, 44.26119 ], [ -78.11679, 44.19623 ], [ -78.26235, 44.21382 ], [ -78.4285, 44.16184 ], [ -78.49208, 44.07358 ], [ -78.63746, 44.09081 ], [ -78.70065, 44.00247 ], [ -78.78661, 43.96467 ], [ -78.89551, 43.97739 ], [ -79.01445, 44.08691 ], [ -79.14693, 44.14998 ], [ -79.25624, 44.16243 ], [ -79.24322, 44.2088 ], [ -79.44925, 44.27987 ], [ -79.80213, 44.36674 ], [ -79.98521, 44.38665 ], [ -80.10131, 44.37527 ], [ -80.1684, 44.40633 ], [ -80.38839, 44.42966 ], [ -80.39449, 44.40643 ], [ -80.61456, 44.42942 ], [ -80.66922, 44.3635 ], [ -80.88925, 44.38608 ], [ -80.94356, 44.32006 ], [ -81.09019, 44.33489 ], [ -81.10181, 44.28837 ], [ -81.2484, 44.30304 ], [ -81.25989, 44.25651 ], [ -81.55581, 44.11889 ], [ -81.70209, 44.13312 ], [ -81.68777, 44.03645 ], [ -81.72656, 43.87349 ], [ -81.69013, 43.86995 ], [ -81.72881, 43.70698 ], [ -81.72005, 43.58704 ], [ -81.64756, 43.57996 ], [ -81.70813, 43.32388 ], [ -81.75516, 43.28084 ], [ -81.82731, 43.28787 ], [ -81.88505, 43.19823 ], [ -81.99316, 43.20867 ], [ -82.00388, 43.16208 ], [ -82.09721, 43.07581 ], [ -82.17973, 43.03607 ], [ -82.28761, 43.0463 ], [ -82.29808, 42.99969 ], [ -82.47782, 43.01654 ], [ -82.46231, 43.08647 ], [ -82.48281, 43.15975 ], [ -82.5549, 43.16642 ], [ -82.52395, 43.30629 ], [ -82.53424, 43.42618 ], [ -82.6015, 43.45615 ], [ -82.58086, 43.5494 ], [ -82.64313, 43.60266 ], [ -82.61215, 43.74254 ], [ -82.68495, 43.74915 ], [ -82.66433, 43.84241 ], [ -82.77948, 43.99547 ], [ -82.88408, 44.02857 ], [ -83.03044, 44.04149 ], [ -83.04051, 43.99483 ], [ -83.12366, 43.95457 ], [ -83.23333, 43.9641 ], [ -83.3163, 43.92373 ], [ -83.33595, 43.83038 ], [ -83.52059, 43.6561 ], [ -83.59338, 43.66227 ], [ -83.64887, 43.57194 ], [ -83.75793, 43.58108 ], [ -83.74848, 43.62778 ], [ -83.89405, 43.63985 ], [ -83.99863, 43.67217 ], [ -84.13543, 43.54086 ], [ -84.15826, 43.42404 ], [ -84.21269, 43.33351 ], [ -84.28066, 43.3627 ], [ -84.53452, 43.38281 ], [ -84.71161, 43.42028 ], [ -84.74359, 43.44646 ], [ -84.88892, 43.45754 ], [ -84.86116, 43.40801 ], [ -85.00642, 43.41898 ], [ -85.01488, 43.3722 ], [ -85.19639, 43.38571 ], [ -85.20469, 43.33891 ], [ -85.2855, 43.29745 ], [ -85.43869, 43.2612 ], [ -85.44274, 43.23779 ], [ -85.7327, 43.25844 ], [ -85.88164, 43.24514 ], [ -85.87387, 43.29197 ], [ -86.01903, 43.30194 ], [ -86.08781, 43.33029 ], [ -86.08018, 43.37713 ], [ -86.22557, 43.3869 ], [ -86.29455, 43.41515 ], [ -86.28707, 43.462 ], [ -86.42901, 43.49499 ], [ -86.45808, 43.54422 ], [ -86.47278, 43.4505 ], [ -86.39999, 43.44576 ], [ -86.37472, 43.37309 ], [ -86.38582, 43.30281 ], [ -86.2406, 43.2932 ], [ -86.26678, 43.12923 ], [ -86.20939, 43.03069 ], [ -86.19201, 42.91114 ], [ -86.28476, 42.32544 ], [ -86.3205, 42.32785 ], [ -86.45301, 42.17096 ], [ -86.4674, 42.0772 ], [ -86.54573, 42.03504 ], [ -86.59194, 41.96705 ], [ -86.61312, 41.82638 ], [ -86.71952, 41.83333 ], [ -86.76886, 41.74183 ], [ -86.84657, 41.69949 ], [ -86.95278, 41.70626 ], [ -86.95955, 41.65935 ], [ -87.0657, 41.66604 ], [ -87.07239, 41.61913 ], [ -87.35537, 41.63657 ], [ -87.46472, 41.6195 ], [ -87.48736, 41.71549 ], [ -87.55823, 41.7197 ], [ -87.61968, 41.79428 ], [ -87.61023, 41.86469 ], [ -87.68128, 41.86884 ], [ -87.65934, 42.03311 ], [ -87.75378, 42.13316 ], [ -87.8516, 42.20967 ], [ -87.81449, 42.49128 ], [ -87.85038, 42.49331 ], [ -87.82245, 42.7045 ], [ -87.77391, 42.79631 ], [ -87.87901, 42.82586 ], [ -87.85726, 42.99011 ], [ -87.92962, 42.99413 ], [ -87.89862, 43.22877 ], [ -87.93494, 43.23078 ], [ -87.91631, 43.37156 ], [ -87.83093, 43.46137 ], [ -87.81515, 43.57867 ], [ -87.77863, 43.57664 ], [ -87.70817, 44.09273 ], [ -87.62472, 44.15897 ], [ -87.55098, 44.1548 ], [ -87.57471, 44.25071 ], [ -87.54499, 44.46182 ], [ -87.50794, 44.45972 ], [ -87.49127, 44.57699 ], [ -87.41028, 44.61966 ], [ -87.38659, 44.78384 ], [ -87.41707, 44.83289 ], [ -87.6408, 44.8455 ], [ -87.65397, 44.75166 ], [ -87.74796, 44.61501 ], [ -87.90932, 44.52926 ], [ -88.05777, 44.53722 ], [ -88.03903, 44.67803 ], [ -87.95513, 44.74446 ], [ -87.94244, 44.83833 ], [ -87.80793, 44.99655 ], [ -87.65836, 44.98834 ], [ -87.62857, 45.19951 ], [ -87.55018, 45.2188 ], [ -87.54011, 45.28919 ], [ -87.36239, 45.46841 ], [ -87.2766, 45.53448 ], [ -87.22488, 45.62615 ], [ -87.21083, 45.72 ], [ -87.13517, 45.71561 ], [ -87.09021, 45.76033 ], [ -87.07233, 45.87763 ], [ -86.98199, 45.96702 ], [ -86.94401, 45.96477 ], [ -86.97665, 45.75365 ], [ -86.86311, 45.74689 ], [ -86.81792, 45.79152 ], [ -86.80318, 45.88534 ], [ -86.61358, 45.87381 ], [ -86.53017, 45.91603 ], [ -86.54914, 45.79879 ], [ -86.46579, 45.84097 ], [ -86.39002, 45.83622 ], [ -86.2792, 46.04242 ], [ -86.46544, 46.07782 ], [ -86.45775, 46.12472 ], [ -86.56817, 46.15523 ], [ -86.68247, 46.16221 ], [ -86.67495, 46.20913 ], [ -86.78564, 46.23949 ], [ -86.97646, 46.25081 ], [ -86.96916, 46.29774 ], [ -87.15663, 46.33231 ], [ -87.38608, 46.34531 ], [ -87.38956, 46.32184 ], [ -87.8103, 46.34478 ], [ -87.81361, 46.3213 ], [ -88.11968, 46.33726 ], [ -88.12606, 46.29028 ], [ -88.35553, 46.30184 ], [ -88.36171, 46.25485 ], [ -88.51463, 46.26236 ], [ -88.48247, 46.2135 ], [ -88.63529, 46.22089 ], [ -88.76163, 46.13233 ], [ -88.83794, 46.13591 ], [ -89.08369, 46.00538 ], [ -89.13283, 45.91307 ], [ -89.20888, 45.91646 ], [ -89.25775, 45.82412 ], [ -89.33636, 45.80394 ], [ -89.46598, 45.66782 ], [ -89.47642, 45.5738 ], [ -89.55463, 45.55352 ], [ -89.57771, 45.34197 ], [ -89.61538, 45.34356 ], [ -89.64321, 45.08503 ], [ -89.60571, 45.08345 ], [ -89.62339, 44.91894 ], [ -89.58599, 44.91736 ], [ -89.59864, 44.79986 ], [ -89.6708, 44.82652 ], [ -90.08173, 44.84325 ], [ -90.11213, 44.91523 ], [ -90.22437, 44.91958 ], [ -90.36292, 45.0428 ], [ -90.35846, 45.08983 ], [ -90.46886, 45.1175 ], [ -90.58151, 45.12158 ], [ -90.57721, 45.16861 ], [ -90.84034, 45.17781 ], [ -90.87591, 45.20261 ], [ -91.28974, 45.21605 ], [ -91.36316, 45.2419 ], [ -91.35947, 45.28895 ], [ -91.54787, 45.2946 ], [ -91.61976, 45.34386 ], [ -91.61452, 45.41446 ], [ -91.72781, 45.41768 ], [ -91.7244, 45.46475 ], [ -91.87395, 45.49246 ], [ -92.02523, 45.49649 ], [ -92.05675, 45.59163 ], [ -92.20678, 45.61902 ], [ -92.2007, 45.71319 ], [ -92.27215, 45.78569 ], [ -92.42421, 45.78933 ], [ -92.42134, 45.83642 ], [ -92.61159, 45.84075 ], [ -92.61023, 45.8643 ], [ -92.80058, 45.86839 ], [ -92.79801, 45.9155 ], [ -92.91232, 45.91784 ], [ -92.90859, 45.98851 ], [ -92.98247, 46.03713 ], [ -93.05884, 46.03862 ], [ -93.0541, 46.13285 ], [ -93.20597, 46.15926 ], [ -93.27812, 46.25488 ], [ -93.35264, 46.30334 ], [ -93.34188, 46.539 ], [ -93.57302, 46.5428 ], [ -93.57104, 46.58994 ], [ -93.72528, 46.59228 ], [ -93.8015, 46.61697 ], [ -93.91809, 46.59499 ], [ -93.9944, 46.61958 ], [ -93.99276, 46.66673 ], [ -94.06842, 46.71486 ], [ -94.18361, 46.73984 ], [ -94.2996, 46.74115 ], [ -94.29473, 46.90622 ], [ -94.33214, 46.95381 ], [ -94.32941, 47.04815 ], [ -94.25167, 47.0473 ], [ -94.21133, 47.09403 ], [ -94.24808, 47.16524 ], [ -94.24519, 47.25961 ], [ -94.44027, 47.26167 ], [ -94.44155, 47.21448 ], [ -94.63648, 47.2163 ], [ -94.83094, 47.24147 ], [ -94.82901, 47.33585 ], [ -94.86714, 47.38334 ], [ -94.71074, 47.38213 ], [ -94.59286, 47.40472 ], [ -94.47426, 47.45082 ], [ -94.27854, 47.4488 ], [ -94.27711, 47.496 ], [ -94.15959, 47.49467 ], [ -94.15807, 47.54187 ], [ -94.04045, 47.54045 ], [ -94.03883, 47.58765 ], [ -93.92113, 47.58614 ], [ -93.9194, 47.63334 ], [ -93.76141, 47.65479 ], [ -93.71835, 47.74865 ], [ -93.63967, 47.74749 ], [ -93.63574, 47.84191 ], [ -93.51752, 47.8401 ], [ -93.3522, 48.00281 ], [ -93.34999, 48.05003 ], [ -93.22787, 48.11885 ], [ -93.22323, 48.21331 ], [ -93.14032, 48.28276 ], [ -93.09574, 48.37653 ], [ -93.06991, 48.87282 ], [ -93.10514, 48.96813 ], [ -93.18554, 48.96956 ], [ -93.18195, 49.04051 ], [ -93.26013, 49.0892 ], [ -93.25663, 49.16017 ], [ -93.33277, 49.25616 ], [ -93.41249, 49.28114 ], [ -93.44857, 49.37645 ], [ -93.52957, 49.3777 ], [ -93.56695, 49.44933 ], [ -93.64604, 49.49788 ], [ -93.76782, 49.49959 ], [ -93.7659, 49.54695 ], [ -93.92753, 49.57278 ], [ -94.00712, 49.62117 ], [ -94.00541, 49.66854 ], [ -94.12757, 49.66999 ], [ -94.12596, 49.71737 ], [ -94.24748, 49.74242 ], [ -94.41059, 49.74409 ], [ -94.40922, 49.79148 ], [ -94.65412, 49.79368 ], [ -94.65296, 49.84108 ], [ -94.77551, 49.84204 ], [ -94.81381, 49.96086 ], [ -94.8957, 49.96143 ], [ -94.93572, 50.00912 ], [ -94.93249, 50.17512 ], [ -95.01342, 50.2468 ], [ -95.01127, 50.36543 ], [ -95.05252, 50.36567 ], [ -95.05004, 50.50808 ], [ -95.0902, 50.57954 ], [ -95.1723, 50.62746 ], [ -95.29448, 50.7943 ], [ -95.29386, 50.84182 ], [ -95.37681, 50.86592 ], [ -95.45912, 50.96127 ], [ -95.45793, 51.08013 ], [ -95.41613, 51.07999 ], [ -95.41329, 51.34163 ], [ -95.45529, 51.34177 ], [ -95.45408, 51.46077 ], [ -95.53765, 51.53244 ], [ -95.53683, 51.62769 ], [ -95.62094, 51.67553 ], [ -95.62043, 51.747 ], [ -95.7048, 51.79482 ], [ -95.70454, 51.84248 ], [ -95.87395, 51.91419 ], [ -95.91625, 52.00959 ], [ -96.00131, 52.00961 ], [ -96.0439, 52.08114 ], [ -96.21463, 52.17643 ], [ -96.42813, 52.19989 ], [ -96.42852, 52.24761 ], [ -96.55667, 52.24724 ], [ -96.55718, 52.29497 ], [ -96.68545, 52.2945 ], [ -96.68607, 52.34224 ], [ -96.81482, 52.36554 ], [ -96.98607, 52.36464 ], [ -96.98252, 52.17372 ], [ -96.8964, 52.12648 ], [ -96.89519, 52.05493 ], [ -96.80934, 52.00767 ], [ -96.80789, 51.91231 ], [ -96.67962, 51.84137 ], [ -96.67841, 51.74606 ], [ -96.63468, 51.62713 ], [ -96.54974, 51.5798 ], [ -96.54901, 51.50837 ], [ -96.42149, 51.36592 ], [ -96.33745, 51.36612 ], [ -96.337, 51.29473 ], [ -96.25285, 51.2473 ], [ -96.29439, 51.17588 ], [ -96.29387, 51.08075 ], [ -96.37746, 51.08059 ], [ -96.3763, 50.91419 ], [ -96.33463, 50.91428 ], [ -96.33317, 50.6767 ], [ -96.29143, 50.62928 ], [ -96.49868, 50.62878 ], [ -96.58208, 50.67601 ], [ -96.5803, 50.50979 ], [ -96.53801, 50.41499 ], [ -96.62004, 50.36723 ], [ -96.90878, 50.36589 ], [ -96.95086, 50.41312 ], [ -96.95293, 50.53181 ], [ -96.9943, 50.53156 ], [ -97.00218, 50.95913 ], [ -96.96048, 50.95938 ], [ -96.96344, 51.12579 ], [ -96.88056, 51.17381 ] ], [ [ -70.74261, 41.41537 ], [ -70.70527, 41.5063 ], [ -70.64625, 41.47113 ], [ -70.74261, 41.41537 ] ], [ [ -79.62195, 39.53857 ], [ -79.67939, 39.44959 ], [ -79.66761, 39.49611 ], [ -79.6897, 39.54667 ], [ -79.62195, 39.53857 ] ], [ [ -79.78863, 40.54017 ], [ -79.79929, 40.63713 ], [ -79.69592, 40.62506 ], [ -79.71982, 40.53212 ], [ -79.78863, 40.54017 ] ], [ [ -96.49909, 41.70841 ], [ -96.57023, 41.70815 ], [ -96.57108, 41.80239 ], [ -96.49984, 41.80266 ], [ -96.49909, 41.70841 ] ], [ [ -96.86681, 42.57831 ], [ -96.90426, 42.6723 ], [ -96.83201, 42.67273 ], [ -96.75918, 42.62602 ], [ -96.75803, 42.53182 ], [ -96.86615, 42.53121 ], [ -96.86681, 42.57831 ] ], [ [ -79.04911, 43.03799 ], [ -79.00039, 43.08014 ], [ -78.8573, 43.06327 ], [ -78.87689, 42.99377 ], [ -78.83814, 42.86946 ], [ -78.87071, 42.75363 ], [ -78.91926, 42.71152 ], [ -79.03241, 42.70097 ], [ -79.08722, 42.63562 ], [ -79.11281, 42.5429 ], [ -79.2611, 42.53634 ], [ -79.32182, 42.44772 ], [ -79.44067, 42.41365 ], [ -79.50102, 42.32495 ], [ -79.60718, 42.33715 ], [ -79.77328, 42.26045 ], [ -79.82693, 42.19481 ], [ -79.99238, 42.11786 ], [ -80.13359, 42.13362 ], [ -80.2161, 42.09499 ], [ -80.26914, 42.02919 ], [ -80.35142, 41.99048 ], [ -80.45717, 42.00205 ], [ -80.46883, 41.95557 ], [ -80.6098, 41.97087 ], [ -80.66231, 41.90492 ], [ -80.74419, 41.86598 ], [ -80.88502, 41.88101 ], [ -80.86115, 41.83075 ], [ -81.00193, 41.84566 ], [ -81.05393, 41.77956 ], [ -81.15945, 41.79062 ], [ -81.17055, 41.74408 ], [ -81.27604, 41.75505 ], [ -81.35734, 41.71576 ], [ -81.4143, 41.62624 ], [ -81.48452, 41.63345 ], [ -81.54122, 41.54388 ], [ -81.61136, 41.55102 ], [ -81.69219, 41.51153 ], [ -81.74319, 41.44517 ], [ -81.95339, 41.4662 ], [ -82.08842, 41.50336 ], [ -82.09878, 41.45674 ], [ -82.20394, 41.46703 ], [ -82.21421, 41.42039 ], [ -82.35946, 41.41066 ], [ -82.3696, 41.36401 ], [ -82.57974, 41.38412 ], [ -82.6799, 41.41739 ], [ -82.66998, 41.46406 ], [ -82.81525, 41.45386 ], [ -82.82507, 41.40718 ], [ -83.00041, 41.4234 ], [ -83.10085, 41.45638 ], [ -83.07678, 41.57311 ], [ -83.18229, 41.58268 ], [ -83.17271, 41.62938 ], [ -83.23835, 41.65907 ], [ -83.4145, 41.67477 ], [ -83.51556, 41.70745 ], [ -83.49685, 41.80088 ], [ -83.40736, 41.88808 ], [ -83.3319, 41.90517 ], [ -83.24203, 41.99226 ], [ -83.20356, 42.17902 ], [ -83.16805, 42.17584 ], [ -83.13411, 42.33922 ], [ -83.08875, 42.3827 ], [ -82.94629, 42.36984 ], [ -82.91165, 42.53315 ], [ -82.83028, 42.5733 ], [ -82.80024, 42.71325 ], [ -82.62129, 42.6968 ], [ -82.63653, 42.62684 ], [ -82.56505, 42.62021 ], [ -82.58033, 42.55026 ], [ -82.40191, 42.53353 ], [ -82.41735, 42.4636 ], [ -82.35642, 42.41023 ], [ -82.41257, 42.32036 ], [ -82.49389, 42.28043 ], [ -82.74272, 42.30363 ], [ -82.88994, 42.29337 ], [ -82.95122, 42.34651 ], [ -83.00155, 42.27973 ], [ -83.07268, 42.28616 ], [ -83.1019, 42.14613 ], [ -83.04069, 42.09304 ], [ -83.05044, 42.04637 ], [ -82.90875, 42.03347 ], [ -82.68631, 42.0605 ], [ -82.54467, 42.04724 ], [ -82.40782, 42.1771 ], [ -82.30143, 42.16697 ], [ -82.13874, 42.24655 ], [ -82.12828, 42.29316 ], [ -81.98623, 42.27935 ], [ -81.8282, 42.33528 ], [ -81.8014, 42.45174 ], [ -81.67296, 42.5343 ], [ -81.54966, 42.59346 ], [ -81.42059, 42.67579 ], [ -81.24214, 42.65764 ], [ -81.23093, 42.70418 ], [ -81.12948, 42.66991 ], [ -80.98109, 42.67838 ], [ -80.76711, 42.65593 ], [ -80.70163, 42.62513 ], [ -80.59476, 42.61374 ], [ -80.45822, 42.57519 ], [ -80.42282, 42.7146 ], [ -80.3515, 42.70688 ], [ -80.29201, 42.79592 ], [ -80.20861, 42.83459 ], [ -80.09543, 42.84605 ], [ -79.8812, 42.8223 ], [ -79.82707, 42.88794 ], [ -79.6128, 42.86379 ], [ -79.49945, 42.87479 ], [ -79.48689, 42.92118 ], [ -79.37975, 42.9089 ], [ -79.30199, 42.92385 ], [ -79.15918, 42.90727 ], [ -79.05857, 42.87157 ], [ -79.03276, 42.96427 ], [ -79.04911, 43.03799 ] ], [ [ -102.6325, 51.25866 ], [ -102.62664, 51.2112 ], [ -102.7938, 51.20447 ], [ -102.83257, 51.17904 ], [ -103.04136, 51.17035 ], [ -103.00579, 51.21955 ], [ -103.04312, 51.50432 ], [ -102.8781, 51.53505 ], [ -102.88422, 51.58255 ], [ -102.75797, 51.58768 ], [ -102.74597, 51.49269 ], [ -102.65603, 51.44856 ], [ -102.53008, 51.45352 ], [ -102.50411, 51.23987 ], [ -102.6325, 51.25866 ] ], [ [ -100.37988, 51.45205 ], [ -100.50599, 51.4487 ], [ -100.51802, 51.59139 ], [ -100.39157, 51.59474 ], [ -100.37988, 51.45205 ] ], [ [ -76.7783, 38.39438 ], [ -76.69269, 38.33375 ], [ -76.70634, 38.28743 ], [ -76.80548, 38.30173 ], [ -76.81819, 38.37598 ], [ -76.7783, 38.39438 ] ], [ [ -76.3152, 39.24461 ], [ -76.30994, 39.1473 ], [ -76.23086, 39.06332 ], [ -76.4119, 39.04143 ], [ -76.43131, 39.09252 ], [ -76.40328, 39.18499 ], [ -76.3293, 39.19839 ], [ -76.3152, 39.24461 ] ], [ [ -79.70594, 39.62049 ], [ -79.64839, 39.70947 ], [ -79.58047, 39.70135 ], [ -79.59827, 39.63159 ], [ -79.70594, 39.62049 ] ], [ [ -79.3807, 39.79712 ], [ -79.33464, 39.83947 ], [ -79.32255, 39.88594 ], [ -79.30668, 39.8121 ], [ -79.34672, 39.793 ], [ -79.35877, 39.74652 ], [ -79.38283, 39.65355 ], [ -79.45068, 39.66177 ], [ -79.40475, 39.70415 ], [ -79.4147, 39.80123 ], [ -79.3807, 39.79712 ] ], [ [ -79.46472, 39.87916 ], [ -79.49876, 39.88325 ], [ -79.48079, 39.95297 ], [ -79.44671, 39.94888 ], [ -79.46472, 39.87916 ] ] ], [ [ [ -76.38238, 37.29698 ], [ -76.24542, 37.30062 ], [ -76.2642, 37.35186 ], [ -76.23666, 37.44454 ], [ -76.26743, 37.57017 ], [ -76.2398, 37.66281 ], [ -76.25177, 37.73718 ], [ -76.19626, 37.9224 ], [ -76.32066, 37.96512 ], [ -76.3483, 37.8725 ], [ -76.34999, 37.75183 ], [ -76.4155, 37.76156 ], [ -76.46881, 37.69691 ], [ -76.53428, 37.70657 ], [ -76.55471, 37.63705 ], [ -76.48931, 37.62739 ], [ -76.53698, 37.46515 ], [ -76.5696, 37.46997 ], [ -76.55734, 37.3956 ], [ -76.45958, 37.38109 ], [ -76.4732, 37.33472 ], [ -76.38238, 37.29698 ] ] ], [ [ [ -78.67709, 38.24443 ], [ -78.66482, 38.29094 ], [ -78.7434, 38.253 ], [ -78.67709, 38.24443 ] ] ], [ [ [ -78.56532, 38.278 ], [ -78.47421, 38.36231 ], [ -78.46178, 38.40879 ], [ -78.38911, 38.42332 ], [ -78.35783, 38.53949 ], [ -78.3057, 38.60479 ], [ -78.2742, 38.72092 ], [ -78.22818, 38.76296 ], [ -78.16142, 38.75413 ], [ -78.12959, 38.87019 ], [ -78.19646, 38.87903 ], [ -78.22184, 38.78617 ], [ -78.32205, 38.79935 ], [ -78.34722, 38.70646 ], [ -78.33273, 38.6324 ], [ -78.40565, 38.61792 ], [ -78.4244, 38.54822 ], [ -78.4972, 38.53368 ], [ -78.54061, 38.37099 ], [ -78.66482, 38.29094 ], [ -78.56532, 38.278 ] ] ], [ [ [ -71.63993, 41.18525 ], [ -71.62376, 41.13367 ], [ -71.5556, 41.12166 ], [ -71.54472, 41.24163 ], [ -71.63993, 41.18525 ] ] ], [ [ [ -70.29915, 41.33401 ], [ -70.08946, 41.22155 ], [ -69.97796, 41.22511 ], [ -69.93963, 41.31585 ], [ -70.10983, 41.34774 ], [ -70.29915, 41.33401 ] ] ] ] } },
{ "type": "Feature", "properties": { "ID": 2 }, "geometry": { "type": "MultiPolygon", "coordinates": [ [ [ [ -101.68278, 41.1713 ], [ -101.65388, 41.24329 ], [ -101.79485, 41.23761 ], [ -101.86751, 41.25823 ], [ -101.82792, 41.21264 ], [ -101.72224, 41.21694 ], [ -101.68278, 41.1713 ] ] ], [ [ [ -102.42493, 42.91059 ], [ -102.31638, 42.91534 ], [ -102.36229, 43.00775 ], [ -102.43477, 43.00458 ], [ -102.50226, 42.95437 ], [ -102.42493, 42.91059 ] ] ], [ [ [ -101.92049, 43.33307 ], [ -102.00262, 43.42412 ], [ -102.06159, 43.28012 ], [ -101.91594, 43.28606 ], [ -101.92049, 43.33307 ] ] ], [ [ [ -102.18802, 49.23087 ], [ -102.231, 49.25295 ], [ -102.24964, 49.41832 ], [ -102.20918, 49.41987 ], [ -102.22248, 49.53803 ], [ -102.27108, 49.60738 ], [ -102.27916, 49.6783 ], [ -102.60425, 49.66543 ], [ -102.59859, 49.61817 ], [ -102.75804, 49.58786 ], [ -102.75225, 49.54061 ], [ -102.9954, 49.53031 ], [ -102.98045, 49.41222 ], [ -103.02088, 49.41048 ], [ -103.00591, 49.29241 ], [ -103.16726, 49.28534 ], [ -103.17338, 49.33256 ], [ -103.37203, 49.29988 ], [ -103.35948, 49.20548 ], [ -103.27894, 49.20913 ], [ -103.26348, 49.09114 ], [ -103.15877, 48.906 ], [ -103.07565, 48.88596 ], [ -103.0637, 48.79161 ], [ -103.01186, 48.69903 ], [ -102.84352, 48.63519 ], [ -102.7922, 48.54256 ], [ -102.71257, 48.54592 ], [ -102.6218, 48.45492 ], [ -102.5941, 48.21917 ], [ -102.54356, 48.12653 ], [ -102.45911, 48.08263 ], [ -102.44566, 47.9648 ], [ -102.40625, 47.9664 ], [ -102.38233, 47.75434 ], [ -102.33255, 47.66169 ], [ -102.24895, 47.61771 ], [ -102.2412, 47.54705 ], [ -102.06459, 47.36475 ], [ -101.98657, 47.36775 ], [ -101.89638, 47.25295 ], [ -101.73117, 47.16453 ], [ -101.80179, 47.09101 ], [ -101.83106, 46.99538 ], [ -101.90617, 46.96892 ], [ -101.89652, 46.87475 ], [ -101.97388, 46.8718 ], [ -101.9617, 46.75411 ], [ -102.0003, 46.75262 ], [ -101.98323, 46.58788 ], [ -102.06021, 46.58489 ], [ -102.04301, 46.42018 ], [ -102.00463, 46.42168 ], [ -101.98764, 46.25699 ], [ -101.94936, 46.25847 ], [ -101.9278, 46.04676 ], [ -101.88966, 46.04823 ], [ -101.76131, 45.91143 ], [ -101.75437, 45.84087 ], [ -101.6313, 45.75102 ], [ -101.5465, 45.65971 ], [ -101.26643, 45.50445 ], [ -101.15302, 45.50834 ], [ -101.14891, 45.46129 ], [ -101.03557, 45.46508 ], [ -101.03156, 45.41803 ], [ -100.9521, 45.37346 ], [ -100.80119, 45.3783 ], [ -100.79737, 45.33125 ], [ -100.60885, 45.33709 ], [ -100.64286, 45.28888 ], [ -100.37908, 45.29672 ], [ -100.38432, 45.36732 ], [ -100.30885, 45.36948 ], [ -100.27452, 45.41762 ], [ -100.1923, 45.32558 ], [ -100.22496, 45.25393 ], [ -99.92362, 45.26203 ], [ -99.92206, 45.23849 ], [ -99.62076, 45.24599 ], [ -99.62364, 45.29307 ], [ -99.35973, 45.29914 ], [ -99.21018, 45.32595 ], [ -99.21274, 45.37304 ], [ -99.02395, 45.37691 ], [ -99.02636, 45.424 ], [ -98.83854, 45.4512 ], [ -98.75742, 45.33485 ], [ -98.75194, 45.21711 ], [ -98.67662, 45.21846 ], [ -98.59305, 45.0314 ], [ -98.58587, 44.86659 ], [ -98.54542, 44.79659 ], [ -98.46867, 44.75075 ], [ -98.39204, 44.70487 ], [ -98.35007, 44.58774 ], [ -98.27553, 44.58889 ], [ -98.19753, 44.49583 ], [ -98.20968, 44.82545 ], [ -98.134, 44.80299 ], [ -98.13822, 44.92072 ], [ -98.1024, 44.96834 ], [ -98.02738, 44.96937 ], [ -98.06898, 45.0866 ], [ -98.14415, 45.08556 ], [ -98.22108, 45.13157 ], [ -98.22727, 45.29642 ], [ -98.15183, 45.29751 ], [ -98.15784, 45.46237 ], [ -98.19566, 45.46183 ], [ -98.19129, 45.34407 ], [ -98.30545, 45.36594 ], [ -98.34508, 45.41247 ], [ -98.49623, 45.41006 ], [ -98.50522, 45.62203 ], [ -98.58313, 45.66787 ], [ -98.54824, 45.73917 ], [ -98.55953, 45.99829 ], [ -98.33052, 46.00194 ], [ -98.33711, 46.16687 ], [ -98.30069, 46.21458 ], [ -97.99418, 46.21885 ], [ -98.00228, 46.45454 ], [ -97.92533, 46.45551 ], [ -97.92143, 46.33766 ], [ -97.84614, 46.38574 ], [ -97.76928, 46.38664 ], [ -97.73296, 46.45779 ], [ -97.88686, 46.45599 ], [ -98.00553, 46.54883 ], [ -98.01372, 46.78459 ], [ -98.09281, 46.83072 ], [ -98.08854, 46.71283 ], [ -98.24585, 46.78141 ], [ -98.24128, 46.66353 ], [ -98.3571, 46.66181 ], [ -98.36384, 46.82684 ], [ -98.44326, 46.8728 ], [ -98.51869, 46.82441 ], [ -98.67354, 46.82183 ], [ -98.79423, 46.91409 ], [ -98.79995, 47.03199 ], [ -98.76564, 47.127 ], [ -98.80801, 47.19706 ], [ -98.69112, 47.19911 ], [ -98.69334, 47.24629 ], [ -98.84931, 47.24353 ], [ -98.85636, 47.38505 ], [ -98.97362, 47.38288 ], [ -98.97731, 47.45364 ], [ -99.06063, 47.54651 ], [ -99.25659, 47.54258 ], [ -99.25122, 47.44822 ], [ -99.1248, 47.28549 ], [ -99.11838, 47.16758 ], [ -99.04051, 47.16911 ], [ -98.9991, 47.1227 ], [ -99.03179, 47.00405 ], [ -99.02188, 46.81545 ], [ -99.09802, 46.79036 ], [ -99.09171, 46.67251 ], [ -99.05062, 46.62614 ], [ -98.97347, 46.62763 ], [ -98.96863, 46.53336 ], [ -99.00592, 46.50905 ], [ -99.1599, 46.50599 ], [ -99.16891, 46.67095 ], [ -99.32873, 46.76199 ], [ -99.40605, 46.76032 ], [ -99.48053, 46.71147 ], [ -99.49334, 46.92359 ], [ -99.6484, 46.92004 ], [ -99.72287, 46.87107 ], [ -99.75393, 46.75231 ], [ -99.90851, 46.74849 ], [ -99.90532, 46.70137 ], [ -100.09836, 46.69639 ], [ -100.14034, 46.74249 ], [ -99.98579, 46.74653 ], [ -99.98905, 46.79366 ], [ -99.83435, 46.79755 ], [ -99.7616, 46.87014 ], [ -99.88731, 47.00869 ], [ -99.89209, 47.07941 ], [ -99.77549, 47.08227 ], [ -99.70079, 47.13128 ], [ -99.70383, 47.17843 ], [ -100.01527, 47.17074 ], [ -100.02353, 47.28862 ], [ -100.10831, 47.3809 ], [ -100.11679, 47.4988 ], [ -99.76442, 47.50763 ], [ -99.76909, 47.57839 ], [ -99.69067, 47.58024 ], [ -99.69679, 47.6746 ], [ -99.54115, 47.7018 ], [ -99.62576, 47.79439 ], [ -99.62877, 47.84159 ], [ -99.55146, 47.86697 ], [ -99.56481, 48.0794 ], [ -99.84168, 48.07294 ], [ -99.96198, 48.09363 ], [ -99.9982, 48.04543 ], [ -99.98987, 47.92744 ], [ -100.10991, 47.94801 ], [ -100.07385, 47.99622 ], [ -100.08065, 48.09062 ], [ -100.00655, 48.16345 ], [ -99.92733, 48.16542 ], [ -99.95711, 48.59047 ], [ -100.00208, 48.66035 ], [ -99.92547, 48.70958 ], [ -99.97217, 48.80311 ], [ -100.37273, 48.7927 ], [ -100.54059, 48.88277 ], [ -100.62669, 48.95137 ], [ -100.63455, 49.04589 ], [ -100.59823, 49.09432 ], [ -100.76331, 49.13692 ], [ -100.92445, 49.13208 ], [ -100.9563, 49.03632 ], [ -101.15733, 49.03001 ], [ -101.15514, 49.00639 ], [ -101.35605, 48.99983 ], [ -101.40539, 49.09299 ], [ -101.56635, 49.08751 ], [ -101.57108, 49.13476 ], [ -101.97366, 49.12036 ], [ -101.98894, 49.26209 ], [ -102.11258, 49.28119 ], [ -102.18802, 49.23087 ] ], [ [ -100.357, 45.50961 ], [ -100.28135, 45.51176 ], [ -100.27452, 45.41762 ], [ -100.35005, 45.41547 ], [ -100.39131, 45.46146 ], [ -100.357, 45.50961 ] ], [ [ -100.357, 45.50961 ], [ -100.50828, 45.50521 ], [ -100.51729, 45.62288 ], [ -100.40361, 45.6262 ], [ -100.43441, 45.53096 ], [ -100.357, 45.50961 ] ], [ [ -101.26227, 47.58283 ], [ -101.26663, 47.62997 ], [ -101.10976, 47.63514 ], [ -101.10553, 47.58799 ], [ -101.26227, 47.58283 ] ], [ [ -102.30378, 47.7575 ], [ -102.34569, 47.77948 ], [ -102.36153, 47.92086 ], [ -102.28275, 47.924 ], [ -102.2304, 47.80774 ], [ -102.30378, 47.7575 ] ], [ [ -101.12144, 48.20241 ], [ -101.15459, 48.13035 ], [ -101.23371, 48.12777 ], [ -101.26228, 48.00853 ], [ -101.3807, 48.00455 ], [ -101.40774, 48.2876 ], [ -101.20938, 48.29421 ], [ -101.12144, 48.20241 ] ], [ [ -99.07542, 46.36616 ], [ -99.11887, 46.45964 ], [ -98.96502, 46.46267 ], [ -98.8834, 46.36986 ], [ -98.86367, 45.96934 ], [ -98.89948, 45.92152 ], [ -98.9757, 45.92006 ], [ -99.04702, 45.82435 ], [ -99.05561, 45.98922 ], [ -98.9805, 46.01428 ], [ -98.94589, 46.08569 ], [ -98.95901, 46.34485 ], [ -99.07542, 46.36616 ] ], [ [ -99.07542, 46.36616 ], [ -99.07168, 46.29547 ], [ -99.14839, 46.29393 ], [ -99.15222, 46.36461 ], [ -99.07542, 46.36616 ] ], [ [ -98.15353, 46.38176 ], [ -98.07669, 46.38281 ], [ -98.07165, 46.24141 ], [ -98.14831, 46.24036 ], [ -98.15353, 46.38176 ] ], [ [ -99.51342, 46.61634 ], [ -99.59054, 46.61457 ], [ -99.5964, 46.70883 ], [ -99.51915, 46.7106 ], [ -99.51342, 46.61634 ] ], [ [ -99.67887, 48.00588 ], [ -99.59386, 47.91328 ], [ -99.67274, 47.91147 ], [ -99.67887, 48.00588 ] ], [ [ -100.22046, 48.37079 ], [ -100.26917, 48.4878 ], [ -100.19303, 48.53714 ], [ -100.11328, 48.53921 ], [ -100.1081, 48.46836 ], [ -100.18598, 48.44267 ], [ -100.22046, 48.37079 ] ] ], [ [ [ -103.96927, 50.9138 ], [ -103.84469, 50.91974 ], [ -103.9001, 51.01252 ], [ -104.02135, 50.98285 ], [ -104.02488, 51.00653 ], [ -104.23279, 50.99636 ], [ -104.28165, 51.04165 ], [ -104.3109, 51.23117 ], [ -104.24925, 51.37753 ], [ -104.2749, 51.54352 ], [ -104.32429, 51.58888 ], [ -104.3007, 51.7096 ], [ -104.22377, 51.76121 ], [ -104.51889, 51.7465 ], [ -104.5113, 51.69905 ], [ -104.59169, 51.67103 ], [ -104.57642, 51.57616 ], [ -104.65659, 51.54813 ], [ -104.64507, 51.477 ], [ -104.72506, 51.44894 ], [ -104.75532, 51.37566 ], [ -104.72827, 51.20982 ], [ -104.76999, 51.20763 ], [ -104.73529, 50.99454 ], [ -104.65218, 50.99889 ], [ -104.6332, 50.88055 ], [ -104.5842, 50.83537 ], [ -104.41842, 50.84388 ], [ -104.41105, 50.79655 ], [ -104.26507, 50.66084 ], [ -104.05845, 50.67105 ], [ -104.05141, 50.62372 ], [ -103.8862, 50.6317 ], [ -103.80699, 50.65929 ], [ -103.82066, 50.75398 ], [ -104.15179, 50.73799 ], [ -104.15893, 50.78533 ], [ -103.99325, 50.79341 ], [ -104.00025, 50.84076 ], [ -103.96927, 50.9138 ] ] ], [ [ [ -102.6325, 51.25866 ], [ -102.50411, 51.23987 ], [ -102.53008, 51.45352 ], [ -102.65603, 51.44856 ], [ -102.74597, 51.49269 ], [ -102.75797, 51.58768 ], [ -102.88422, 51.58255 ], [ -102.8781, 51.53505 ], [ -103.04312, 51.50432 ], [ -103.00579, 51.21955 ], [ -103.04136, 51.17035 ], [ -102.83257, 51.17904 ], [ -102.7938, 51.20447 ], [ -102.62664, 51.2112 ], [ -102.6325, 51.25866 ] ] ], [ [ [ -96.46075, 41.33149 ], [ -96.56767, 41.42538 ], [ -96.78013, 41.42437 ], [ -96.85031, 41.37683 ], [ -96.8481, 41.21185 ], [ -96.77751, 41.21226 ], [ -96.77636, 41.11798 ], [ -96.74167, 41.16531 ], [ -96.63588, 41.16582 ], [ -96.63635, 41.21296 ], [ -96.53048, 41.2134 ], [ -96.46024, 41.26078 ], [ -96.46075, 41.33149 ] ] ], [ [ [ -96.49909, 41.70841 ], [ -96.49984, 41.80266 ], [ -96.57108, 41.80239 ], [ -96.57023, 41.70815 ], [ -96.49909, 41.70841 ] ] ], [ [ [ -96.86681, 42.57831 ], [ -96.86615, 42.53121 ], [ -96.75803, 42.53182 ], [ -96.75918, 42.62602 ], [ -96.83201, 42.67273 ], [ -96.90426, 42.6723 ], [ -96.86681, 42.57831 ] ] ], [ [ [ -98.13517, 43.79009 ], [ -98.13849, 43.88425 ], [ -98.21302, 43.90672 ], [ -98.21475, 43.9538 ], [ -98.33083, 44.09335 ], [ -98.40475, 44.09218 ], [ -98.44457, 44.1622 ], [ -98.55559, 44.16034 ], [ -98.55758, 44.20742 ], [ -98.6337, 44.25321 ], [ -98.74488, 44.2512 ], [ -98.74703, 44.29828 ], [ -98.82341, 44.34398 ], [ -98.97302, 44.36463 ], [ -99.12395, 44.40868 ], [ -99.30969, 44.40469 ], [ -99.34946, 44.45093 ], [ -99.5353, 44.44665 ], [ -99.53669, 44.47019 ], [ -100.20578, 44.45288 ], [ -100.24127, 44.42831 ], [ -100.42698, 44.42293 ], [ -100.42351, 44.37588 ], [ -100.57193, 44.37141 ], [ -100.71849, 44.34327 ], [ -100.7148, 44.29623 ], [ -100.82595, 44.29268 ], [ -100.82218, 44.24564 ], [ -100.93323, 44.24201 ], [ -101.07534, 44.16649 ], [ -101.10633, 44.09468 ], [ -101.21709, 44.09084 ], [ -101.28268, 43.99418 ], [ -101.42377, 43.91834 ], [ -101.41535, 43.8243 ], [ -101.48672, 43.79808 ], [ -101.48246, 43.75107 ], [ -101.62927, 43.74555 ], [ -101.70046, 43.71923 ], [ -101.69604, 43.67222 ], [ -101.80599, 43.66794 ], [ -101.83136, 43.54897 ], [ -101.79478, 43.55042 ], [ -101.67189, 43.41365 ], [ -101.66098, 43.29612 ], [ -101.62023, 43.25051 ], [ -101.76582, 43.24486 ], [ -101.75476, 43.12733 ], [ -101.89779, 43.09804 ], [ -102.0067, 43.0936 ], [ -101.92501, 43.00255 ], [ -101.84803, 42.95847 ], [ -101.83909, 42.86444 ], [ -101.97235, 42.74105 ], [ -102.00158, 42.66905 ], [ -102.06905, 42.61904 ], [ -102.21312, 42.61295 ], [ -102.20132, 42.49543 ], [ -102.38103, 42.48762 ], [ -102.41453, 42.46253 ], [ -102.39995, 42.32153 ], [ -102.29243, 42.32626 ], [ -102.27342, 42.13822 ], [ -102.16388, 42.11935 ], [ -102.08782, 42.07537 ], [ -102.10163, 42.21642 ], [ -102.07273, 42.28846 ], [ -101.96523, 42.29294 ], [ -101.92043, 42.20038 ], [ -101.84887, 42.2033 ], [ -101.80212, 42.08718 ], [ -101.69495, 42.09147 ], [ -101.7014, 42.16201 ], [ -101.5941, 42.16622 ], [ -101.52674, 42.21601 ], [ -101.49717, 42.28793 ], [ -101.38964, 42.29199 ], [ -101.3457, 42.19925 ], [ -101.20251, 42.20449 ], [ -101.19858, 42.15744 ], [ -101.12316, 42.11296 ], [ -100.80136, 42.12406 ], [ -100.79774, 42.077 ], [ -100.51182, 42.08625 ], [ -100.50842, 42.03919 ], [ -100.36553, 42.0436 ], [ -100.32329, 41.95054 ], [ -100.24874, 41.9056 ], [ -100.39297, 41.92484 ], [ -100.38637, 41.8307 ], [ -100.3475, 41.78471 ], [ -100.27635, 41.78686 ], [ -100.3361, 41.61995 ], [ -100.328, 41.50225 ], [ -100.3569, 41.407 ], [ -100.42267, 41.33419 ], [ -100.41116, 41.16938 ], [ -100.36943, 41.07628 ], [ -100.29587, 41.03134 ], [ -100.08492, 41.03759 ], [ -100.08189, 40.99049 ], [ -99.27349, 41.01152 ], [ -99.2008, 40.966 ], [ -99.02511, 40.96987 ], [ -99.02399, 40.94631 ], [ -97.82928, 40.96683 ], [ -97.82996, 40.9904 ], [ -97.40798, 40.99523 ], [ -97.40903, 41.04237 ], [ -97.16267, 41.04461 ], [ -97.1657, 41.2096 ], [ -97.23719, 41.25614 ], [ -97.23857, 41.32684 ], [ -97.34563, 41.37301 ], [ -97.34664, 41.42014 ], [ -97.0988, 41.42227 ], [ -97.09962, 41.4694 ], [ -96.99332, 41.47018 ], [ -96.88669, 41.44731 ], [ -96.49704, 41.44921 ], [ -96.49815, 41.5906 ], [ -96.6404, 41.61359 ], [ -96.64088, 41.66072 ], [ -96.7125, 41.70751 ], [ -96.71357, 41.80175 ], [ -96.82137, 41.87186 ], [ -96.8226, 41.9661 ], [ -96.82291, 41.98966 ], [ -96.82416, 42.08389 ], [ -96.93151, 42.08323 ], [ -96.93291, 42.17746 ], [ -97.00573, 42.24764 ], [ -97.01185, 42.62448 ], [ -97.08404, 42.62396 ], [ -97.12099, 42.67079 ], [ -97.12313, 42.78854 ], [ -97.05075, 42.78908 ], [ -96.9411, 42.71917 ], [ -96.79649, 42.72004 ], [ -96.75976, 42.67313 ], [ -96.65139, 42.67365 ], [ -96.65039, 42.57944 ], [ -96.54218, 42.57989 ], [ -96.5426, 42.62699 ], [ -96.61526, 42.67381 ], [ -96.61644, 42.79157 ], [ -96.65313, 42.83851 ], [ -96.72557, 42.83817 ], [ -96.7264, 42.90882 ], [ -96.6912, 43.00319 ], [ -96.83647, 43.00243 ], [ -96.83711, 43.04953 ], [ -96.91015, 43.07264 ], [ -96.94797, 43.16661 ], [ -97.05721, 43.16586 ], [ -97.09278, 43.1185 ], [ -97.08985, 42.95366 ], [ -97.235, 42.9525 ], [ -97.23406, 42.90541 ], [ -97.1611, 42.88245 ], [ -97.15932, 42.78826 ], [ -97.26789, 42.78735 ], [ -97.30309, 42.73993 ], [ -97.29912, 42.55153 ], [ -97.26307, 42.55185 ], [ -97.22515, 42.45796 ], [ -97.29715, 42.45733 ], [ -97.33062, 42.33924 ], [ -97.47433, 42.33785 ], [ -97.47544, 42.38495 ], [ -97.61987, 42.40696 ], [ -97.6211, 42.45407 ], [ -97.76507, 42.45238 ], [ -97.76775, 42.54658 ], [ -97.80517, 42.59323 ], [ -97.80861, 42.71097 ], [ -97.88305, 42.7807 ], [ -97.88593, 42.87488 ], [ -97.8511, 42.92244 ], [ -97.70604, 42.92421 ], [ -97.74565, 43.04151 ], [ -97.71062, 43.08903 ], [ -97.56576, 43.1142 ], [ -97.53056, 43.16168 ], [ -97.53291, 43.25586 ], [ -97.57058, 43.30257 ], [ -97.75304, 43.30051 ], [ -97.75642, 43.41823 ], [ -97.79298, 43.41779 ], [ -97.79436, 43.46488 ], [ -97.90413, 43.4635 ], [ -97.90781, 43.58121 ], [ -97.94597, 43.62782 ], [ -98.05602, 43.62633 ], [ -98.09432, 43.6729 ], [ -98.13517, 43.79009 ] ], [ [ -102.07273, 42.28846 ], [ -102.1802, 42.28389 ], [ -102.18488, 42.3309 ], [ -102.07733, 42.33547 ], [ -102.07273, 42.28846 ] ], [ [ -102.02844, 42.57354 ], [ -102.17006, 42.54397 ], [ -102.17476, 42.59098 ], [ -102.02844, 42.57354 ] ], [ [ -98.04337, 43.24965 ], [ -98.03945, 43.13193 ], [ -98.11222, 43.1309 ], [ -98.11465, 43.20153 ], [ -98.04337, 43.24965 ] ] ], [ [ [ -100.37988, 51.45205 ], [ -100.39157, 51.59474 ], [ -100.51802, 51.59139 ], [ -100.50599, 51.4487 ], [ -100.37988, 51.45205 ] ] ] ] } },
{ "type": "Feature", "properties": { "ID": 3 }, "geometry": { "type": "MultiPolygon", "coordinates": [ [ [ [ -82.0987, 39.35849 ], [ -82.002, 39.32474 ], [ -82.01575, 39.42164 ], [ -82.0107, 39.445 ], [ -82.04466, 39.44846 ], [ -82.05976, 39.37839 ], [ -82.09369, 39.38185 ], [ -82.0987, 39.35849 ] ] ], [ [ [ -82.00565, 39.46835 ], [ -81.97168, 39.46487 ], [ -81.82745, 39.33062 ], [ -81.81723, 39.37732 ], [ -81.6816, 39.36317 ], [ -81.57472, 39.37582 ], [ -81.55123, 39.32555 ], [ -81.53039, 39.41891 ], [ -81.63217, 39.42964 ], [ -81.68972, 39.48344 ], [ -81.8256, 39.49758 ], [ -81.90375, 39.45789 ], [ -81.92755, 39.50809 ], [ -82.0006, 39.4917 ], [ -82.00565, 39.46835 ] ] ], [ [ [ -79.5914, 39.24726 ], [ -79.5796, 39.29378 ], [ -79.64121, 39.32517 ], [ -79.62944, 39.3717 ], [ -79.65145, 39.42228 ], [ -79.68527, 39.42632 ], [ -79.72046, 39.28673 ], [ -79.73081, 39.38383 ], [ -79.75876, 39.41113 ], [ -79.79258, 39.41515 ], [ -79.81008, 39.34534 ], [ -79.7763, 39.34132 ], [ -79.81706, 39.17842 ], [ -79.76133, 39.12383 ], [ -79.71599, 39.16634 ], [ -79.61495, 39.15419 ], [ -79.62083, 39.13092 ], [ -79.58717, 39.12686 ], [ -79.56949, 39.19666 ], [ -79.5914, 39.24726 ] ] ], [ [ [ -81.39473, 39.40448 ], [ -81.25382, 39.41325 ], [ -81.20926, 39.45624 ], [ -81.19323, 39.52621 ], [ -81.42864, 39.4081 ], [ -81.39473, 39.40448 ] ] ], [ [ [ -79.88825, 39.45043 ], [ -79.93367, 39.40788 ], [ -79.89985, 39.40389 ], [ -79.88825, 39.45043 ] ] ], [ [ [ -81.22185, 39.5532 ], [ -81.15391, 39.54585 ], [ -81.17181, 39.61948 ], [ -81.22185, 39.5532 ] ] ], [ [ [ -79.85441, 39.44644 ], [ -79.84276, 39.49297 ], [ -79.88825, 39.45043 ], [ -79.85441, 39.44644 ] ] ], [ [ [ -81.09303, 39.65874 ], [ -81.05901, 39.65504 ], [ -81.0536, 39.67835 ], [ -81.01957, 39.67464 ], [ -81.01415, 39.69795 ], [ -81.08223, 39.70537 ], [ -81.09303, 39.65874 ] ] ], [ [ [ -79.65582, 39.54263 ], [ -79.6897, 39.54667 ], [ -79.66761, 39.49611 ], [ -79.65582, 39.54263 ] ] ], [ [ [ -80.93517, 39.73712 ], [ -80.92425, 39.78373 ], [ -80.95833, 39.78746 ], [ -80.96923, 39.74085 ], [ -80.93517, 39.73712 ] ] ], [ [ [ -79.70594, 39.62049 ], [ -79.59827, 39.63159 ], [ -79.58047, 39.70135 ], [ -79.64839, 39.70947 ], [ -79.70594, 39.62049 ] ] ], [ [ [ -80.61272, 39.9166 ], [ -80.64686, 39.92041 ], [ -80.658, 39.87383 ], [ -80.62389, 39.87002 ], [ -80.61272, 39.9166 ] ] ], [ [ [ -80.35688, 39.95953 ], [ -80.45931, 39.97112 ], [ -80.4706, 39.92456 ], [ -80.36824, 39.91298 ], [ -80.35688, 39.95953 ] ] ], [ [ [ -79.47285, 40.11973 ], [ -79.4608, 40.1662 ], [ -79.495, 40.17029 ], [ -79.50702, 40.12382 ], [ -79.47285, 40.11973 ] ] ], [ [ [ -79.11506, 38.54068 ], [ -79.14839, 38.54486 ], [ -79.16036, 38.49833 ], [ -79.12705, 38.49415 ], [ -79.11506, 38.54068 ] ] ], [ [ [ -79.16976, 38.59557 ], [ -79.0697, 38.58301 ], [ -79.09103, 38.63373 ], [ -79.1244, 38.63792 ], [ -79.13041, 38.61466 ], [ -79.16976, 38.59557 ] ] ], [ [ [ -79.07296, 38.70351 ], [ -79.10637, 38.70771 ], [ -79.1184, 38.66118 ], [ -79.08501, 38.65699 ], [ -79.07296, 38.70351 ] ] ], [ [ [ -79.55697, 38.83538 ], [ -79.48996, 38.82721 ], [ -79.48407, 38.85048 ], [ -79.51758, 38.85457 ], [ -79.51169, 38.87785 ], [ -79.54522, 38.88193 ], [ -79.55697, 38.83538 ] ] ], [ [ [ -79.57288, 38.90928 ], [ -79.61814, 38.8668 ], [ -79.68519, 38.87491 ], [ -79.67353, 38.92147 ], [ -79.70709, 38.92551 ], [ -79.70126, 38.94879 ], [ -79.73483, 38.95283 ], [ -79.76387, 38.83642 ], [ -79.70266, 38.80507 ], [ -79.60218, 38.7929 ], [ -79.57288, 38.90928 ] ] ], [ [ [ -79.36574, 38.90795 ], [ -79.39928, 38.91208 ], [ -79.41113, 38.86554 ], [ -79.37762, 38.86142 ], [ -79.36574, 38.90795 ] ] ], [ [ [ -79.42096, 38.96272 ], [ -79.44268, 39.01336 ], [ -79.45453, 38.96683 ], [ -79.42096, 38.96272 ] ] ], [ [ [ -79.66621, 39.08844 ], [ -79.67791, 39.04189 ], [ -79.61068, 39.03378 ], [ -79.58295, 39.00644 ], [ -79.5653, 39.07625 ], [ -79.66621, 39.08844 ] ] ], [ [ [ -79.40475, 39.70415 ], [ -79.45068, 39.66177 ], [ -79.41675, 39.65766 ], [ -79.40475, 39.70415 ] ] ], [ [ [ -79.35877, 39.74652 ], [ -79.34672, 39.793 ], [ -79.4147, 39.80123 ], [ -79.40475, 39.70415 ], [ -79.37081, 39.70004 ], [ -79.35877, 39.74652 ] ] ], [ [ [ -79.32255, 39.88594 ], [ -79.34672, 39.793 ], [ -79.30668, 39.8121 ], [ -79.32255, 39.88594 ] ] ], [ [ [ -79.46472, 39.87916 ], [ -79.45272, 39.92564 ], [ -79.48678, 39.92973 ], [ -79.49876, 39.88325 ], [ -79.46472, 39.87916 ] ] ], [ [ [ -79.34389, 40.34382 ], [ -79.30961, 40.33969 ], [ -79.29741, 40.38613 ], [ -79.26311, 40.382 ], [ -79.25699, 40.40522 ], [ -79.31341, 40.45993 ], [ -79.38209, 40.46817 ], [ -79.38817, 40.44495 ], [ -79.3378, 40.36704 ], [ -79.34389, 40.34382 ] ] ], [ [ [ -79.20426, 40.47072 ], [ -79.15143, 40.5362 ], [ -79.17347, 40.58679 ], [ -79.25456, 40.54867 ], [ -79.19811, 40.49394 ], [ -79.23247, 40.49809 ], [ -79.24474, 40.45165 ], [ -79.21041, 40.4475 ], [ -79.20426, 40.47072 ] ] ], [ [ [ -79.25456, 40.54867 ], [ -79.30118, 40.50637 ], [ -79.26682, 40.50223 ], [ -79.25456, 40.54867 ] ] ] ] } },
{ "type": "Feature", "properties": { "ID": 4 }, "geometry": { "type": "MultiPolygon", "coordinates": [ [ [ [ -79.67353, 38.92147 ], [ -79.68519, 38.87491 ], [ -79.61814, 38.8668 ], [ -79.57288, 38.90928 ], [ -79.567, 38.93255 ], [ -79.59469, 38.9599 ], [ -79.63997, 38.91741 ], [ -79.67353, 38.92147 ] ] ], [ [ [ -79.67939, 39.44959 ], [ -79.71322, 39.45363 ], [ -79.72495, 39.4071 ], [ -79.69114, 39.40306 ], [ -79.67939, 39.44959 ] ] ], [ [ [ -79.62195, 39.53857 ], [ -79.65582, 39.54263 ], [ -79.67939, 39.44959 ], [ -79.62195, 39.53857 ] ] ], [ [ [ -79.3378, 40.36704 ], [ -79.38817, 40.44495 ], [ -79.37601, 40.4914 ], [ -79.39821, 40.54196 ], [ -79.50139, 40.55425 ], [ -79.51952, 40.48456 ], [ -79.45685, 40.45316 ], [ -79.59594, 40.326 ], [ -79.61825, 40.37653 ], [ -79.56592, 40.44217 ], [ -79.77207, 40.46643 ], [ -79.84674, 40.45121 ], [ -79.86929, 40.50169 ], [ -79.93809, 40.50966 ], [ -79.97333, 40.37017 ], [ -79.9566, 40.29644 ], [ -79.99168, 40.15691 ], [ -80.04335, 40.0911 ], [ -80.1517, 40.07965 ], [ -80.16323, 40.03312 ], [ -80.29992, 40.04875 ], [ -80.32274, 39.95565 ], [ -80.35688, 39.95953 ], [ -80.36824, 39.91298 ], [ -80.4706, 39.92456 ], [ -80.46496, 39.94784 ], [ -80.60713, 39.93989 ], [ -80.62389, 39.87002 ], [ -80.658, 39.87383 ], [ -80.64686, 39.92041 ], [ -80.71513, 39.928 ], [ -80.77789, 39.95886 ], [ -80.82309, 39.91603 ], [ -80.85061, 39.79954 ], [ -80.89017, 39.77999 ], [ -80.92425, 39.78373 ], [ -80.93517, 39.73712 ], [ -80.90112, 39.73338 ], [ -81.00872, 39.72126 ], [ -81.01957, 39.67464 ], [ -81.0536, 39.67835 ], [ -81.05901, 39.65504 ], [ -81.09303, 39.65874 ], [ -81.10381, 39.61211 ], [ -81.17181, 39.61948 ], [ -81.15391, 39.54585 ], [ -81.11995, 39.54216 ], [ -81.13069, 39.49552 ], [ -81.19858, 39.50288 ], [ -81.20926, 39.45624 ], [ -81.25382, 39.41325 ], [ -81.39473, 39.40448 ], [ -81.49647, 39.41532 ], [ -81.50692, 39.36864 ], [ -81.54082, 39.37223 ], [ -81.55123, 39.32555 ], [ -81.57472, 39.37582 ], [ -81.6816, 39.36317 ], [ -81.81723, 39.37732 ], [ -81.82745, 39.33062 ], [ -81.97168, 39.46487 ], [ -82.00565, 39.46835 ], [ -82.01575, 39.42164 ], [ -82.002, 39.32474 ], [ -82.0987, 39.35849 ], [ -82.07863, 39.45192 ], [ -82.12262, 39.40865 ], [ -82.19052, 39.41553 ], [ -82.21042, 39.32207 ], [ -82.25918, 39.25539 ], [ -82.12869, 39.21831 ], [ -81.92566, 39.1975 ], [ -81.76168, 39.15657 ], [ -81.65515, 39.16928 ], [ -81.55896, 39.13522 ], [ -81.45765, 39.12443 ], [ -81.39537, 39.09385 ], [ -81.19296, 39.07195 ], [ -81.18765, 39.09529 ], [ -80.98531, 39.07308 ], [ -80.97992, 39.09641 ], [ -80.74395, 39.07011 ], [ -80.71574, 39.04301 ], [ -80.6092, 39.05491 ], [ -80.40718, 39.03185 ], [ -80.33426, 39.0474 ], [ -80.23894, 39.0124 ], [ -80.03719, 38.9888 ], [ -79.98716, 38.91099 ], [ -79.92003, 38.90303 ], [ -79.84246, 38.79788 ], [ -79.75227, 38.88298 ], [ -79.73483, 38.95283 ], [ -79.70126, 38.94879 ], [ -79.68959, 38.99534 ], [ -79.71153, 39.04594 ], [ -79.67791, 39.04189 ], [ -79.66621, 39.08844 ], [ -79.63257, 39.08438 ], [ -79.61495, 39.15419 ], [ -79.71599, 39.16634 ], [ -79.76133, 39.12383 ], [ -79.81706, 39.17842 ], [ -79.7763, 39.34132 ], [ -79.81008, 39.34534 ], [ -79.78089, 39.46168 ], [ -79.84858, 39.46971 ], [ -79.85441, 39.44644 ], [ -79.88825, 39.45043 ], [ -79.89985, 39.40389 ], [ -79.9675, 39.41186 ], [ -79.91049, 39.50097 ], [ -79.88142, 39.61731 ], [ -79.82411, 39.70636 ], [ -79.74441, 39.74484 ], [ -79.70902, 39.88437 ], [ -79.57111, 40.01169 ], [ -79.51902, 40.07734 ], [ -79.495, 40.17029 ], [ -79.4608, 40.1662 ], [ -79.44874, 40.21267 ], [ -79.36819, 40.25091 ], [ -79.34997, 40.32059 ], [ -79.3378, 40.36704 ] ] ], [ [ [ -79.37081, 39.70004 ], [ -79.40475, 39.70415 ], [ -79.41675, 39.65766 ], [ -79.38283, 39.65355 ], [ -79.37081, 39.70004 ] ] ], [ [ [ -79.44671, 39.94888 ], [ -79.48079, 39.95297 ], [ -79.48678, 39.92973 ], [ -79.45272, 39.92564 ], [ -79.44671, 39.94888 ] ] ], [ [ [ -79.25087, 40.42844 ], [ -79.21655, 40.42429 ], [ -79.21041, 40.4475 ], [ -79.24474, 40.45165 ], [ -79.23247, 40.49809 ], [ -79.33555, 40.5105 ], [ -79.34775, 40.46406 ], [ -79.31341, 40.45993 ], [ -79.25699, 40.40522 ], [ -79.25087, 40.42844 ] ] ], [ [ [ -79.78863, 40.54017 ], [ -79.71982, 40.53212 ], [ -79.69592, 40.62506 ], [ -79.79929, 40.63713 ], [ -79.78863, 40.54017 ] ] ], [ [ [ -102.07273, 42.28846 ], [ -102.10163, 42.21642 ], [ -102.08782, 42.07537 ], [ -102.16388, 42.11935 ], [ -102.27342, 42.13822 ], [ -102.29243, 42.32626 ], [ -102.39995, 42.32153 ], [ -102.41453, 42.46253 ], [ -102.38103, 42.48762 ], [ -102.20132, 42.49543 ], [ -102.21312, 42.61295 ], [ -102.06905, 42.61904 ], [ -102.00158, 42.66905 ], [ -101.97235, 42.74105 ], [ -101.83909, 42.86444 ], [ -101.84803, 42.95847 ], [ -101.92501, 43.00255 ], [ -102.0067, 43.0936 ], [ -101.89779, 43.09804 ], [ -101.75476, 43.12733 ], [ -101.76582, 43.24486 ], [ -101.62023, 43.25051 ], [ -101.66098, 43.29612 ], [ -101.67189, 43.41365 ], [ -101.79478, 43.55042 ], [ -101.83136, 43.54897 ], [ -101.97765, 43.54311 ], [ -102.18032, 43.36956 ], [ -102.17556, 43.32256 ], [ -102.24602, 43.29598 ], [ -102.30671, 43.17538 ], [ -102.37939, 43.17223 ], [ -102.4397, 43.05157 ], [ -102.51223, 43.04835 ], [ -102.57467, 42.95113 ], [ -102.64199, 42.90086 ], [ -102.62932, 42.78339 ], [ -102.70152, 42.78009 ], [ -102.76855, 42.72976 ], [ -102.79684, 42.6576 ], [ -102.78393, 42.54014 ], [ -102.85063, 42.48977 ], [ -102.79645, 41.99637 ], [ -102.71757, 41.92923 ], [ -102.70748, 41.83522 ], [ -102.63138, 41.79153 ], [ -102.62144, 41.69751 ], [ -102.54803, 41.67728 ], [ -102.46739, 41.58648 ], [ -102.39177, 41.54265 ], [ -102.30682, 41.40472 ], [ -102.20085, 41.40939 ], [ -102.12334, 41.34189 ], [ -101.97325, 41.25382 ], [ -101.86751, 41.25823 ], [ -101.79485, 41.23761 ], [ -101.65388, 41.24329 ], [ -101.68278, 41.1713 ], [ -101.57716, 41.1755 ], [ -101.57301, 41.12844 ], [ -101.36188, 41.13659 ], [ -101.32273, 41.09085 ], [ -101.21528, 41.07124 ], [ -100.58218, 41.09316 ], [ -100.58388, 41.1167 ], [ -100.40788, 41.12229 ], [ -100.36943, 41.07628 ], [ -100.41116, 41.16938 ], [ -100.42267, 41.33419 ], [ -100.3569, 41.407 ], [ -100.328, 41.50225 ], [ -100.3361, 41.61995 ], [ -100.27635, 41.78686 ], [ -100.3475, 41.78471 ], [ -100.38637, 41.8307 ], [ -100.39297, 41.92484 ], [ -100.24874, 41.9056 ], [ -100.32329, 41.95054 ], [ -100.36553, 42.0436 ], [ -100.50842, 42.03919 ], [ -100.51182, 42.08625 ], [ -100.79774, 42.077 ], [ -100.80136, 42.12406 ], [ -101.12316, 42.11296 ], [ -101.19858, 42.15744 ], [ -101.20251, 42.20449 ], [ -101.3457, 42.19925 ], [ -101.38964, 42.29199 ], [ -101.49717, 42.28793 ], [ -101.52674, 42.21601 ], [ -101.5941, 42.16622 ], [ -101.7014, 42.16201 ], [ -101.69495, 42.09147 ], [ -101.80212, 42.08718 ], [ -101.84887, 42.2033 ], [ -101.92043, 42.20038 ], [ -101.96523, 42.29294 ], [ -102.07273, 42.28846 ] ], [ [ -102.42493, 42.91059 ], [ -102.50226, 42.95437 ], [ -102.43477, 43.00458 ], [ -102.36229, 43.00775 ], [ -102.31638, 42.91534 ], [ -102.42493, 42.91059 ] ], [ [ -101.92049, 43.33307 ], [ -101.91594, 43.28606 ], [ -102.06159, 43.28012 ], [ -102.00262, 43.42412 ], [ -101.92049, 43.33307 ] ] ], [ [ [ -102.07273, 42.28846 ], [ -102.07733, 42.33547 ], [ -102.18488, 42.3309 ], [ -102.1802, 42.28389 ], [ -102.07273, 42.28846 ] ] ], [ [ [ -102.02844, 42.57354 ], [ -102.17476, 42.59098 ], [ -102.17006, 42.54397 ], [ -102.02844, 42.57354 ] ] ], [ [ [ -76.99044, 38.37646 ], [ -77.05665, 38.38587 ], [ -77.02306, 38.50173 ], [ -77.11589, 38.53896 ], [ -77.2155, 38.55296 ], [ -77.18879, 38.64566 ], [ -77.27525, 38.70595 ], [ -77.34184, 38.71521 ], [ -77.38857, 38.79397 ], [ -77.29528, 39.11835 ], [ -77.42931, 39.13681 ], [ -77.44289, 39.21091 ], [ -77.53697, 39.24782 ], [ -77.58322, 39.0856 ], [ -77.61673, 39.09016 ], [ -77.61734, 39.2106 ], [ -77.71073, 39.12696 ], [ -77.79085, 39.08963 ], [ -77.88385, 39.00586 ], [ -77.95728, 38.99162 ], [ -78.01006, 38.92649 ], [ -78.03572, 38.83367 ], [ -78.12959, 38.87019 ], [ -78.16142, 38.75413 ], [ -78.22818, 38.76296 ], [ -78.2742, 38.72092 ], [ -78.3057, 38.60479 ], [ -78.35783, 38.53949 ], [ -78.38911, 38.42332 ], [ -78.46178, 38.40879 ], [ -78.47421, 38.36231 ], [ -78.56532, 38.278 ], [ -78.63165, 38.28663 ], [ -78.64394, 38.24012 ], [ -78.67709, 38.24443 ], [ -78.69545, 38.17465 ], [ -78.52991, 38.15308 ], [ -78.40376, 38.11243 ], [ -78.29833, 38.12254 ], [ -78.23847, 38.0905 ], [ -78.25099, 38.04402 ], [ -78.15823, 38.00753 ], [ -78.02626, 37.98976 ], [ -78.01228, 37.91559 ], [ -77.95274, 37.88341 ], [ -77.82107, 37.86544 ], [ -77.80735, 37.79123 ], [ -77.6231, 37.71755 ], [ -77.49185, 37.69925 ], [ -77.37372, 37.63439 ], [ -77.11175, 37.59716 ], [ -76.73953, 37.47078 ], [ -76.57638, 37.44679 ], [ -76.5696, 37.46997 ], [ -76.53698, 37.46515 ], [ -76.48931, 37.62739 ], [ -76.55471, 37.63705 ], [ -76.56702, 37.7114 ], [ -76.46881, 37.69691 ], [ -76.4155, 37.76156 ], [ -76.34999, 37.75183 ], [ -76.3483, 37.8725 ], [ -76.32066, 37.96512 ], [ -76.47812, 38.01256 ], [ -76.49041, 38.08687 ], [ -76.54941, 38.11968 ], [ -76.56866, 38.17081 ], [ -76.64144, 38.15726 ], [ -76.77336, 38.17638 ], [ -76.83258, 38.20906 ], [ -76.89186, 38.24172 ], [ -76.86483, 38.33439 ], [ -76.94385, 38.41809 ], [ -76.99044, 38.37646 ] ] ], [ [ [ -76.7783, 38.39438 ], [ -76.81819, 38.37598 ], [ -76.80548, 38.30173 ], [ -76.70634, 38.28743 ], [ -76.69269, 38.33375 ], [ -76.7783, 38.39438 ] ] ], [ [ [ -79.52346, 38.8313 ], [ -79.59047, 38.83946 ], [ -79.60218, 38.7929 ], [ -79.53522, 38.78475 ], [ -79.52346, 38.8313 ] ] ], [ [ [ -79.48809, 38.97093 ], [ -79.45453, 38.96683 ], [ -79.4486, 38.99009 ], [ -79.50396, 39.04482 ], [ -79.57119, 39.05298 ], [ -79.59469, 38.9599 ], [ -79.48809, 38.97093 ] ] ], [ [ [ -78.34184, 39.61911 ], [ -78.32908, 39.6655 ], [ -78.45819, 39.70613 ], [ -78.55987, 39.71913 ], [ -78.58506, 39.6263 ], [ -78.65903, 39.61169 ], [ -78.70175, 39.71312 ], [ -78.76957, 39.72167 ], [ -78.82833, 39.63306 ], [ -78.92076, 39.54865 ], [ -78.94537, 39.45574 ], [ -79.01295, 39.46417 ], [ -79.07115, 39.37543 ], [ -79.16291, 39.29083 ], [ -79.22075, 39.20201 ], [ -79.25081, 39.08575 ], [ -79.28443, 39.0899 ], [ -79.33221, 38.90383 ], [ -79.36574, 38.90795 ], [ -79.37762, 38.86142 ], [ -79.51169, 38.87785 ], [ -79.51758, 38.85457 ], [ -79.48407, 38.85048 ], [ -79.48996, 38.82721 ], [ -79.45647, 38.82311 ], [ -79.47416, 38.75329 ], [ -79.48594, 38.70674 ], [ -79.4977, 38.66019 ], [ -79.44267, 38.60543 ], [ -79.5054, 38.49312 ], [ -79.43875, 38.48492 ], [ -79.42897, 38.38768 ], [ -79.32917, 38.37531 ], [ -79.2389, 38.46012 ], [ -79.22699, 38.50667 ], [ -79.21507, 38.55321 ], [ -79.11506, 38.54068 ], [ -79.12705, 38.49415 ], [ -79.19367, 38.5025 ], [ -79.21752, 38.40941 ], [ -79.19271, 38.23814 ], [ -79.10513, 38.17903 ], [ -78.90632, 38.15373 ], [ -78.8009, 38.16423 ], [ -78.7434, 38.253 ], [ -78.66482, 38.29094 ], [ -78.54061, 38.37099 ], [ -78.4972, 38.53368 ], [ -78.4244, 38.54822 ], [ -78.40565, 38.61792 ], [ -78.33273, 38.6324 ], [ -78.34722, 38.70646 ], [ -78.32205, 38.79935 ], [ -78.22184, 38.78617 ], [ -78.19646, 38.87903 ], [ -78.12959, 38.87019 ], [ -77.99076, 38.99609 ], [ -77.96497, 39.08888 ], [ -77.87196, 39.17269 ], [ -77.81231, 39.26094 ], [ -77.90017, 39.32079 ], [ -78.06845, 39.34309 ], [ -78.14864, 39.30556 ], [ -78.16307, 39.37957 ], [ -78.23686, 39.36519 ], [ -78.33795, 39.37835 ], [ -78.41802, 39.34066 ], [ -78.37366, 39.5031 ], [ -78.40744, 39.50746 ], [ -78.43489, 39.53502 ], [ -78.34184, 39.61911 ] ], [ [ -79.16976, 38.59557 ], [ -79.13041, 38.61466 ], [ -79.10637, 38.70771 ], [ -79.07296, 38.70351 ], [ -79.09103, 38.63373 ], [ -79.03636, 38.57881 ], [ -79.16976, 38.59557 ] ] ], [ [ [ -79.34672, 39.793 ], [ -79.33464, 39.83947 ], [ -79.3807, 39.79712 ], [ -79.34672, 39.793 ] ] ] ] } }
]
}
