{
"type": "FeatureCollection",
"name": "Lilium_philadelphicum",
"crs": { "type": "name", "properties": { "name": "urn:ogc:def:crs:OGC:1.3:CRS84" } },
"features": [
{ "type": "Feature", "properties": { "ID": 1 }, "geometry": { "type": "MultiPolygon", "coordinates": [ [ [ [ -110.95, 56.30483 ], [ -110.85145, 56.28843 ], [ -110.82019, 56.34025 ], [ -110.72878, 56.3478 ], [ -110.80073, 56.58823 ], [ -110.86117, 56.63256 ], [ -111.09092, 56.6134 ], [ -111.19019, 56.6297 ], [ -111.22124, 56.57772 ], [ -111.313, 56.56991 ], [ -111.38221, 56.48997 ], [ -111.35976, 56.41793 ], [ -111.22253, 56.42965 ], [ -111.12365, 56.41338 ], [ -111.04861, 56.32118 ], [ -110.95, 56.30483 ] ] ] ] } },
{ "type": "Feature", "properties": { "ID": 2 }, "geometry": { "type": "MultiPolygon", "coordinates": [ [ [ [ -119.08142, 55.32964 ], [ -119.12522, 55.42353 ], [ -119.26846, 55.42942 ], [ -119.44466, 55.40582 ], [ -119.47755, 55.37644 ], [ -119.60951, 55.3586 ], [ -119.64227, 55.3292 ], [ -119.58645, 55.21206 ], [ -119.5426, 55.218 ], [ -119.53148, 55.19458 ], [ -119.50984, 55.24737 ], [ -119.42205, 55.25921 ], [ -119.34503, 55.1948 ], [ -119.16951, 55.21828 ], [ -119.08142, 55.32964 ] ] ] ] } },
{ "type": "Feature", "properties": { "ID": 3 }, "geometry": { "type": "MultiPolygon", "coordinates": [ [ [ [ -110.37112, 55.76282 ], [ -110.73258, 55.73317 ], [ -110.75647, 55.6576 ], [ -110.83952, 55.62614 ], [ -110.80405, 55.50656 ], [ -110.68606, 55.41843 ], [ -110.54445, 55.40567 ], [ -110.27507, 55.42765 ], [ -110.25056, 55.50305 ], [ -110.16735, 55.53422 ], [ -110.20814, 55.6779 ], [ -110.27382, 55.74615 ], [ -110.37112, 55.76282 ] ] ], [ [ [ -110.95, 56.30483 ], [ -111.04861, 56.32118 ], [ -111.12365, 56.41338 ], [ -111.22253, 56.42965 ], [ -111.35976, 56.41793 ], [ -111.32992, 56.32191 ], [ -111.26943, 56.27782 ], [ -111.13257, 56.28946 ], [ -111.1179, 56.24146 ], [ -110.93549, 56.25681 ], [ -110.95, 56.30483 ] ] ] ] } },
{ "type": "Feature", "properties": { "ID": 4 }, "geometry": { "type": "MultiPolygon", "coordinates": [ [ [ [ -115.07554, 54.947 ], [ -115.19874, 54.90884 ], [ -115.31266, 54.84698 ], [ -115.26733, 54.72889 ], [ -115.28406, 54.6532 ], [ -115.22221, 54.61085 ], [ -115.13461, 54.62054 ], [ -115.1167, 54.57333 ], [ -114.85395, 54.60208 ], [ -114.69614, 54.6683 ], [ -114.68731, 54.76759 ], [ -114.73132, 54.88585 ], [ -114.7931, 54.92842 ], [ -114.92537, 54.91412 ], [ -114.8991, 54.96621 ], [ -115.07554, 54.947 ] ] ] ] } },
{ "type": "Feature", "properties": { "ID": 5 }, "geometry": { "type": "MultiPolygon", "coordinates": [ [ [ [ -112.37244, 54.80409 ], [ -112.23214, 54.79271 ], [ -112.18946, 54.94356 ], [ -112.23548, 55.08631 ], [ -112.36884, 55.07391 ], [ -112.38435, 55.1215 ], [ -112.48112, 55.13696 ], [ -112.61455, 55.12437 ], [ -112.73999, 55.08791 ], [ -112.72415, 55.04036 ], [ -112.8129, 55.03186 ], [ -112.83339, 54.95632 ], [ -112.79373, 54.83757 ], [ -112.73375, 54.79432 ], [ -112.64539, 54.80277 ], [ -112.62973, 54.75528 ], [ -112.53365, 54.73993 ], [ -112.4012, 54.75243 ], [ -112.37244, 54.80409 ] ] ] ] } },
{ "type": "Feature", "properties": { "ID": 6 }, "geometry": { "type": "MultiPolygon", "coordinates": [ [ [ [ -109.78695, 54.49052 ], [ -109.81286, 54.58585 ], [ -109.90126, 54.57883 ], [ -109.91433, 54.6265 ], [ -110.09124, 54.61232 ], [ -110.12881, 54.58492 ], [ -110.26135, 54.57413 ], [ -110.24129, 54.50269 ], [ -110.18388, 54.45866 ], [ -110.05162, 54.46938 ], [ -110.03847, 54.42176 ], [ -109.95035, 54.42884 ], [ -109.78695, 54.49052 ] ] ], [ [ [ -112.70712, 54.57652 ], [ -112.7228, 54.62396 ], [ -112.84694, 54.58751 ], [ -113.0228, 54.57039 ], [ -113.08667, 54.49068 ], [ -113.03089, 54.32489 ], [ -112.91183, 54.23876 ], [ -112.60591, 54.26838 ], [ -112.44627, 54.33246 ], [ -112.53113, 54.59333 ], [ -112.70712, 54.57652 ] ] ], [ [ [ -116.66086, 55.78113 ], [ -116.67076, 55.8048 ], [ -116.93872, 55.77313 ], [ -117.00786, 55.71521 ], [ -116.91786, 55.50255 ], [ -116.82905, 55.51312 ], [ -116.75498, 55.44752 ], [ -116.57745, 55.46846 ], [ -116.40949, 55.51286 ], [ -116.34965, 55.59415 ], [ -116.41784, 55.75984 ], [ -116.48212, 55.80201 ], [ -116.66086, 55.78113 ] ] ] ] } },
{ "type": "Feature", "properties": { "ID": 7 }, "geometry": { "type": "MultiPolygon", "coordinates": [ [ [ [ -114.50498, 52.05012 ], [ -114.5215, 52.09691 ], [ -114.73035, 52.07363 ], [ -114.80545, 52.04086 ], [ -114.81361, 51.94266 ], [ -114.75517, 51.77909 ], [ -114.67212, 51.78844 ], [ -114.65555, 51.74171 ], [ -114.4895, 51.76026 ], [ -114.39827, 51.7461 ], [ -114.37304, 51.79745 ], [ -114.46322, 52.05474 ], [ -114.50498, 52.05012 ] ] ], [ [ [ -114.17013, 52.96285 ], [ -114.19491, 53.03332 ], [ -114.23748, 53.02875 ], [ -114.27173, 53.00069 ], [ -114.2138, 52.83632 ], [ -114.12898, 52.84544 ], [ -114.11257, 52.79848 ], [ -114.01963, 52.78406 ], [ -114.07837, 52.8265 ], [ -114.12762, 52.96741 ], [ -114.17013, 52.96285 ] ] ], [ [ [ -116.70175, 53.65242 ], [ -116.89665, 53.57949 ], [ -116.92023, 53.52744 ], [ -116.84384, 53.34031 ], [ -116.79178, 53.32214 ], [ -116.66407, 53.33773 ], [ -116.64522, 53.29095 ], [ -116.47496, 53.31157 ], [ -116.35647, 53.35034 ], [ -116.27488, 53.48273 ], [ -116.34555, 53.54792 ], [ -116.37357, 53.61823 ], [ -116.46863, 53.63141 ], [ -116.48745, 53.67827 ], [ -116.70175, 53.65242 ] ] ], [ [ [ -119.5426, 55.218 ], [ -119.58645, 55.21206 ], [ -119.60799, 55.15927 ], [ -119.52038, 55.17115 ], [ -119.5426, 55.218 ] ] ] ] } },
{ "type": "Feature", "properties": { "ID": 8 }, "geometry": { "type": "MultiPolygon", "coordinates": [ [ [ [ -112.19064, 51.56396 ], [ -112.32252, 51.57523 ], [ -112.34237, 51.50078 ], [ -112.28647, 51.45795 ], [ -112.16202, 51.47011 ], [ -112.19064, 51.56396 ] ] ], [ [ [ -114.37304, 51.79745 ], [ -114.25642, 51.83456 ], [ -114.18937, 51.89046 ], [ -114.24618, 52.05428 ], [ -114.30429, 52.09652 ], [ -114.51324, 52.07351 ], [ -114.50498, 52.05012 ], [ -114.46322, 52.05474 ], [ -114.37304, 51.79745 ] ] ], [ [ [ -114.01963, 52.78406 ], [ -113.85006, 52.80205 ], [ -113.81571, 52.83001 ], [ -113.68838, 52.84337 ], [ -113.65392, 52.8713 ], [ -113.74239, 53.12995 ], [ -113.91307, 53.11205 ], [ -113.92123, 53.13556 ], [ -114.13451, 53.11293 ], [ -114.21147, 53.08031 ], [ -114.17013, 52.96285 ], [ -114.12762, 52.96741 ], [ -114.07837, 52.8265 ], [ -114.01963, 52.78406 ] ] ], [ [ [ -114.30211, 53.46109 ], [ -114.43925, 53.47076 ], [ -114.6108, 53.45214 ], [ -114.7308, 53.41456 ], [ -114.75646, 53.36286 ], [ -114.67107, 53.12799 ], [ -114.57739, 53.11385 ], [ -114.36431, 53.13703 ], [ -114.22806, 53.12731 ], [ -114.15103, 53.15994 ], [ -114.14143, 53.25855 ], [ -114.1996, 53.4232 ], [ -114.28535, 53.41404 ], [ -114.30211, 53.46109 ] ] ], [ [ [ -113.73324, 53.61871 ], [ -113.79269, 53.66138 ], [ -113.8255, 53.75568 ], [ -113.95505, 53.74218 ], [ -114.03306, 53.70955 ], [ -114.01647, 53.66243 ], [ -114.14573, 53.64878 ], [ -114.07919, 53.46041 ], [ -114.01974, 53.41787 ], [ -113.93393, 53.42691 ], [ -113.91751, 53.37983 ], [ -113.83175, 53.38881 ], [ -113.75409, 53.42131 ], [ -113.66823, 53.43021 ], [ -113.68444, 53.47732 ], [ -113.64146, 53.48176 ], [ -113.69015, 53.62317 ], [ -113.73324, 53.61871 ] ] ], [ [ [ -119.60799, 55.15927 ], [ -119.58573, 55.11244 ], [ -119.4982, 55.12431 ], [ -119.47606, 55.07748 ], [ -119.33379, 55.07177 ], [ -119.1587, 55.09522 ], [ -119.03814, 55.13615 ], [ -118.98297, 55.21813 ], [ -119.0265, 55.31199 ], [ -119.08142, 55.32964 ], [ -119.16951, 55.21828 ], [ -119.21341, 55.21243 ], [ -119.30116, 55.20069 ], [ -119.34503, 55.1948 ], [ -119.42205, 55.25921 ], [ -119.50984, 55.24737 ], [ -119.53148, 55.19458 ], [ -119.52038, 55.17115 ], [ -119.60799, 55.15927 ] ] ] ] } },
{ "type": "Feature", "properties": { "ID": 9 }, "geometry": { "type": "MultiPolygon", "coordinates": [ [ [ [ -110.66473, 53.47062 ], [ -110.75113, 53.46321 ], [ -110.8534, 53.35732 ], [ -110.79913, 53.16803 ], [ -110.71322, 53.17545 ], [ -110.69979, 53.12814 ], [ -110.60727, 53.11186 ], [ -110.39263, 53.13009 ], [ -110.27029, 53.16458 ], [ -110.24032, 53.21552 ], [ -110.29917, 53.42872 ], [ -110.39877, 53.46889 ], [ -110.658, 53.44693 ], [ -110.66473, 53.47062 ] ] ], [ [ [ -110.24129, 54.50269 ], [ -110.32949, 54.49546 ], [ -110.28263, 54.32886 ], [ -110.16822, 54.2409 ], [ -109.90477, 54.26219 ], [ -109.7794, 54.2965 ], [ -109.71068, 54.37489 ], [ -109.72994, 54.44635 ], [ -109.78695, 54.49052 ], [ -109.95035, 54.42884 ], [ -110.03847, 54.42176 ], [ -110.05162, 54.46938 ], [ -110.18388, 54.45866 ], [ -110.24129, 54.50269 ] ] ] ] } },
{ "type": "Feature", "properties": { "ID": 10 }, "geometry": { "type": "MultiPolygon", "coordinates": [ [ [ [ -111.56378, 53.22131 ], [ -111.73547, 53.20557 ], [ -111.85692, 53.17004 ], [ -111.88528, 53.11884 ], [ -111.85636, 53.02443 ], [ -111.87742, 52.94966 ], [ -111.76337, 52.86326 ], [ -111.5075, 52.88682 ], [ -111.3725, 52.87485 ], [ -111.38647, 52.92206 ], [ -111.27222, 52.98085 ], [ -111.32801, 53.16985 ], [ -111.41382, 53.16212 ], [ -111.4279, 53.20938 ], [ -111.56378, 53.22131 ] ] ], [ [ [ -113.62827, 53.70279 ], [ -113.7823, 53.76017 ], [ -113.8255, 53.75568 ], [ -113.79269, 53.66138 ], [ -113.73324, 53.61871 ], [ -113.60394, 53.63205 ], [ -113.62827, 53.70279 ] ] ] ] } },
{ "type": "Feature", "properties": { "ID": 11 }, "geometry": { "type": "MultiPolygon", "coordinates": [ [ [ [ -116.39363, 50.53918 ], [ -116.52376, 50.54712 ], [ -116.45288, 50.36164 ], [ -116.41259, 50.36671 ], [ -116.3899, 50.41815 ], [ -116.35835, 50.44641 ], [ -116.39363, 50.53918 ] ] ], [ [ [ -115.17956, 50.92908 ], [ -115.22038, 50.9243 ], [ -115.23718, 50.97086 ], [ -115.27803, 50.96607 ], [ -115.31044, 50.93798 ], [ -115.28518, 50.86816 ], [ -115.16282, 50.88252 ], [ -115.17956, 50.92908 ] ] ], [ [ [ -116.63813, 51.94575 ], [ -116.5369, 51.90946 ], [ -116.51867, 51.8629 ], [ -116.14555, 51.90856 ], [ -116.12194, 51.96019 ], [ -116.1668, 52.07674 ], [ -116.20841, 52.0717 ], [ -116.19941, 52.04839 ], [ -116.28259, 52.03828 ], [ -116.27356, 52.01498 ], [ -116.31512, 52.00991 ], [ -116.29705, 51.96332 ], [ -116.42157, 51.94808 ], [ -116.56431, 51.97931 ], [ -116.63813, 51.94575 ] ] ], [ [ [ -116.5361, 52.12931 ], [ -116.66095, 52.11388 ], [ -116.67017, 52.13717 ], [ -116.7534, 52.12683 ], [ -116.7349, 52.08026 ], [ -116.69333, 52.08543 ], [ -116.6565, 51.9923 ], [ -116.63335, 52.04402 ], [ -116.55023, 52.0543 ], [ -116.55939, 52.07759 ], [ -116.5178, 52.08272 ], [ -116.5361, 52.12931 ] ] ], [ [ [ -116.44252, 52.33624 ], [ -116.56788, 52.32087 ], [ -116.66067, 52.33388 ], [ -116.76737, 52.27175 ], [ -116.73954, 52.20187 ], [ -116.57282, 52.22251 ], [ -116.52194, 52.20433 ], [ -116.48025, 52.20945 ], [ -116.50774, 52.27938 ], [ -116.46598, 52.2845 ], [ -116.44252, 52.33624 ] ] ] ] } },
{ "type": "Feature", "properties": { "ID": 12 }, "geometry": { "type": "MultiPolygon", "coordinates": [ [ [ [ -116.10426, 50.33237 ], [ -116.16195, 50.37376 ], [ -116.18811, 50.44336 ], [ -116.22848, 50.43834 ], [ -116.26009, 50.41011 ], [ -116.25134, 50.38692 ], [ -116.27415, 50.3355 ], [ -116.19356, 50.34555 ], [ -116.17614, 50.29917 ], [ -116.10426, 50.33237 ] ] ], [ [ [ -116.15645, 50.47157 ], [ -116.18811, 50.44336 ], [ -116.14773, 50.44837 ], [ -116.15645, 50.47157 ] ] ], [ [ [ -116.31512, 52.00991 ], [ -116.33856, 51.95825 ], [ -116.29705, 51.96332 ], [ -116.31512, 52.00991 ] ] ], [ [ [ -116.39298, 52.09804 ], [ -116.38389, 52.07474 ], [ -116.34229, 52.07982 ], [ -116.35136, 52.10312 ], [ -116.39298, 52.09804 ] ] ], [ [ [ -116.6794, 52.16046 ], [ -116.5961, 52.17077 ], [ -116.6053, 52.19406 ], [ -116.52194, 52.20433 ], [ -116.57282, 52.22251 ], [ -116.7812, 52.19669 ], [ -116.795, 52.12164 ], [ -116.67017, 52.13717 ], [ -116.6794, 52.16046 ] ] ], [ [ [ -116.46598, 52.2845 ], [ -116.50774, 52.27938 ], [ -116.49857, 52.25607 ], [ -116.45683, 52.26118 ], [ -116.46598, 52.2845 ] ] ], [ [ [ -117.92024, 53.03232 ], [ -117.93262, 52.95696 ], [ -117.84831, 52.96791 ], [ -117.83581, 53.04327 ], [ -117.92024, 53.03232 ] ] ], [ [ [ -107.66542, 37.49461 ], [ -107.56615, 37.50329 ], [ -107.57834, 37.5738 ], [ -107.61963, 37.6179 ], [ -107.68592, 37.61209 ], [ -107.69003, 37.63559 ], [ -107.72318, 37.63267 ], [ -107.71494, 37.58569 ], [ -107.68181, 37.5886 ], [ -107.66542, 37.49461 ] ] ], [ [ [ -114.99894, 50.78037 ], [ -114.9417, 50.73852 ], [ -114.97415, 50.71052 ], [ -114.89277, 50.71995 ], [ -114.93395, 50.83638 ], [ -114.99894, 50.78037 ] ] ], [ [ [ -115.03209, 50.8735 ], [ -114.95048, 50.88296 ], [ -115.00788, 50.92481 ], [ -115.02449, 50.9714 ], [ -115.06536, 50.96665 ], [ -115.03209, 50.8735 ] ] ], [ [ [ -115.20472, 50.99893 ], [ -115.24559, 50.99414 ], [ -115.22038, 50.9243 ], [ -115.17956, 50.92908 ], [ -115.20472, 50.99893 ] ] ], [ [ [ -115.49922, 50.98848 ], [ -115.47368, 50.91867 ], [ -115.35126, 50.93317 ], [ -115.37665, 51.003 ], [ -115.49922, 50.98848 ] ] ], [ [ [ -115.16485, 51.12494 ], [ -115.19008, 51.19483 ], [ -115.16587, 51.24622 ], [ -115.33858, 51.25032 ], [ -115.32161, 51.20374 ], [ -115.23955, 51.21334 ], [ -115.27212, 51.18525 ], [ -115.31314, 51.18044 ], [ -115.35414, 51.17563 ], [ -115.33718, 51.12905 ], [ -115.25523, 51.13866 ], [ -115.23836, 51.09208 ], [ -115.19741, 51.09687 ], [ -115.20582, 51.12016 ], [ -115.16485, 51.12494 ] ] ], [ [ [ -116.30067, 52.08489 ], [ -116.34229, 52.07982 ], [ -116.31512, 52.00991 ], [ -116.27356, 52.01498 ], [ -116.30067, 52.08489 ] ] ], [ [ [ -116.36044, 52.12643 ], [ -116.35136, 52.10312 ], [ -116.31879, 52.13151 ], [ -116.36044, 52.12643 ] ] ], [ [ [ -116.08354, 52.08679 ], [ -116.11942, 52.18007 ], [ -116.22088, 52.21664 ], [ -116.23897, 52.26328 ], [ -116.28073, 52.25822 ], [ -116.27166, 52.2349 ], [ -116.3134, 52.22983 ], [ -116.34603, 52.20144 ], [ -116.31879, 52.13151 ], [ -116.22645, 52.11832 ], [ -116.20841, 52.0717 ], [ -116.08354, 52.08679 ] ] ], [ [ [ -116.46598, 52.2845 ], [ -116.38245, 52.2947 ], [ -116.39158, 52.31802 ], [ -116.44252, 52.33624 ], [ -116.46598, 52.2845 ] ] ] ] } },
{ "type": "Feature", "properties": { "ID": 13 }, "geometry": { "type": "MultiPolygon", "coordinates": [ [ [ [ -116.04094, 50.38875 ], [ -116.08129, 50.38376 ], [ -116.09865, 50.43017 ], [ -116.14773, 50.44837 ], [ -116.18811, 50.44336 ], [ -116.16195, 50.37376 ], [ -116.10426, 50.33237 ], [ -116.02364, 50.34234 ], [ -116.04094, 50.38875 ] ] ], [ [ [ -116.22848, 50.43834 ], [ -116.25476, 50.50793 ], [ -116.22309, 50.53617 ], [ -116.27231, 50.55434 ], [ -116.3532, 50.54424 ], [ -116.3092, 50.42827 ], [ -116.3899, 50.41815 ], [ -116.35471, 50.32541 ], [ -116.27415, 50.3355 ], [ -116.25134, 50.38692 ], [ -116.26885, 50.43331 ], [ -116.22848, 50.43834 ] ] ], [ [ [ -115.30334, 51.03591 ], [ -115.34423, 51.0311 ], [ -115.40209, 51.07283 ], [ -115.43613, 51.16596 ], [ -115.51809, 51.15626 ], [ -115.55048, 51.12811 ], [ -115.49922, 50.98848 ], [ -115.37665, 51.003 ], [ -115.35126, 50.93317 ], [ -115.31044, 50.93798 ], [ -115.27803, 50.96607 ], [ -115.23718, 50.97086 ], [ -115.24559, 50.99414 ], [ -115.28646, 50.98935 ], [ -115.30334, 51.03591 ] ] ], [ [ [ -116.32417, 52.03321 ], [ -116.36574, 52.02814 ], [ -116.37481, 52.05144 ], [ -116.54108, 52.03101 ], [ -116.55023, 52.0543 ], [ -116.59179, 52.04916 ], [ -116.57346, 52.00259 ], [ -116.56431, 51.97931 ], [ -116.42157, 51.94808 ], [ -116.33856, 51.95825 ], [ -116.31512, 52.00991 ], [ -116.32417, 52.03321 ] ] ], [ [ [ -116.33694, 52.17813 ], [ -116.4203, 52.16795 ], [ -116.40208, 52.12134 ], [ -116.31879, 52.13151 ], [ -116.33694, 52.17813 ] ] ], [ [ [ -116.44371, 52.11624 ], [ -116.52194, 52.20433 ], [ -116.6053, 52.19406 ], [ -116.57773, 52.12418 ], [ -116.49447, 52.13443 ], [ -116.48533, 52.11113 ], [ -116.44371, 52.11624 ] ] ], [ [ [ -116.35512, 52.22475 ], [ -116.34603, 52.20144 ], [ -116.3134, 52.22983 ], [ -116.35512, 52.22475 ] ] ], [ [ [ -116.32248, 52.25315 ], [ -116.3134, 52.22983 ], [ -116.27166, 52.2349 ], [ -116.28073, 52.25822 ], [ -116.32248, 52.25315 ] ] ], [ [ [ -117.89788, 53.0844 ], [ -117.92024, 53.03232 ], [ -117.87803, 53.0378 ], [ -117.89788, 53.0844 ] ] ], [ [ [ -107.01308, 37.40724 ], [ -106.98386, 37.4335 ], [ -106.99542, 37.50406 ], [ -107.12787, 37.49303 ], [ -107.12007, 37.446 ], [ -107.05389, 37.45153 ], [ -107.04615, 37.40449 ], [ -107.01308, 37.40724 ] ] ], [ [ [ -107.66542, 37.49461 ], [ -107.65724, 37.44761 ], [ -107.59111, 37.4534 ], [ -107.59925, 37.50041 ], [ -107.66542, 37.49461 ] ] ], [ [ [ -107.73982, 37.53578 ], [ -107.66542, 37.49461 ], [ -107.68181, 37.5886 ], [ -107.74807, 37.58276 ], [ -107.73982, 37.53578 ] ] ], [ [ [ -107.68592, 37.61209 ], [ -107.65277, 37.615 ], [ -107.66097, 37.66199 ], [ -107.69414, 37.65908 ], [ -107.68592, 37.61209 ] ] ], [ [ [ -114.87744, 51.03688 ], [ -114.9676, 51.05075 ], [ -115.00854, 51.04602 ], [ -114.99191, 50.99942 ], [ -115.03281, 50.99469 ], [ -115.00788, 50.92481 ], [ -114.95048, 50.88296 ], [ -114.93395, 50.83638 ], [ -114.88455, 50.69667 ], [ -114.72177, 50.71539 ], [ -114.74624, 50.78527 ], [ -114.83595, 50.7992 ], [ -114.8118, 50.97166 ], [ -114.87744, 51.03688 ] ] ], [ [ [ -115.10623, 50.9619 ], [ -115.13968, 51.05506 ], [ -115.189, 51.07358 ], [ -115.22994, 51.06879 ], [ -115.18794, 50.95236 ], [ -115.10623, 50.9619 ] ] ], [ [ [ -115.20582, 51.12016 ], [ -115.189, 51.07358 ], [ -115.16485, 51.12494 ], [ -115.20582, 51.12016 ] ] ], [ [ [ -115.16587, 51.24622 ], [ -115.19008, 51.19483 ], [ -115.16485, 51.12494 ], [ -115.08287, 51.13447 ], [ -115.12479, 51.25099 ], [ -115.16587, 51.24622 ] ] ], [ [ [ -115.39514, 51.1708 ], [ -115.27212, 51.18525 ], [ -115.28058, 51.20855 ], [ -115.32161, 51.20374 ], [ -115.33858, 51.25032 ], [ -115.41216, 51.21738 ], [ -115.39514, 51.1708 ] ] ] ] } },
{ "type": "Feature", "properties": { "ID": 14 }, "geometry": { "type": "MultiPolygon", "coordinates": [ [ [ [ -110.17439, 52.01273 ], [ -110.30054, 52.00202 ], [ -110.28777, 51.95488 ], [ -110.44929, 51.91692 ], [ -110.47833, 51.86618 ], [ -110.42049, 51.65423 ], [ -110.25341, 51.66859 ], [ -110.24076, 51.62149 ], [ -110.12177, 51.65569 ], [ -109.95461, 51.66974 ], [ -109.96701, 51.71687 ], [ -109.89569, 51.77098 ], [ -109.87232, 51.84518 ], [ -109.96242, 51.86179 ], [ -109.98736, 51.9561 ], [ -110.04192, 51.99975 ], [ -110.17439, 52.01273 ] ] ], [ [ [ -110.65465, 52.50278 ], [ -110.66789, 52.54999 ], [ -110.83765, 52.53518 ], [ -110.95815, 52.50037 ], [ -110.98028, 52.42586 ], [ -111.06493, 52.41832 ], [ -111.03109, 52.30046 ], [ -110.98886, 52.30422 ], [ -110.96198, 52.20995 ], [ -110.87765, 52.21743 ], [ -110.86431, 52.1703 ], [ -110.77341, 52.15416 ], [ -110.60485, 52.16889 ], [ -110.48487, 52.2034 ], [ -110.45564, 52.2542 ], [ -110.47514, 52.32497 ], [ -110.44584, 52.37579 ], [ -110.47189, 52.4702 ], [ -110.56981, 52.51012 ], [ -110.65465, 52.50278 ] ] ], [ [ [ -110.1539, 52.73876 ], [ -110.23272, 52.70799 ], [ -110.34104, 52.62634 ], [ -110.30869, 52.50825 ], [ -110.19817, 52.42096 ], [ -110.10704, 52.40445 ], [ -109.81029, 52.42897 ], [ -109.73164, 52.45951 ], [ -109.70774, 52.53386 ], [ -109.7512, 52.69938 ], [ -109.84273, 52.71609 ], [ -109.85528, 52.7634 ], [ -110.1539, 52.73876 ] ] ] ] } },
{ "type": "Feature", "properties": { "ID": 15 }, "geometry": { "type": "MultiPolygon", "coordinates": [ [ [ [ -112.37327, 51.73948 ], [ -112.53262, 51.69956 ], [ -112.63537, 51.61676 ], [ -112.58393, 51.45265 ], [ -112.52788, 51.40991 ], [ -112.40361, 51.42225 ], [ -112.43053, 51.37126 ], [ -112.26491, 51.38759 ], [ -112.23065, 51.4151 ], [ -112.06483, 51.43124 ], [ -112.03044, 51.45871 ], [ -112.06593, 51.57605 ], [ -112.02435, 51.58006 ], [ -112.06705, 51.72092 ], [ -112.1921, 51.70882 ], [ -112.20648, 51.75578 ], [ -112.37327, 51.73948 ] ], [ [ -112.19064, 51.56396 ], [ -112.16202, 51.47011 ], [ -112.28647, 51.45795 ], [ -112.34237, 51.50078 ], [ -112.32252, 51.57523 ], [ -112.19064, 51.56396 ] ] ], [ [ [ -113.68444, 53.47732 ], [ -113.66014, 53.40666 ], [ -113.57429, 53.41551 ], [ -113.63083, 53.58046 ], [ -113.60394, 53.63205 ], [ -113.69015, 53.62317 ], [ -113.64146, 53.48176 ], [ -113.68444, 53.47732 ] ] ] ] } },
{ "type": "Feature", "properties": { "ID": 16 }, "geometry": { "type": "MultiPolygon", "coordinates": [ [ [ [ -113.9165, 51.21694 ], [ -113.93226, 51.26367 ], [ -114.17928, 51.23665 ], [ -114.33577, 51.19509 ], [ -114.39374, 51.11592 ], [ -114.33746, 50.95262 ], [ -114.25561, 50.96174 ], [ -114.23966, 50.91508 ], [ -114.10901, 50.90533 ], [ -113.90441, 50.92777 ], [ -113.83031, 50.96002 ], [ -113.84592, 51.00673 ], [ -113.77168, 51.03896 ], [ -113.82634, 51.20249 ], [ -113.9165, 51.21694 ] ], [ [ -114.18048, 51.11538 ], [ -114.0162, 51.13343 ], [ -113.92615, 51.11903 ], [ -113.86156, 51.05343 ], [ -113.96104, 50.96999 ], [ -114.0839, 50.95651 ], [ -114.14865, 51.02201 ], [ -114.18048, 51.11538 ] ] ], [ [ [ -114.9676, 51.05075 ], [ -114.93495, 51.07877 ], [ -114.96818, 51.172 ], [ -115.05023, 51.16252 ], [ -115.02519, 51.09262 ], [ -115.04947, 51.04128 ], [ -114.9676, 51.05075 ] ] ], [ [ [ -117.91778, 53.13101 ], [ -117.98002, 53.17212 ], [ -118.09689, 53.13227 ], [ -118.11906, 53.08016 ], [ -118.0246, 53.06791 ], [ -117.89788, 53.0844 ], [ -117.91778, 53.13101 ] ] ] ] } },
{ "type": "Feature", "properties": { "ID": 17 }, "geometry": { "type": "MultiPolygon", "coordinates": [ [ [ [ -116.27415, 50.3355 ], [ -116.25666, 50.28913 ], [ -116.17614, 50.29917 ], [ -116.19356, 50.34555 ], [ -116.27415, 50.3355 ] ] ], [ [ [ -116.3899, 50.41815 ], [ -116.3092, 50.42827 ], [ -116.3532, 50.54424 ], [ -116.39363, 50.53918 ], [ -116.35835, 50.44641 ], [ -116.3899, 50.41815 ] ] ], [ [ [ -116.55939, 52.07759 ], [ -116.54108, 52.03101 ], [ -116.49952, 52.03613 ], [ -116.5178, 52.08272 ], [ -116.55939, 52.07759 ] ] ], [ [ [ -116.5361, 52.12931 ], [ -116.5178, 52.08272 ], [ -116.4762, 52.08783 ], [ -116.49447, 52.13443 ], [ -116.5361, 52.12931 ] ] ], [ [ [ -116.66095, 52.11388 ], [ -116.57773, 52.12418 ], [ -116.5961, 52.17077 ], [ -116.6794, 52.16046 ], [ -116.66095, 52.11388 ] ] ], [ [ [ -114.99894, 50.78037 ], [ -114.93395, 50.83638 ], [ -114.95048, 50.88296 ], [ -115.03209, 50.8735 ], [ -115.04796, 50.79891 ], [ -114.99894, 50.78037 ] ] ], [ [ [ -115.27212, 51.18525 ], [ -115.23955, 51.21334 ], [ -115.28058, 51.20855 ], [ -115.27212, 51.18525 ] ] ], [ [ [ -116.1668, 52.07674 ], [ -116.13986, 52.00681 ], [ -116.06564, 52.04016 ], [ -116.08354, 52.08679 ], [ -116.1668, 52.07674 ] ] ], [ [ [ -116.19941, 52.04839 ], [ -116.22645, 52.11832 ], [ -116.31879, 52.13151 ], [ -116.35136, 52.10312 ], [ -116.34229, 52.07982 ], [ -116.30067, 52.08489 ], [ -116.28259, 52.03828 ], [ -116.19941, 52.04839 ] ] ] ] } },
{ "type": "Feature", "properties": { "ID": 18 }, "geometry": { "type": "MultiPolygon", "coordinates": [ [ [ [ -116.26885, 50.43331 ], [ -116.26009, 50.41011 ], [ -116.22848, 50.43834 ], [ -116.26885, 50.43331 ] ] ], [ [ [ -116.18811, 50.44336 ], [ -116.15645, 50.47157 ], [ -116.22309, 50.53617 ], [ -116.25476, 50.50793 ], [ -116.22848, 50.43834 ], [ -116.18811, 50.44336 ] ] ], [ [ [ -115.91392, 50.50145 ], [ -115.95713, 50.61755 ], [ -115.99765, 50.61259 ], [ -115.95436, 50.4965 ], [ -115.91392, 50.50145 ] ] ], [ [ [ -116.34229, 52.07982 ], [ -116.38389, 52.07474 ], [ -116.36574, 52.02814 ], [ -116.32417, 52.03321 ], [ -116.34229, 52.07982 ] ] ], [ [ [ -116.4762, 52.08783 ], [ -116.45796, 52.04124 ], [ -116.41639, 52.04634 ], [ -116.4762, 52.08783 ] ] ], [ [ [ -116.52194, 52.20433 ], [ -116.44371, 52.11624 ], [ -116.40208, 52.12134 ], [ -116.45683, 52.26118 ], [ -116.49857, 52.25607 ], [ -116.48025, 52.20945 ], [ -116.52194, 52.20433 ] ] ], [ [ [ -117.85563, 53.08988 ], [ -117.91778, 53.13101 ], [ -117.89788, 53.0844 ], [ -117.85563, 53.08988 ] ] ], [ [ [ -118.09689, 53.13227 ], [ -118.13915, 53.12674 ], [ -118.11906, 53.08016 ], [ -118.09689, 53.13227 ] ] ], [ [ [ -117.85304, 53.18858 ], [ -117.76834, 53.1995 ], [ -117.84049, 53.264 ], [ -118.01003, 53.24204 ], [ -118.12703, 53.20216 ], [ -118.09689, 53.13227 ], [ -117.98002, 53.17212 ], [ -117.91778, 53.13101 ], [ -117.84311, 53.16527 ], [ -117.85304, 53.18858 ] ] ], [ [ [ -107.0831, 37.42525 ], [ -107.07533, 37.37821 ], [ -107.04228, 37.38096 ], [ -107.05389, 37.45153 ], [ -107.12007, 37.446 ], [ -107.11617, 37.42248 ], [ -107.0831, 37.42525 ] ] ], [ [ [ -107.62418, 37.45051 ], [ -107.61604, 37.40351 ], [ -107.58299, 37.4064 ], [ -107.59111, 37.4534 ], [ -107.62418, 37.45051 ] ] ], [ [ [ -107.76054, 37.46236 ], [ -107.66133, 37.47111 ], [ -107.66542, 37.49461 ], [ -107.73982, 37.53578 ], [ -107.76467, 37.48586 ], [ -107.76054, 37.46236 ] ] ], [ [ [ -107.91785, 37.59152 ], [ -107.81847, 37.60039 ], [ -107.83094, 37.67085 ], [ -107.93042, 37.66198 ], [ -107.91785, 37.59152 ] ] ], [ [ [ -114.63223, 50.70139 ], [ -114.47739, 50.74317 ], [ -114.43602, 50.86892 ], [ -114.48442, 51.00883 ], [ -114.56631, 50.99959 ], [ -114.58256, 51.04623 ], [ -114.70544, 51.03229 ], [ -114.79555, 51.04626 ], [ -114.8118, 50.97166 ], [ -114.6973, 50.88779 ], [ -114.66471, 50.79458 ], [ -114.60771, 50.75262 ], [ -114.63223, 50.70139 ] ] ], [ [ [ -115.04947, 51.04128 ], [ -115.02519, 51.09262 ], [ -115.03353, 51.11592 ], [ -115.07451, 51.11117 ], [ -115.08287, 51.13447 ], [ -115.16485, 51.12494 ], [ -115.189, 51.07358 ], [ -115.13968, 51.05506 ], [ -115.12294, 51.00848 ], [ -115.0737, 50.98994 ], [ -114.99191, 50.99942 ], [ -115.00854, 51.04602 ], [ -115.04947, 51.04128 ] ] ], [ [ [ -115.29621, 51.13386 ], [ -115.33718, 51.12905 ], [ -115.35414, 51.17563 ], [ -115.39514, 51.1708 ], [ -115.41216, 51.21738 ], [ -115.45319, 51.21253 ], [ -115.40209, 51.07283 ], [ -115.34423, 51.0311 ], [ -115.30334, 51.03591 ], [ -115.31179, 51.05919 ], [ -115.27087, 51.064 ], [ -115.29621, 51.13386 ] ] ], [ [ [ -115.05859, 51.18583 ], [ -115.05023, 51.16252 ], [ -115.01755, 51.19057 ], [ -115.05859, 51.18583 ] ] ], [ [ [ -116.32248, 52.25315 ], [ -116.23897, 52.26328 ], [ -116.24803, 52.28661 ], [ -116.30798, 52.32819 ], [ -116.39158, 52.31802 ], [ -116.38245, 52.2947 ], [ -116.34068, 52.29979 ], [ -116.32248, 52.25315 ] ] ] ] } },
{ "type": "Feature", "properties": { "ID": 19 }, "geometry": { "type": "MultiPolygon", "coordinates": [ [ [ [ -116.05828, 50.43516 ], [ -116.02655, 50.46335 ], [ -116.14773, 50.44837 ], [ -116.09865, 50.43017 ], [ -116.08129, 50.38376 ], [ -116.04094, 50.38875 ], [ -116.05828, 50.43516 ] ] ], [ [ [ -116.63813, 51.94575 ], [ -116.56431, 51.97931 ], [ -116.59179, 52.04916 ], [ -116.63335, 52.04402 ], [ -116.6565, 51.9923 ], [ -116.63813, 51.94575 ] ] ], [ [ [ -116.5178, 52.08272 ], [ -116.49952, 52.03613 ], [ -116.45796, 52.04124 ], [ -116.4762, 52.08783 ], [ -116.5178, 52.08272 ] ] ], [ [ [ -116.37481, 52.05144 ], [ -116.39298, 52.09804 ], [ -116.35136, 52.10312 ], [ -116.36044, 52.12643 ], [ -116.48533, 52.11113 ], [ -116.4762, 52.08783 ], [ -116.41639, 52.04634 ], [ -116.37481, 52.05144 ] ] ], [ [ [ -117.69637, 53.13499 ], [ -117.70623, 53.15831 ], [ -117.75844, 53.17619 ], [ -117.80078, 53.17073 ], [ -117.81069, 53.19405 ], [ -117.85304, 53.18858 ], [ -117.84311, 53.16527 ], [ -117.85563, 53.08988 ], [ -117.89788, 53.0844 ], [ -117.87803, 53.0378 ], [ -117.83581, 53.04327 ], [ -117.81602, 52.99667 ], [ -117.73162, 53.00757 ], [ -117.77109, 53.1008 ], [ -117.72881, 53.10624 ], [ -117.69637, 53.13499 ] ] ], [ [ [ -106.99542, 37.50406 ], [ -106.98386, 37.4335 ], [ -107.01308, 37.40724 ], [ -106.94693, 37.41271 ], [ -106.9623, 37.5068 ], [ -106.99542, 37.50406 ] ] ], [ [ [ -114.63223, 50.70139 ], [ -114.60771, 50.75262 ], [ -114.66471, 50.79458 ], [ -114.6973, 50.88779 ], [ -114.8118, 50.97166 ], [ -114.83595, 50.7992 ], [ -114.74624, 50.78527 ], [ -114.72177, 50.71539 ], [ -114.63223, 50.70139 ] ] ], [ [ [ -115.02449, 50.9714 ], [ -115.03281, 50.99469 ], [ -115.0737, 50.98994 ], [ -115.12294, 51.00848 ], [ -115.10623, 50.9619 ], [ -115.18794, 50.95236 ], [ -115.17119, 50.9058 ], [ -115.04871, 50.92007 ], [ -115.06536, 50.96665 ], [ -115.02449, 50.9714 ] ] ], [ [ [ -114.87744, 51.03688 ], [ -114.8118, 50.97166 ], [ -114.79555, 51.04626 ], [ -114.87744, 51.03688 ] ] ], [ [ [ -115.189, 51.07358 ], [ -115.19741, 51.09687 ], [ -115.23836, 51.09208 ], [ -115.25523, 51.13866 ], [ -115.29621, 51.13386 ], [ -115.27087, 51.064 ], [ -115.31179, 51.05919 ], [ -115.28646, 50.98935 ], [ -115.20472, 50.99893 ], [ -115.22994, 51.06879 ], [ -115.189, 51.07358 ] ] ], [ [ [ -115.03353, 51.11592 ], [ -115.05859, 51.18583 ], [ -115.01755, 51.19057 ], [ -115.0259, 51.21388 ], [ -115.108, 51.20438 ], [ -115.07451, 51.11117 ], [ -115.03353, 51.11592 ] ] ], [ [ [ -116.33694, 52.17813 ], [ -116.35512, 52.22475 ], [ -116.3134, 52.22983 ], [ -116.34068, 52.29979 ], [ -116.46598, 52.2845 ], [ -116.4203, 52.16795 ], [ -116.33694, 52.17813 ] ] ] ] } },
{ "type": "Feature", "properties": { "ID": 20 }, "geometry": { "type": "MultiPolygon", "coordinates": [ [ [ [ -99.74951, 50.8723 ], [ -99.87432, 50.86943 ], [ -99.86245, 50.70327 ], [ -99.77454, 50.63399 ], [ -99.65027, 50.63678 ], [ -99.64708, 50.58932 ], [ -99.52291, 50.59201 ], [ -99.65827, 50.75545 ], [ -99.66148, 50.80293 ], [ -99.74622, 50.82481 ], [ -99.74951, 50.8723 ] ] ], [ [ [ -80.93841, 50.61017 ], [ -81.14305, 50.62883 ], [ -81.15598, 50.58192 ], [ -81.27873, 50.59298 ], [ -81.33242, 50.54973 ], [ -81.31069, 50.4757 ], [ -81.33616, 50.38189 ], [ -81.30813, 50.33134 ], [ -81.23308, 50.30055 ], [ -81.111, 50.28946 ], [ -80.99546, 50.25486 ], [ -80.98247, 50.30171 ], [ -80.81978, 50.28666 ], [ -80.79346, 50.38036 ], [ -80.73289, 50.44685 ], [ -80.80126, 50.50131 ], [ -80.8223, 50.57541 ], [ -80.93841, 50.61017 ] ] ], [ [ [ -111.49354, 57.44534 ], [ -111.5325, 57.41719 ], [ -111.67241, 57.40515 ], [ -111.75783, 57.37293 ], [ -111.81179, 57.24418 ], [ -111.77277, 57.12363 ], [ -111.85764, 57.09142 ], [ -111.80308, 56.92287 ], [ -111.74144, 56.87878 ], [ -111.64149, 56.86275 ], [ -111.36464, 56.88659 ], [ -111.31095, 56.86644 ], [ -111.19486, 56.95043 ], [ -111.23233, 57.07096 ], [ -111.18598, 57.07486 ], [ -111.21599, 57.17136 ], [ -111.14555, 57.25157 ], [ -111.21466, 57.32012 ], [ -111.24489, 57.41677 ], [ -111.38487, 57.40495 ], [ -111.40016, 57.45328 ], [ -111.49354, 57.44534 ] ] ] ] } },
{ "type": "Feature", "properties": { "ID": 21 }, "geometry": { "type": "MultiPolygon", "coordinates": [ [ [ [ -99.52291, 50.59201 ], [ -99.48304, 50.61662 ], [ -99.3588, 50.61919 ], [ -99.2817, 50.71579 ], [ -99.2889, 50.83451 ], [ -99.37502, 50.88033 ], [ -99.37799, 50.92783 ], [ -99.50448, 50.949 ], [ -99.62948, 50.94631 ], [ -99.71117, 50.92072 ], [ -99.74951, 50.8723 ], [ -99.74622, 50.82481 ], [ -99.66148, 50.80293 ], [ -99.65827, 50.75545 ], [ -99.52291, 50.59201 ] ] ] ] } },
{ "type": "Feature", "properties": { "ID": 22 }, "geometry": { "type": "MultiPolygon", "coordinates": [ [ [ [ -107.12787, 37.49303 ], [ -107.19801, 37.51098 ], [ -107.29734, 37.50258 ], [ -107.28942, 37.45555 ], [ -107.3516, 37.4264 ], [ -107.31986, 37.23827 ], [ -107.2539, 37.2439 ], [ -107.22092, 37.2467 ], [ -107.19185, 37.27302 ], [ -107.21538, 37.41413 ], [ -107.11617, 37.42248 ], [ -107.12787, 37.49303 ] ] ], [ [ [ -106.86554, 37.32404 ], [ -106.88078, 37.41815 ], [ -106.94693, 37.41271 ], [ -107.04615, 37.40449 ], [ -107.04228, 37.38096 ], [ -106.97616, 37.38645 ], [ -106.96848, 37.3394 ], [ -106.86554, 37.32404 ] ] ], [ [ [ -107.62418, 37.45051 ], [ -107.65724, 37.44761 ], [ -107.66133, 37.47111 ], [ -107.76054, 37.46236 ], [ -107.74407, 37.36836 ], [ -107.70286, 37.32427 ], [ -107.66985, 37.32719 ], [ -107.67803, 37.3742 ], [ -107.61197, 37.38 ], [ -107.62418, 37.45051 ] ] ], [ [ [ -107.69414, 37.65908 ], [ -107.73143, 37.67965 ], [ -107.83094, 37.67085 ], [ -107.81847, 37.60039 ], [ -107.91785, 37.59152 ], [ -108.05031, 37.57958 ], [ -108.01235, 37.36818 ], [ -107.97096, 37.32418 ], [ -107.87198, 37.33309 ], [ -107.89278, 37.45057 ], [ -107.85973, 37.45353 ], [ -107.87638, 37.5475 ], [ -107.73982, 37.53578 ], [ -107.74807, 37.58276 ], [ -107.71494, 37.58569 ], [ -107.72318, 37.63267 ], [ -107.69003, 37.63559 ], [ -107.69414, 37.65908 ] ] ], [ [ [ -113.4384, 48.85577 ], [ -113.42828, 48.95312 ], [ -113.46781, 48.94879 ], [ -113.4384, 48.85577 ] ] ] ] } },
{ "type": "Feature", "properties": { "ID": 23 }, "geometry": { "type": "MultiPolygon", "coordinates": [ [ [ [ -106.97616, 37.38645 ], [ -107.07533, 37.37821 ], [ -107.0831, 37.42525 ], [ -107.21538, 37.41413 ], [ -107.19185, 37.27302 ], [ -107.22092, 37.2467 ], [ -107.15495, 37.25228 ], [ -107.18012, 37.20245 ], [ -107.08122, 37.21077 ], [ -107.05984, 37.28411 ], [ -106.99382, 37.28961 ], [ -106.94548, 37.19823 ], [ -106.92014, 37.24802 ], [ -106.85794, 37.27698 ], [ -106.86554, 37.32404 ], [ -106.96848, 37.3394 ], [ -106.97616, 37.38645 ] ] ], [ [ [ -107.66985, 37.32719 ], [ -107.61197, 37.38 ], [ -107.67803, 37.3742 ], [ -107.66985, 37.32719 ] ] ], [ [ [ -107.61197, 37.38 ], [ -107.58299, 37.4064 ], [ -107.61604, 37.40351 ], [ -107.61197, 37.38 ] ] ], [ [ [ -107.73982, 37.53578 ], [ -107.87638, 37.5475 ], [ -107.85973, 37.45353 ], [ -107.79361, 37.45942 ], [ -107.77709, 37.36543 ], [ -107.80598, 37.33899 ], [ -107.70286, 37.32427 ], [ -107.74407, 37.36836 ], [ -107.76467, 37.48586 ], [ -107.73982, 37.53578 ] ] ], [ [ [ -113.42828, 48.95312 ], [ -113.191, 48.9789 ], [ -113.23464, 49.11854 ], [ -113.32127, 49.13323 ], [ -113.33595, 49.17978 ], [ -113.41533, 49.17115 ], [ -113.43009, 49.21769 ], [ -113.50951, 49.20902 ], [ -113.57652, 49.41846 ], [ -113.63137, 49.46063 ], [ -113.75096, 49.44745 ], [ -113.76814, 49.37324 ], [ -113.84016, 49.34114 ], [ -113.84962, 49.24369 ], [ -113.82695, 49.17393 ], [ -113.69075, 49.26133 ], [ -113.6608, 49.16829 ], [ -113.62113, 49.17267 ], [ -113.59134, 49.07964 ], [ -113.53691, 49.03748 ], [ -113.48256, 48.99531 ], [ -113.46781, 48.94879 ], [ -113.42828, 48.95312 ] ] ], [ [ [ -115.9371, 50.45007 ], [ -116.02655, 50.46335 ], [ -116.05828, 50.43516 ], [ -116.03229, 50.36554 ], [ -115.95161, 50.37548 ], [ -115.9371, 50.45007 ] ] ], [ [ [ -115.95436, 50.4965 ], [ -115.9371, 50.45007 ], [ -115.91392, 50.50145 ], [ -115.95436, 50.4965 ] ] ] ] } },
{ "type": "Feature", "properties": { "ID": 24 }, "geometry": { "type": "MultiPolygon", "coordinates": [ [ [ [ -106.94548, 37.19823 ], [ -106.99382, 37.28961 ], [ -107.05984, 37.28411 ], [ -107.08122, 37.21077 ], [ -107.18012, 37.20245 ], [ -107.15495, 37.25228 ], [ -107.2539, 37.2439 ], [ -107.24604, 37.19686 ], [ -107.17231, 37.15539 ], [ -107.00758, 37.16922 ], [ -106.94548, 37.19823 ] ] ], [ [ [ -107.80598, 37.33899 ], [ -107.77709, 37.36543 ], [ -107.79361, 37.45942 ], [ -107.89278, 37.45057 ], [ -107.87198, 37.33309 ], [ -107.80598, 37.33899 ] ] ], [ [ [ -97.29291, 45.70781 ], [ -97.21693, 45.70843 ], [ -97.21791, 45.75555 ], [ -97.29395, 45.75493 ], [ -97.29291, 45.70781 ] ] ] ] } }
]
}
